{"_id":{"$oid":"5e33f2744e7da70cb690457a"},"uuid":14004961,"name":"1ère Classe Blanc Mesnil","address":"219 Avenue Descartes","zipCode":93150,"city":"LE BLANC-MESNIL","status":"0","rooms":0,"lastVisit":{"$date":"2019-05-21T22:00:00Z"},"anomaly":29.1,"sector":"93","__v":0}
{"_id":{"$oid":"5e33f2744e7da70cb690457b"},"uuid":290,"name":"1ère Classe Chelles","address":"4 rue de l'Ormeteau","zipCode":77500,"city":"CHELLES","status":"0","rooms":10,"lastVisit":{"$date":"2019-08-21T22:00:00Z"},"anomaly":29.1,"sector":"77/91","__v":0}
{"_id":{"$oid":"5e33f2744e7da70cb690457c"},"uuid":26500133,"name":"1ère Classe Conflans - ESPERER","address":"11 rue des Belles Hâtes","zipCode":78700,"city":"CONFLANS-SAINTE-HONORINE","status":"0","rooms":9,"lastVisit":{"$date":"2019-09-22T22:00:00Z"},"anomaly":32.33,"sector":"78/95","__v":0}
{"_id":{"$oid":"5e33f2744e7da70cb690457d"},"uuid":286,"name":"1ère Classe Drancy","address":"10 Rue de Stalingrad","zipCode":93700,"city":"DRANCY","status":"0","rooms":38,"lastVisit":{"$date":"2019-07-23T22:00:00Z"},"anomaly":40,"sector":"93","__v":0}
{"_id":{"$oid":"5e33f2744e7da70cb690457e"},"uuid":1245162,"name":"1ère Classe Les Ulis","address":"13 Avenue des Tropiques","zipCode":91940,"city":"LES ULIS","status":"0","rooms":4,"lastVisit":{"$date":"2019-07-29T22:00:00Z"},"anomaly":31.52,"sector":"77/91","__v":0}
{"_id":{"$oid":"5e33f2744e7da70cb690457f"},"uuid":14005934,"name":"1ère Classe Montreuil","address":"64 rue Jean Lolive","zipCode":93100,"city":"MONTREUIL","status":"0","rooms":5,"lastVisit":{"$date":"2019-08-20T22:00:00Z"},"anomaly":33.94,"sector":"93","__v":0}
{"_id":{"$oid":"5e33f2744e7da70cb6904580"},"uuid":4562673,"name":"1ère classe Mouroux","address":"1100 rue de Liéton","zipCode":77120,"city":"MOUROUX","status":"0","rooms":29,"lastVisit":{"$date":"2019-06-24T22:00:00Z"},"anomaly":29.94,"sector":"77/91","__v":0}
{"_id":{"$oid":"5e33f2744e7da70cb6904581"},"uuid":183,"name":"1ère Classe cityneuve Saint Georges","address":"17 rue Louis Armand","zipCode":94190,"city":"cityNEUVE-SAINT-GEORGES","status":"0","rooms":0,"lastVisit":{"$date":"2019-10-16T22:00:00Z"},"anomaly":24.25,"sector":"92/94","__v":0}
{"_id":{"$oid":"5e33f2744e7da70cb6904582"},"uuid":140,"name":"29 Poissonniers","address":"29 rue des Poissonniers","zipCode":75018,"city":"PARIS","status":"0","rooms":30,"lastVisit":{"$date":"2019-12-08T23:00:00Z"},"anomaly":60,"sector":"Paris","__v":0}
{"_id":{"$oid":"5e33f2744e7da70cb6904583"},"uuid":16118746,"name":"66 Château d'Eau SOGESTHO","address":"66 rue du château d'eau","zipCode":75010,"city":"PARIS","status":"0","rooms":30,"lastVisit":{"$date":"2019-10-17T22:00:00Z"},"anomaly":57.3,"sector":"Paris","__v":0}
{"_id":{"$oid":"5e33f2744e7da70cb6904584"},"uuid":47855,"name":"Abc","address":"4 Rue Abel Truchet","zipCode":75017,"city":"PARIS","status":"0","rooms":33,"lastVisit":{"$date":"2019-12-08T23:00:00Z"},"anomaly":43.32,"sector":"Paris","__v":0}
{"_id":{"$oid":"5e33f2744e7da70cb6904585"},"uuid":14842593,"name":"Abricotel","address":"15 Rue Lally-Tollendal","zipCode":75019,"city":"PARIS","status":"0","rooms":16,"lastVisit":{"$date":"2019-10-02T22:00:00Z"},"anomaly":52.13,"sector":"Paris","__v":0}
{"_id":{"$oid":"5e33f2744e7da70cb6904586"},"uuid":14287604,"name":"Acostair","address":"184 avenue du 8 Mai 1945","zipCode":93150,"city":"LE BLANC-MESNIL","status":"0","rooms":17,"lastVisit":{"$date":"2019-08-19T22:00:00Z"},"anomaly":35.69,"sector":"93","__v":0}
{"_id":{"$oid":"5e33f2744e7da70cb6904587"},"uuid":4882372,"name":"Acostel","address":"336 avenue de la victoire","zipCode":77100,"city":"MEAUX","status":"0","rooms":27,"lastVisit":{"$date":"2019-09-02T22:00:00Z"},"anomaly":47.78,"sector":"77/91","__v":0}
{"_id":{"$oid":"5e33f2744e7da70cb6904588"},"uuid":2420298,"name":"Aéronaval","address":"23 rue du soleil","zipCode":75020,"city":"PARIS","status":"0","rooms":30,"lastVisit":{"$date":"2019-06-05T22:00:00Z"},"anomaly":32.13,"sector":"Paris","__v":0}
{"_id":{"$oid":"5e33f2744e7da70cb6904589"},"uuid":801551,"name":"Air Hôtel","address":"90 avenue du 8 mai 1945","zipCode":93150,"city":"LE BLANC-MESNIL","status":"0","rooms":25,"lastVisit":{"$date":"2019-08-19T22:00:00Z"},"anomaly":32.77,"sector":"93","__v":0}
{"_id":{"$oid":"5e33f2744e7da70cb690458a"},"uuid":6356755,"name":"AKBOU","address":"72 rue Curial","zipCode":75019,"city":"PARIS","status":"0","rooms":0,"lastVisit":{"$date":"2019-07-25T22:00:00Z"},"anomaly":36.37,"sector":"Paris","__v":0}
{"_id":{"$oid":"5e33f2744e7da70cb690458b"},"uuid":19096763,"name":"AKENA Crystal Hôtel","address":"2 bis rue Ernest Sarron","zipCode":77410,"city":"CLAYE-SOUILLY","status":"0","rooms":22,"lastVisit":{"$date":"2019-07-31T22:00:00Z"},"anomaly":43.64,"sector":"77/91","__v":0}
{"_id":{"$oid":"5e33f2744e7da70cb690458c"},"uuid":4804002,"name":"AL Hôtel Lagny Marne","address":"61 rue Jacquard","zipCode":77400,"city":"LAGNY-SUR-MARNE","status":"0","rooms":16,"lastVisit":{"$date":"2019-05-05T22:00:00Z"},"anomaly":38.02,"sector":"77/91","__v":0}
{"_id":{"$oid":"5e33f2744e7da70cb690458d"},"uuid":26379581,"name":"Aladin Evry- RESADOTEL","address":"Place Gaston Crémieux","zipCode":91000,"city":"EVRY","status":"0","rooms":29,"lastVisit":{"$date":"2019-11-26T23:00:00Z"},"anomaly":43.64,"sector":"77/91","__v":0}
{"_id":{"$oid":"5e33f2744e7da70cb690458e"},"uuid":26428801,"name":"Aladin Les Mureaux - Direct","address":"2 rue Levassor","zipCode":78130,"city":"LES MUREAUX","status":"0","rooms":24,"lastVisit":{"$date":"2019-10-28T23:00:00Z"},"anomaly":38.54,"sector":"78/95","__v":0}
{"_id":{"$oid":"5e33f2744e7da70cb690458f"},"uuid":16168803,"name":"Alexandra","address":"3 rue Rivay","zipCode":92300,"city":"LEVALLOIS-PERRET","status":"0","rooms":28,"lastVisit":{"$date":"2019-12-29T23:00:00Z"},"anomaly":41.13,"sector":"92/94","__v":0}
{"_id":{"$oid":"5e33f2744e7da70cb6904590"},"uuid":23541896,"name":"ALGER'S HOTEL","address":"24 rue Gaetan Lamy","zipCode":93300,"city":"AUBERVILLIERS","status":"0","rooms":29,"lastVisit":{"$date":"2019-09-18T22:00:00Z"},"anomaly":42.76,"sector":"93","__v":0}
{"_id":{"$oid":"5e33f2744e7da70cb6904591"},"uuid":2555168,"name":"Alizea","address":"31 rue Sauffroy","zipCode":75017,"city":"PARIS","status":"0","rooms":25,"lastVisit":{"$date":"2019-12-03T23:00:00Z"},"anomaly":42.03,"sector":"Paris","__v":0}
{"_id":{"$oid":"5e33f2744e7da70cb6904592"},"uuid":47869,"name":"Alliance","address":"52 rue des Cloys","zipCode":75018,"city":"PARIS","status":"0","rooms":26,"lastVisit":{"$date":"2019-08-27T22:00:00Z"},"anomaly":30.07,"sector":"Paris","__v":0}
{"_id":{"$oid":"5e33f2744e7da70cb6904593"},"uuid":24955275,"name":"Alliance Hôtelière","address":"96 rue pierre curie","zipCode":91600,"city":"SAVIGNY-SUR-ORGE","status":"0","rooms":8,"lastVisit":{"$date":"2019-10-21T22:00:00Z"},"anomaly":29.1,"sector":"77/91","__v":0}
{"_id":{"$oid":"5e33f2744e7da70cb6904594"},"uuid":16884156,"name":"Amarys","address":"7 rue Simart","zipCode":75018,"city":"PARIS","status":"0","rooms":30,"lastVisit":{"$date":"2019-11-12T23:00:00Z"},"anomaly":33.94,"sector":"Paris","__v":0}
{"_id":{"$oid":"5e33f2744e7da70cb6904595"},"uuid":22551388,"name":"Ambiance Hôtel","address":"8 rue André Citroën","zipCode":94510,"city":"LA QUEUE-EN-BRIE","status":"0","rooms":38,"lastVisit":{"$date":"2019-06-05T22:00:00Z"},"anomaly":49.62,"sector":"92/94","__v":0}
{"_id":{"$oid":"5e33f2744e7da70cb6904596"},"uuid":1354504,"name":"Andalouse","address":"55 Boulevard Camélinat","zipCode":92230,"city":"GENNEVILLIERS","status":"0","rooms":10,"lastVisit":{"$date":"2019-11-14T23:00:00Z"},"anomaly":30.98,"sector":"92/94","__v":0}
{"_id":{"$oid":"5e33f2744e7da70cb6904597"},"uuid":96,"name":"Antinéa","address":"26 avenue Mathurin Moreau","zipCode":75019,"city":"PARIS","status":"0","rooms":22,"lastVisit":{"$date":"2019-09-25T22:00:00Z"},"anomaly":31.12,"sector":"Paris","__v":0}
{"_id":{"$oid":"5e33f2744e7da70cb6904598"},"uuid":6271035,"name":"Anya","address":"5 passage Viallet","zipCode":75011,"city":"PARIS","status":"0","rooms":12,"lastVisit":{"$date":"2019-10-15T22:00:00Z"},"anomaly":38.79,"sector":"Paris","__v":0}
{"_id":{"$oid":"5e33f2744e7da70cb6904599"},"uuid":7033289,"name":"Appart'City - Rosny sous Bois","address":"7 rue d'Aurion","zipCode":93110,"city":"ROSNY-SOUS-BOIS","status":"0","rooms":105,"lastVisit":{"$date":"2019-07-15T22:00:00Z"},"anomaly":39.74,"sector":"93","__v":0}
{"_id":{"$oid":"5e33f2744e7da70cb690459a"},"uuid":3173231,"name":"Appart'City Alfortcity","address":"2 rue du capitaine Alfred Dreyfus","zipCode":94140,"city":"ALFORTcity","status":"0","rooms":104,"lastVisit":{"$date":"2019-10-20T22:00:00Z"},"anomaly":37.43,"sector":"92/94","__v":0}
{"_id":{"$oid":"5e33f2744e7da70cb690459b"},"uuid":1267729,"name":"Appart'City Blanc Mesnil","address":"219 avenue Descartes","zipCode":93150,"city":"LE BLANC-MESNIL","status":"0","rooms":152,"lastVisit":{"$date":"2019-06-24T22:00:00Z"},"anomaly":37.54,"sector":"93","__v":0}
{"_id":{"$oid":"5e33f2744e7da70cb690459c"},"uuid":1377047,"name":"Appart'City Cergy","address":"52 boulevard de l'évasion","zipCode":95800,"city":"CERGY","status":"0","rooms":107,"lastVisit":{"$date":"2019-12-03T23:00:00Z"},"anomaly":44.05,"sector":"78/95","__v":0}
{"_id":{"$oid":"5e33f2744e7da70cb690459d"},"uuid":3986001,"name":"Appart'City Les Ulis","address":"1 rue des Causses","zipCode":91940,"city":"LES ULIS","status":"0","rooms":113,"lastVisit":{"$date":"2019-05-28T22:00:00Z"},"anomaly":36.32,"sector":"77/91","__v":0}
{"_id":{"$oid":"5e33f2744e7da70cb690459e"},"uuid":3455880,"name":"Appart'City Magny-Les-Hameaux","address":"RD 195 - La Mare Mazarin","zipCode":78114,"city":"MAGNY-LES-HAMEAUX","status":"0","rooms":13,"lastVisit":{"$date":"2019-09-09T22:00:00Z"},"anomaly":31.52,"sector":"78/95","__v":0}
{"_id":{"$oid":"5e33f2744e7da70cb690459f"},"uuid":14303523,"name":"Appart'City Paris Bobigny","address":"19 Rue Honoré d'Estienne d'Orves","zipCode":93000,"city":"BOBIGNY","status":"0","rooms":179,"lastVisit":{"$date":"2019-09-23T22:00:00Z"},"anomaly":42.33,"sector":"93","__v":0}
{"_id":{"$oid":"5e33f2744e7da70cb69045a0"},"uuid":5044762,"name":"Appart'City Poissy","address":"12 rue Jacob Courant","zipCode":78300,"city":"POISSY","status":"0","rooms":138,"lastVisit":{"$date":"2019-10-13T22:00:00Z"},"anomaly":46.07,"sector":"78/95","__v":0}
{"_id":{"$oid":"5e33f2744e7da70cb69045a1"},"uuid":1377154,"name":"Appart'City Saint Maurice","address":"18 Rue Du Marechal Leclerc","zipCode":94410,"city":"SAINT-MAURICE","status":"0","rooms":0,"lastVisit":{"$date":"2019-02-26T23:00:00Z"},"anomaly":38.56,"sector":"92/94","__v":0}
{"_id":{"$oid":"5e33f2744e7da70cb69045a2"},"uuid":9246012,"name":"Appart'City Saint Versailles Saint Cyr","address":"68 rue Gabriel Péri","zipCode":78210,"city":"SAINT-CYR-LECOLE","status":"0","rooms":13,"lastVisit":{"$date":"2019-09-09T22:00:00Z"},"anomaly":43.64,"sector":"78/95","__v":0}
{"_id":{"$oid":"5e33f2744e7da70cb69045a3"},"uuid":4353758,"name":"Appart'City Village Bois d'Arcy","address":"2A rue Georges Méliès","zipCode":78390,"city":"BOIS-D'ARCY","status":"0","rooms":16,"lastVisit":{"$date":"2019-04-09T22:00:00Z"},"anomaly":37.58,"sector":"78/95","__v":0}
{"_id":{"$oid":"5e33f2744e7da70cb69045a4"},"uuid":24860232,"name":"Arim Hôtel","address":"5-13 avenue Henri Barbusse","zipCode":93000,"city":"BOBIGNY","status":"0","rooms":69,"lastVisit":{"$date":"2019-09-11T22:00:00Z"},"anomaly":33.75,"sector":"93","__v":0}
{"_id":{"$oid":"5e33f2744e7da70cb69045a5"},"uuid":24907346,"name":"Arpège","address":"41 route de paris","zipCode":78760,"city":"JOUARS PONTCHARTRAIN","status":"0","rooms":7,"lastVisit":{"$date":"2019-11-03T23:00:00Z"},"anomaly":47.8,"sector":"78/95","__v":0}
{"_id":{"$oid":"5e33f2744e7da70cb69045a6"},"uuid":7880796,"name":"Assirem","address":"53 rue de Plaisance","zipCode":75014,"city":"PARIS","status":"0","rooms":6,"lastVisit":{"$date":"2019-11-28T23:00:00Z"},"anomaly":50.91,"sector":"Paris","__v":0}
{"_id":{"$oid":"5e33f2744e7da70cb69045a7"},"uuid":2187408,"name":"Atlantide","address":"88 avenue Pierre Brossolette","zipCode":92240,"city":"MALAKOFF","status":"0","rooms":22,"lastVisit":{"$date":"2019-10-27T23:00:00Z"},"anomaly":22.29,"sector":"92/94","__v":0}
{"_id":{"$oid":"5e33f2744e7da70cb69045a8"},"uuid":7625607,"name":"Atlas - Rungis","address":"12 Avenue de Fontainebleau","zipCode":94150,"city":"RUNGIS","status":"0","rooms":9,"lastVisit":{"$date":"2019-07-31T22:00:00Z"},"anomaly":45,"sector":"92/94","__v":0}
{"_id":{"$oid":"5e33f2744e7da70cb69045a9"},"uuid":25253390,"name":"Au Coin d'Or","address":"2 rue du Mail","zipCode":91600,"city":"SAVIGNY-SUR-ORGE","status":"0","rooms":4,"lastVisit":{"$date":"2019-10-14T22:00:00Z"},"anomaly":24.25,"sector":"77/91","__v":0}
{"_id":{"$oid":"5e33f2744e7da70cb69045aa"},"uuid":5296791,"name":"Au MaryLand","address":"34 rue Gabriel Peri","zipCode":93200,"city":"SAINT-DENIS","status":"0","rooms":9,"lastVisit":{"$date":"2019-08-28T22:00:00Z"},"anomaly":35.16,"sector":"93","__v":0}
{"_id":{"$oid":"5e33f2744e7da70cb69045ab"},"uuid":26385437,"name":"Au Pêcheur tranquille","address":"65 Quai de l'Orge","zipCode":91200,"city":"ATHIS-MONS","status":"0","rooms":10,"lastVisit":{"$date":"2019-10-22T22:00:00Z"},"anomaly":23.71,"sector":"77/91","__v":0}
{"_id":{"$oid":"5e33f2744e7da70cb69045ac"},"uuid":25170110,"name":"Au Réveil Matin","address":"22 avenue Jean Jaurès","zipCode":91230,"city":"MONTGERON","status":"0","rooms":12,"lastVisit":{"$date":"2019-11-05T23:00:00Z"},"anomaly":36.37,"sector":"77/91","__v":0}
{"_id":{"$oid":"5e33f2744e7da70cb69045ad"},"uuid":20890889,"name":"Auberge de la Mairie BTM","address":"27-29 rue de la mairie","zipCode":91220,"city":"BRETIGNY-SUR-ORGE","status":"0","rooms":8,"lastVisit":{"$date":"2019-07-30T22:00:00Z"},"anomaly":39.4,"sector":"77/91","__v":0}
{"_id":{"$oid":"5e33f2744e7da70cb69045ae"},"uuid":21514076,"name":"Auberge de l'Eléphant SARL My Place","address":"7 Rue de Paris","zipCode":91120,"city":"PALAISEAU","status":"0","rooms":9,"lastVisit":{"$date":"2019-11-27T23:00:00Z"},"anomaly":49.1,"sector":"77/91","__v":0}
{"_id":{"$oid":"5e33f2744e7da70cb69045af"},"uuid":108463,"name":"Auberge de l'Europe","address":"16 rue Saint Just","zipCode":94200,"city":"IVRY-SUR-SEINE","status":"0","rooms":0,"lastVisit":{"$date":"2019-10-10T22:00:00Z"},"anomaly":24.25,"sector":"92/94","__v":0}
{"_id":{"$oid":"5e33f2744e7da70cb69045b0"},"uuid":5566388,"name":"Auberge du Coq","address":"45 Boulevard de la Paix","zipCode":78100,"city":"SAINT-GERMAIN-EN-LAYE","status":"0","rooms":70,"lastVisit":{"$date":"2019-09-05T22:00:00Z"},"anomaly":48.35,"sector":"78/95","__v":0}
{"_id":{"$oid":"5e33f2744e7da70cb69045b1"},"uuid":1258237,"name":"Auberge du Rallye","address":"47 Boulevard De La Marne","zipCode":77360,"city":"VAIRES-SUR-MARNE","status":"0","rooms":15,"lastVisit":{"$date":"2019-07-28T22:00:00Z"},"anomaly":29.1,"sector":"77/91","__v":0}
{"_id":{"$oid":"5e33f2744e7da70cb69045b2"},"uuid":23806744,"name":"Auberge Yacine","address":"29 rue Godillot","zipCode":93400,"city":"SAINT-OUEN","status":"0","rooms":4,"lastVisit":{"$date":"2019-10-10T22:00:00Z"},"anomaly":40.41,"sector":"93","__v":0}
{"_id":{"$oid":"5e33f2744e7da70cb69045b3"},"uuid":742467,"name":"Aurore","address":"1 rue Alexandre Prachay","zipCode":95300,"city":"PONTOISE","status":"0","rooms":25,"lastVisit":{"$date":"2019-09-02T22:00:00Z"},"anomaly":37.67,"sector":"78/95","__v":0}
{"_id":{"$oid":"5e33f2744e7da70cb69045b4"},"uuid":21832132,"name":"Aux Bons Enfants","address":"24 rue de la Gaité","zipCode":93400,"city":"SAINT-OUEN","status":"0","rooms":9,"lastVisit":{"$date":"2019-06-19T22:00:00Z"},"anomaly":26.13,"sector":"93","__v":0}
{"_id":{"$oid":"5e33f2744e7da70cb69045b5"},"uuid":24654178,"name":"Aux Petits Ponts","address":"1 Avenue Darblay","zipCode":91100,"city":"CORBEIL ESSONNES","status":"0","rooms":5,"lastVisit":{"$date":"2019-10-13T22:00:00Z"},"anomaly":21.82,"sector":"77/91","__v":0}
{"_id":{"$oid":"5e33f2744e7da70cb69045b6"},"uuid":1020954,"name":"Avenue 20ème","address":"94 rue de la Réunion","zipCode":75020,"city":"PARIS","status":"0","rooms":34,"lastVisit":{"$date":"2019-08-06T22:00:00Z"},"anomaly":47.71,"sector":"Paris","__v":0}
{"_id":{"$oid":"5e33f2744e7da70cb69045b7"},"uuid":907168,"name":"Azur Hôtel","address":"14 rue Lemercier","zipCode":75017,"city":"PARIS","status":"0","rooms":8,"lastVisit":{"$date":"2019-08-22T22:00:00Z"},"anomaly":24.25,"sector":"Paris","__v":0}
{"_id":{"$oid":"5e33f2744e7da70cb69045b8"},"uuid":6890857,"name":"Balladins Sevran","address":"5 rue Alexei Leonov","zipCode":93270,"city":"SEVRAN","status":"0","rooms":60,"lastVisit":{"$date":"2019-07-10T22:00:00Z"},"anomaly":47.28,"sector":"93","__v":0}
{"_id":{"$oid":"5e33f2744e7da70cb69045b9"},"uuid":38,"name":"Balladins Valenton","address":"1 rue de la Sablonnière","zipCode":94460,"city":"VALENTON","status":"0","rooms":55,"lastVisit":{"$date":"2019-11-04T23:00:00Z"},"anomaly":46.6,"sector":"92/94","__v":0}
{"_id":{"$oid":"5e33f2744e7da70cb69045ba"},"uuid":15590051,"name":"Balladins Vigneux","address":"2 rue de la porte de l'écluse","zipCode":91270,"city":"VIGNEUX-SUR-SEINE","status":"0","rooms":46,"lastVisit":{"$date":"2019-06-19T22:00:00Z"},"anomaly":39.4,"sector":"77/91","__v":0}
{"_id":{"$oid":"5e33f2744e7da70cb69045bb"},"uuid":14223260,"name":"BB Bondy","address":"90 Avenue Gallieni","zipCode":93140,"city":"BONDY","status":"0","rooms":26,"lastVisit":{"$date":"2019-09-26T22:00:00Z"},"anomaly":36.37,"sector":"93","__v":0}
{"_id":{"$oid":"5e33f2744e7da70cb69045bc"},"uuid":64481,"name":"Bel Air Saint-Ouen","address":"23 rue Palouzier","zipCode":93400,"city":"SAINT-OUEN","status":"0","rooms":30,"lastVisit":{"$date":"2019-06-19T22:00:00Z"},"anomaly":45.9,"sector":"93","__v":0}
{"_id":{"$oid":"5e33f2744e7da70cb69045bd"},"uuid":19935129,"name":"Bel Hôtel - Le Corbusier","address":"6-8 rue Le Corbusier","zipCode":95190,"city":"GOUSSAINcity","status":"0","rooms":107,"lastVisit":{"$date":"2019-12-08T23:00:00Z"},"anomaly":50.74,"sector":"78/95","__v":0}
{"_id":{"$oid":"5e33f2744e7da70cb69045be"},"uuid":1077433,"name":"Belle Etoile","address":"23 rue Emile Zola","zipCode":93400,"city":"SAINT-OUEN","status":"0","rooms":28,"lastVisit":{"$date":"2019-07-17T22:00:00Z"},"anomaly":41.22,"sector":"93","__v":0}
{"_id":{"$oid":"5e33f2744e7da70cb69045bf"},"uuid":19935130,"name":"Bellevue - Rueil-Malmaison","address":"34 rue Diderot","zipCode":92500,"city":"RUEIL-MALMAISON","status":"0","rooms":7,"lastVisit":{"$date":"2019-06-18T22:00:00Z"},"anomaly":41.82,"sector":"92/94","__v":0}
{"_id":{"$oid":"5e33f2744e7da70cb69045c0"},"uuid":805214,"name":"Bellevues - Bezons","address":"57 rue de Sartroucity","zipCode":95870,"city":"BEZONS","status":"0","rooms":3,"lastVisit":{"$date":"2019-06-18T22:00:00Z"},"anomaly":27.28,"sector":"78/95","__v":0}
{"_id":{"$oid":"5e33f2744e7da70cb69045c1"},"uuid":12425680,"name":"Béranger","address":"41 rue Béranger","zipCode":92320,"city":"CHATILLON","status":"0","rooms":8,"lastVisit":{"$date":"2019-11-13T23:00:00Z"},"anomaly":40.91,"sector":"92/94","__v":0}
{"_id":{"$oid":"5e33f2744e7da70cb69045c2"},"uuid":23542903,"name":"Berbère Hôtel Argenteuil","address":"225 rue Henri Barbusse","zipCode":95100,"city":"ARGENTEUIL","status":"0","rooms":20,"lastVisit":{"$date":"2019-04-02T22:00:00Z"},"anomaly":43.64,"sector":"78/95","__v":0}
{"_id":{"$oid":"5e33f2744e7da70cb69045c3"},"uuid":3663412,"name":"Best Hôtel","address":"ZAC LES PONTS DE BAILLET","zipCode":95560,"city":"BAILLET-EN-FRANCE","status":"0","rooms":6,"lastVisit":{"$date":"2019-08-25T22:00:00Z"},"anomaly":31.52,"sector":"78/95","__v":0}
{"_id":{"$oid":"5e33f2744e7da70cb69045c4"},"uuid":48225,"name":"Best Montmartre Hôtel Ex Carthage","address":"10 rue Poulet","zipCode":75018,"city":"PARIS","status":"0","rooms":18,"lastVisit":{"$date":"2019-12-08T23:00:00Z"},"anomaly":19.4,"sector":"Paris","__v":0}
{"_id":{"$oid":"5e33f2744e7da70cb69045c5"},"uuid":26385370,"name":"BHNV","address":"107 rue Feray","zipCode":91100,"city":"CORBEIL ESSONNES","status":"0","rooms":7,"lastVisit":{"$date":"2019-11-13T23:00:00Z"},"anomaly":33.94,"sector":"77/91","__v":0}
{"_id":{"$oid":"5e33f2744e7da70cb69045c6"},"uuid":83974,"name":"Bonfortel Franconcity","address":"Chemin de l'ErmitageRue du Capitaine Dreyfus","zipCode":95130,"city":"FRANCONcity","status":"0","rooms":49,"lastVisit":{"$date":"2019-05-12T22:00:00Z"},"anomaly":38.01,"sector":"78/95","__v":0}
{"_id":{"$oid":"5e33f2744e7da70cb69045c7"},"uuid":26479516,"name":"Bonfortel Pierrelaye - Direct","address":"20 rue Fernand Léger ZA Les Primevères","zipCode":95480,"city":"PIERRELAYE","status":"0","rooms":8,"lastVisit":{"$date":"2019-05-12T22:00:00Z"},"anomaly":37.6,"sector":"78/95","__v":0}
{"_id":{"$oid":"5e33f2744e7da70cb69045c8"},"uuid":22512102,"name":"Brasserie de la Mairie HBM Associés","address":"209 rue de Paris","zipCode":95150,"city":"TAVERNY","status":"0","rooms":15,"lastVisit":{"$date":"2019-04-01T22:00:00Z"},"anomaly":31.52,"sector":"78/95","__v":0}
{"_id":{"$oid":"5e33f2744e7da70cb69045c9"},"uuid":24955741,"name":"Brasserie de La Place","address":"14 place du compté Haymon","zipCode":91100,"city":"CORBEIL ESSONNES","status":"0","rooms":9,"lastVisit":{"$date":"2019-10-20T22:00:00Z"},"anomaly":24.25,"sector":"77/91","__v":0}
{"_id":{"$oid":"5e33f2744e7da70cb69045ca"},"uuid":25861542,"name":"Budget Hôtel Dammarie Les Lys","address":"32 avenue André Ampère","zipCode":77190,"city":"DAMMARIE LES LYS","status":"0","rooms":67,"lastVisit":{"$date":"2019-09-04T22:00:00Z"},"anomaly":52.73,"sector":"77/91","__v":0}
{"_id":{"$oid":"5e33f2744e7da70cb69045cb"},"uuid":13775404,"name":"Café de la Gare - Ablon sur Seine","address":"37 rue du Bac","zipCode":94480,"city":"ABLON SUR SEINE","status":"0","rooms":2,"lastVisit":{"$date":"2019-06-30T22:00:00Z"},"anomaly":21.82,"sector":"92/94","__v":0}
{"_id":{"$oid":"5e33f2744e7da70cb69045cc"},"uuid":713205,"name":"Café du Marché","address":"22 Rue Ferragus","zipCode":93300,"city":"AUBERVILLIERS","status":"0","rooms":20,"lastVisit":{"$date":"2019-07-10T22:00:00Z"},"anomaly":34.35,"sector":"93","__v":0}
{"_id":{"$oid":"5e33f2744e7da70cb69045cd"},"uuid":4851079,"name":"Campanile Conflans Sainte-Honorine","address":"91 rue de Cergy","zipCode":78700,"city":"CONFLANS-SAINTE-HONORINE","status":"0","rooms":3,"lastVisit":{"$date":"2019-03-28T23:00:00Z"},"anomaly":32.73,"sector":"78/95","__v":0}
{"_id":{"$oid":"5e33f2744e7da70cb69045ce"},"uuid":4998743,"name":"Campanile LIVRY GARGAN","address":"119 boulevard Robert Schuman","zipCode":93190,"city":"LIVRY-GARGAN","status":"0","rooms":20,"lastVisit":{"$date":"2019-07-25T22:00:00Z"},"anomaly":31.52,"sector":"93","__v":0}
{"_id":{"$oid":"5e33f2744e7da70cb69045cf"},"uuid":1171954,"name":"Campanile Saint-Denis","address":"14 rue Jean Jaurès","zipCode":93200,"city":"SAINT-DENIS","status":"0","rooms":113,"lastVisit":{"$date":"2019-09-25T22:00:00Z"},"anomaly":50.84,"sector":"93","__v":0}
{"_id":{"$oid":"5e33f2744e7da70cb69045d0"},"uuid":6891109,"name":"Carnot","address":"23 boulevard Carnot","zipCode":93200,"city":"SAINT-DENIS","status":"0","rooms":5,"lastVisit":{"$date":"2019-07-03T22:00:00Z"},"anomaly":30.11,"sector":"93","__v":0}
{"_id":{"$oid":"5e33f2744e7da70cb69045d1"},"uuid":453885,"name":"Central - Bagnolet","address":"215 rue Sadi Carnot","zipCode":93170,"city":"BAGNOLET","status":"0","rooms":17,"lastVisit":{"$date":"2019-07-29T22:00:00Z"},"anomaly":39.4,"sector":"93","__v":0}
{"_id":{"$oid":"5e33f2744e7da70cb69045d2"},"uuid":80087,"name":"Central Park","address":"94 avenue Paul Vaillant Couturier","zipCode":94110,"city":"ARCUEIL","status":"0","rooms":59,"lastVisit":{"$date":"2019-11-28T23:00:00Z"},"anomaly":38.1,"sector":"92/94","__v":0}
{"_id":{"$oid":"5e33f2744e7da70cb69045d3"},"uuid":1101162,"name":"Cergy Hôtel","address":"3 allée du  Promenoir BP8344","zipCode":95800,"city":"CERGY","status":"0","rooms":22,"lastVisit":{"$date":"2019-06-11T22:00:00Z"},"anomaly":48.49,"sector":"78/95","__v":0}
{"_id":{"$oid":"5e33f2744e7da70cb69045d4"},"uuid":949480,"name":"Chanteloup Andrésy","address":"42 bis rue d'Andrésy","zipCode":78570,"city":"CHANTELOUP-LES-VIGNES","status":"0","rooms":62,"lastVisit":{"$date":"2019-10-20T22:00:00Z"},"anomaly":22.13,"sector":"78/95","__v":0}
{"_id":{"$oid":"5e33f2744e7da70cb69045d5"},"uuid":7180332,"name":"Chaussée d'Antin","address":"46 rue de la Chaussée d'Antin","zipCode":75009,"city":"PARIS","status":"0","rooms":9,"lastVisit":{"$date":"2019-12-17T23:00:00Z"},"anomaly":36.67,"sector":"Paris","__v":0}
{"_id":{"$oid":"5e33f2744e7da70cb69045d6"},"uuid":418050,"name":"Chemin de l'espoir ex Les Doublets d'Or","address":"1 rue Hadancourt","zipCode":95340,"city":"PERSAN","status":"0","rooms":9,"lastVisit":{"$date":"2019-09-16T22:00:00Z"},"anomaly":30.31,"sector":"78/95","__v":0}
{"_id":{"$oid":"5e33f2744e7da70cb69045d7"},"uuid":1254053,"name":"Chez Amar","address":"10 rue de l Ancienne Mairie","zipCode":92110,"city":"CLICHY","status":"0","rooms":7,"lastVisit":{"$date":"2019-11-06T23:00:00Z"},"anomaly":29.27,"sector":"92/94","__v":0}
{"_id":{"$oid":"5e33f2744e7da70cb69045d8"},"uuid":3354561,"name":"Citotel La Rotonde","address":"25 bis rue Henri Pinson","zipCode":91200,"city":"ATHIS-MONS","status":"0","rooms":6,"lastVisit":{"$date":"2019-10-22T22:00:00Z"},"anomaly":50.91,"sector":"77/91","__v":0}
{"_id":{"$oid":"5e33f2744e7da70cb69045d9"},"uuid":1920619,"name":"Class'éco","address":"31 Rue du Grand Morin","zipCode":77120,"city":"COULOMMIERS","status":"0","rooms":57,"lastVisit":{"$date":"2019-09-15T22:00:00Z"},"anomaly":23.7,"sector":"77/91","__v":0}
{"_id":{"$oid":"5e33f2744e7da70cb69045da"},"uuid":48342,"name":"Clauzel","address":"33 rue des Martyrs","zipCode":75009,"city":"PARIS","status":"0","rooms":0,"lastVisit":{"$date":"2019-05-19T22:00:00Z"},"anomaly":38.79,"sector":"Paris","__v":0}
{"_id":{"$oid":"5e33f2744e7da70cb69045db"},"uuid":5125410,"name":"Comfort Hôtel Apollonia","address":"27 rue de la Saussaie","zipCode":77310,"city":"SAINT-FARGEAU-PONTHIERRY","status":"0","rooms":8,"lastVisit":{"$date":"2019-07-08T22:00:00Z"},"anomaly":40,"sector":"77/91","__v":0}
{"_id":{"$oid":"5e33f2744e7da70cb69045dc"},"uuid":20527602,"name":"Comfort Hôtel Poissy","address":"6 Rue Gustave Eiffel","zipCode":78300,"city":"POISSY","status":"0","rooms":48,"lastVisit":{"$date":"2019-09-10T22:00:00Z"},"anomaly":44.7,"sector":"78/95","__v":0}
{"_id":{"$oid":"5e33f2744e7da70cb69045dd"},"uuid":9230021,"name":"Comfort Inn Sevran","address":"3 rue Alexei Leonov","zipCode":93270,"city":"SEVRAN","status":"0","rooms":38,"lastVisit":{"$date":"2019-07-11T22:00:00Z"},"anomaly":55.59,"sector":"93","__v":0}
{"_id":{"$oid":"5e33f2744e7da70cb69045de"},"uuid":1435108,"name":"Comfort Suites Le Port-Marly","address":"3 avenue Simon Vouet","zipCode":78560,"city":"LE PORT-MARLY","status":"0","rooms":54,"lastVisit":{"$date":"2019-10-15T22:00:00Z"},"anomaly":36.97,"sector":"78/95","__v":0}
{"_id":{"$oid":"5e33f2744e7da70cb69045df"},"uuid":194218,"name":"Comfort Villiers","address":"5 avenue des érables","zipCode":95400,"city":"VILLIERS-LE-BEL","status":"0","rooms":38,"lastVisit":{"$date":"2019-07-21T22:00:00Z"},"anomaly":46,"sector":"78/95","__v":0}
{"_id":{"$oid":"5e33f2744e7da70cb69045e0"},"uuid":7391662,"name":"Confort","address":"3 rue Lagille","zipCode":75018,"city":"PARIS","status":"0","rooms":19,"lastVisit":{"$date":"2019-03-12T23:00:00Z"},"anomaly":44.25,"sector":"Paris","__v":0}
{"_id":{"$oid":"5e33f2744e7da70cb69045e1"},"uuid":19935132,"name":"Confort Hôtel - Jean Jaurès","address":"89 avenue Jean Jaurès","zipCode":94400,"city":"VITRY-SUR-SEINE","status":"0","rooms":13,"lastVisit":{"$date":"2019-12-16T23:00:00Z"},"anomaly":51.92,"sector":"92/94","__v":0}
{"_id":{"$oid":"5e33f2744e7da70cb69045e2"},"uuid":26383787,"name":"Confort Hôtel Montgeron RESADOTEL","address":"Centre commercial Valdoly RN 6","zipCode":91230,"city":"MONTGERON","status":"0","rooms":8,"lastVisit":{"$date":"2019-10-27T23:00:00Z"},"anomaly":42.03,"sector":"77/91","__v":0}
{"_id":{"$oid":"5e33f2744e7da70cb69045e3"},"uuid":26384134,"name":"Confort Hôtel Montgeron RESAO","address":"Centre commercial Valdol RN 6y","zipCode":91230,"city":"MONTGERON","status":"0","rooms":7,"lastVisit":{"$date":"2019-10-27T23:00:00Z"},"anomaly":47.28,"sector":"77/91","__v":0}
{"_id":{"$oid":"5e33f2744e7da70cb69045e4"},"uuid":3604084,"name":"Confort Hôtel Vert Saint Denis","address":"Avenue du Bois Vert","zipCode":77240,"city":"VERT-SAINT-DENIS","status":"0","rooms":27,"lastVisit":{"$date":"2019-08-11T22:00:00Z"},"anomaly":50.31,"sector":"77/91","__v":0}
{"_id":{"$oid":"5e33f2744e7da70cb69045e5"},"uuid":19935133,"name":"ConfortHôtel - Constant Coquelin","address":"110 rue Constant Coquelin","zipCode":94400,"city":"VITRY-SUR-SEINE","status":"0","rooms":10,"lastVisit":{"$date":"2019-05-12T22:00:00Z"},"anomaly":32.37,"sector":"92/94","__v":0}
{"_id":{"$oid":"5e33f2744e7da70cb69045e6"},"uuid":3563954,"name":"Confort-Meaux","address":"33 boulevard du Chevalier Bayard","zipCode":77100,"city":"MEAUX","status":"0","rooms":36,"lastVisit":{"$date":"2019-06-24T22:00:00Z"},"anomaly":21.82,"sector":"77/91","__v":0}
{"_id":{"$oid":"5e33f2744e7da70cb69045e7"},"uuid":161235,"name":"Confotel Aulnay","address":"6 rond point Henri Dunant","zipCode":93600,"city":"AULNAY-SOUS-BOIS","status":"0","rooms":29,"lastVisit":{"$date":"2019-07-08T22:00:00Z"},"anomaly":50.67,"sector":"93","__v":0}
{"_id":{"$oid":"5e33f2744e7da70cb69045e8"},"uuid":1648178,"name":"Confotel Colombes","address":"17 avenue Henri Barbusse","zipCode":92700,"city":"COLOMBES","status":"0","rooms":9,"lastVisit":{"$date":"2019-04-16T22:00:00Z"},"anomaly":43.64,"sector":"92/94","__v":0}
{"_id":{"$oid":"5e33f2744e7da70cb69045e9"},"uuid":2555609,"name":"Confotel Les Mureaux","address":"4 rue des Pléiades","zipCode":78130,"city":"LES MUREAUX","status":"0","rooms":44,"lastVisit":{"$date":"2019-10-22T22:00:00Z"},"anomaly":43.64,"sector":"78/95","__v":0}
{"_id":{"$oid":"5e33f2744e7da70cb69045ea"},"uuid":5033615,"name":"Confotel Limay","address":"Rue Jean-Pierre Timbaud","zipCode":78520,"city":"LIMAY","status":"0","rooms":43,"lastVisit":{"$date":"2019-08-05T22:00:00Z"},"anomaly":47.68,"sector":"78/95","__v":0}
{"_id":{"$oid":"5e33f2744e7da70cb69045eb"},"uuid":2545981,"name":"Confotel Rubelles","address":"1 rue du Perré","zipCode":77950,"city":"RUBELLES","status":"0","rooms":42,"lastVisit":{"$date":"2019-08-11T22:00:00Z"},"anomaly":43.64,"sector":"77/91","__v":0}
{"_id":{"$oid":"5e33f2744e7da70cb69045ec"},"uuid":24985547,"name":"Copacabana","address":"36 avenue Jean Jaurès","zipCode":91230,"city":"MONTGERON","status":"0","rooms":1,"lastVisit":{"$date":"2019-10-15T22:00:00Z"},"anomaly":32.73,"sector":"77/91","__v":0}
{"_id":{"$oid":"5e33f2744e7da70cb69045ed"},"uuid":159,"name":"Couronnes Paris","address":"6-8 impasse Questre","zipCode":75011,"city":"PARIS","status":"0","rooms":25,"lastVisit":{"$date":"2019-12-25T23:00:00Z"},"anomaly":30.38,"sector":"Paris","__v":0}
{"_id":{"$oid":"5e33f2744e7da70cb69045ee"},"uuid":69,"name":"Cristal","address":"64 rue de la Jonquière","zipCode":75017,"city":"PARIS","status":"0","rooms":35,"lastVisit":{"$date":"2019-08-22T22:00:00Z"},"anomaly":36.74,"sector":"Paris","__v":0}
{"_id":{"$oid":"5e33f2744e7da70cb69045ef"},"uuid":6953001,"name":"Cyrano Nollet","address":"58 Rue Nollet","zipCode":75017,"city":"PARIS","status":"0","rooms":7,"lastVisit":{"$date":"2019-08-22T22:00:00Z"},"anomaly":43.94,"sector":"Paris","__v":0}
{"_id":{"$oid":"5e33f2744e7da70cb69045f0"},"uuid":48387,"name":"Cyrano-Voltaire","address":"66 rue Sedaine","zipCode":75011,"city":"PARIS","status":"0","rooms":17,"lastVisit":{"$date":"2019-10-15T22:00:00Z"},"anomaly":44.64,"sector":"Paris","__v":0}
{"_id":{"$oid":"5e33f2744e7da70cb69045f1"},"uuid":1138275,"name":"d'Anjou","address":"9 rue de la solidarité","zipCode":93100,"city":"MONTREUIL","status":"0","rooms":15,"lastVisit":{"$date":"2019-07-22T22:00:00Z"},"anomaly":46.07,"sector":"93","__v":0}
{"_id":{"$oid":"5e33f2744e7da70cb69045f2"},"uuid":57932,"name":"d'Aveyron","address":"3 rue Lacroix","zipCode":75017,"city":"PARIS","status":"0","rooms":14,"lastVisit":{"$date":"2019-08-21T22:00:00Z"},"anomaly":52.73,"sector":"Paris","__v":0}
{"_id":{"$oid":"5e33f2744e7da70cb69045f3"},"uuid":10173809,"name":"De Belfort","address":"40 rue Marc Seguin","zipCode":75018,"city":"PARIS","status":"0","rooms":1,"lastVisit":{"$date":"2019-05-12T22:00:00Z"},"anomaly":21.82,"sector":"Paris","__v":0}
{"_id":{"$oid":"5e33f2744e7da70cb69045f4"},"uuid":800469,"name":"de Bobigny","address":"26 Avenue Louis Aragon","zipCode":93000,"city":"BOBIGNY","status":"0","rooms":30,"lastVisit":{"$date":"2019-07-17T22:00:00Z"},"anomaly":43.33,"sector":"93","__v":0}
{"_id":{"$oid":"5e33f2744e7da70cb69045f5"},"uuid":1743995,"name":"de France","address":"1 bis rue Ferdinand Buisson","zipCode":95190,"city":"GOUSSAINcity","status":"0","rooms":38,"lastVisit":{"$date":"2019-12-08T23:00:00Z"},"anomaly":36.77,"sector":"78/95","__v":0}
{"_id":{"$oid":"5e33f2744e7da70cb69045f6"},"uuid":48460,"name":"de France 18","address":"51-53 boulevard Barbès","zipCode":75018,"city":"PARIS","status":"0","rooms":0,"lastVisit":{"$date":"2019-08-29T22:00:00Z"},"anomaly":19.4,"sector":"Paris","__v":0}
{"_id":{"$oid":"5e33f2744e7da70cb69045f7"},"uuid":3824053,"name":"de Franche Comté","address":"8 rue Moret","zipCode":75011,"city":"PARIS","status":"0","rooms":39,"lastVisit":{"$date":"2019-10-24T22:00:00Z"},"anomaly":41.79,"sector":"Paris","__v":0}
{"_id":{"$oid":"5e33f2744e7da70cb69045f8"},"uuid":197,"name":"de la Condamine","address":"62 rue de la Condamine","zipCode":75017,"city":"PARIS","status":"0","rooms":15,"lastVisit":{"$date":"2019-10-08T22:00:00Z"},"anomaly":41.04,"sector":"Paris","__v":0}
{"_id":{"$oid":"5e33f2744e7da70cb69045f9"},"uuid":21128495,"name":"de la Croix Blanche","address":"2 Avenue Thiers","zipCode":77000,"city":"MELUN","status":"0","rooms":11,"lastVisit":{"$date":"2019-08-11T22:00:00Z"},"anomaly":25.94,"sector":"77/91","__v":0}
{"_id":{"$oid":"5e33f2744e7da70cb69045fa"},"uuid":223,"name":"de la Fourche","address":"6 avenue de Saint-Ouen","zipCode":75018,"city":"PARIS","status":"0","rooms":23,"lastVisit":{"$date":"2019-12-03T23:00:00Z"},"anomaly":41,"sector":"Paris","__v":0}
{"_id":{"$oid":"5e33f2744e7da70cb69045fb"},"uuid":6203778,"name":"De la Gare - Athis Mons","address":"1 place Rothenburg","zipCode":91200,"city":"ATHIS-MONS","status":"0","rooms":13,"lastVisit":{"$date":"2019-11-27T23:00:00Z"},"anomaly":44.25,"sector":"77/91","__v":0}
{"_id":{"$oid":"5e33f2744e7da70cb69045fc"},"uuid":245,"name":"de la Gare - Malakoff","address":"13 avenue Arblade","zipCode":92240,"city":"MALAKOFF","status":"0","rooms":10,"lastVisit":{"$date":"2019-10-27T23:00:00Z"},"anomaly":34.07,"sector":"92/94","__v":0}
{"_id":{"$oid":"5e33f2744e7da70cb69045fd"},"uuid":19935134,"name":"De la Gare - Meudon","address":"19 rue Banès","zipCode":92190,"city":"MEUDON","status":"0","rooms":19,"lastVisit":{"$date":"2019-10-21T22:00:00Z"},"anomaly":29.88,"sector":"92/94","__v":0}
{"_id":{"$oid":"5e33f2744e7da70cb69045fe"},"uuid":24502367,"name":"De La Gare - Orly","address":"1 Avenue Aérodrome","zipCode":94310,"city":"ORLY","status":"0","rooms":2,"lastVisit":{"$date":"2019-10-08T22:00:00Z"},"anomaly":20.61,"sector":"92/94","__v":0}
{"_id":{"$oid":"5e33f2744e7da70cb69045ff"},"uuid":24290502,"name":"De La Gare NANGIS SASU Balmot","address":"Place de la gare-45 Avenue Foch","zipCode":77370,"city":"NANGIS","status":"0","rooms":10,"lastVisit":{"$date":"2019-07-30T22:00:00Z"},"anomaly":43.64,"sector":"77/91","__v":0}
{"_id":{"$oid":"5e33f2744e7da70cb6904600"},"uuid":9407695,"name":"De la Liberté","address":"173 rue Robespierre","zipCode":93170,"city":"BAGNOLET","status":"0","rooms":22,"lastVisit":{"$date":"2019-07-29T22:00:00Z"},"anomaly":20.94,"sector":"93","__v":0}
{"_id":{"$oid":"5e33f2744e7da70cb6904601"},"uuid":14287706,"name":"De La Mairie - Saint Ouen","address":"3 place de la République","zipCode":93400,"city":"SAINT-OUEN","status":"0","rooms":15,"lastVisit":{"$date":"2019-08-21T22:00:00Z"},"anomaly":50.71,"sector":"93","__v":0}
{"_id":{"$oid":"5e33f2744e7da70cb6904602"},"uuid":15929464,"name":"de la Mare","address":"20 rue de la Mare","zipCode":75020,"city":"PARIS","status":"0","rooms":25,"lastVisit":{"$date":"2019-06-05T22:00:00Z"},"anomaly":29.1,"sector":"Paris","__v":0}
{"_id":{"$oid":"5e33f2744e7da70cb6904603"},"uuid":4653198,"name":"de la Marquise","address":"4 avenue Edouard Vaillant","zipCode":93500,"city":"PANTIN","status":"0","rooms":9,"lastVisit":{"$date":"2019-07-04T22:00:00Z"},"anomaly":24.25,"sector":"93","__v":0}
{"_id":{"$oid":"5e33f2744e7da70cb6904604"},"uuid":9828363,"name":"de la Paix - 17","address":"150 Avenue de Clichy","zipCode":75017,"city":"PARIS","status":"0","rooms":3,"lastVisit":{"$date":"2019-09-26T22:00:00Z"},"anomaly":29.9,"sector":"Paris","__v":0}
{"_id":{"$oid":"5e33f2744e7da70cb6904605"},"uuid":48532,"name":"de la Paix - Paris","address":"44 rue des Poissonniers","zipCode":75018,"city":"PARIS","status":"0","rooms":17,"lastVisit":{"$date":"2019-08-29T22:00:00Z"},"anomaly":27.88,"sector":"Paris","__v":0}
{"_id":{"$oid":"5e33f2744e7da70cb6904606"},"uuid":23374761,"name":"De La Porte de Vincennes","address":"3 Passage de la Voûte","zipCode":75012,"city":"PARIS","status":"0","rooms":18,"lastVisit":{"$date":"2019-11-14T23:00:00Z"},"anomaly":40.81,"sector":"Paris","__v":0}
{"_id":{"$oid":"5e33f2744e7da70cb6904607"},"uuid":12030089,"name":"De La Prévoyance","address":"31 rue de la Prévoyance","zipCode":94300,"city":"VINCENNES","status":"0","rooms":10,"lastVisit":{"$date":"2019-09-08T22:00:00Z"},"anomaly":37.28,"sector":"92/94","__v":0}
{"_id":{"$oid":"5e33f2744e7da70cb6904608"},"uuid":23406821,"name":"De La Reine","address":"156 route De La Reine","zipCode":92100,"city":"BOULOGNE-BILLANCOURT","status":"0","rooms":11,"lastVisit":{"$date":"2019-09-23T22:00:00Z"},"anomaly":37.58,"sector":"92/94","__v":0}
{"_id":{"$oid":"5e33f2744e7da70cb6904609"},"uuid":51243,"name":"de la Source","address":"44 rue du Borrego","zipCode":75020,"city":"PARIS","status":"0","rooms":13,"lastVisit":{"$date":"2019-10-03T22:00:00Z"},"anomaly":32.84,"sector":"Paris","__v":0}
{"_id":{"$oid":"5e33f2744e7da70cb690460a"},"uuid":9840352,"name":"De La Sous Préfecture","address":"14 Boulevard François Mittérrand","zipCode":95200,"city":"SARCELLES","status":"0","rooms":12,"lastVisit":{"$date":"2019-08-25T22:00:00Z"},"anomaly":50.91,"sector":"78/95","__v":0}
{"_id":{"$oid":"5e33f2744e7da70cb690460b"},"uuid":7397687,"name":"de la citytte","address":"2 rue de Kabylie","zipCode":75019,"city":"PARIS","status":"0","rooms":22,"lastVisit":{"$date":"2019-10-02T22:00:00Z"},"anomaly":41.22,"sector":"Paris","__v":0}
{"_id":{"$oid":"5e33f2744e7da70cb690460c"},"uuid":7358996,"name":"De l'Avenue","address":"1 passage Lathuille","zipCode":75018,"city":"PARIS","status":"0","rooms":0,"lastVisit":{"$date":"2019-11-07T23:00:00Z"},"anomaly":26.07,"sector":"Paris","__v":0}
{"_id":{"$oid":"5e33f2744e7da70cb690460d"},"uuid":1253239,"name":"de l'étoile","address":"18 rue Auger","zipCode":75020,"city":"PARIS","status":"0","rooms":25,"lastVisit":{"$date":"2019-10-02T22:00:00Z"},"anomaly":32.2,"sector":"Paris","__v":0}
{"_id":{"$oid":"5e33f2744e7da70cb690460e"},"uuid":51197,"name":"de l'Europe - Argenteuil","address":"5 place Pierre Sémard","zipCode":95100,"city":"ARGENTEUIL","status":"0","rooms":49,"lastVisit":{"$date":"2019-06-16T22:00:00Z"},"anomaly":50.86,"sector":"78/95","__v":0}
{"_id":{"$oid":"5e33f2744e7da70cb690460f"},"uuid":5933028,"name":"de l'Europe Sedaine","address":"74 rue Sedaine","zipCode":75011,"city":"PARIS","status":"0","rooms":21,"lastVisit":{"$date":"2019-09-17T22:00:00Z"},"anomaly":40.41,"sector":"Paris","__v":0}
{"_id":{"$oid":"5e33f2744e7da70cb6904610"},"uuid":193469,"name":"de Louvres","address":"94 rue de Paris","zipCode":95380,"city":"LOUVRES","status":"0","rooms":42,"lastVisit":{"$date":"2019-03-26T23:00:00Z"},"anomaly":47.43,"sector":"78/95","__v":0}
{"_id":{"$oid":"5e33f2744e7da70cb6904611"},"uuid":166,"name":"de Nice","address":"90 rue Truffaut","zipCode":75017,"city":"PARIS","status":"0","rooms":9,"lastVisit":{"$date":"2019-10-08T22:00:00Z"},"anomaly":36.85,"sector":"Paris","__v":0}
{"_id":{"$oid":"5e33f2744e7da70cb6904612"},"uuid":3583280,"name":"de Paris - La renaissance","address":"67 Avenue Jean Lolive","zipCode":93500,"city":"PANTIN","status":"0","rooms":29,"lastVisit":{"$date":"2019-08-12T22:00:00Z"},"anomaly":45.66,"sector":"93","__v":0}
{"_id":{"$oid":"5e33f2744e7da70cb6904613"},"uuid":27256149,"name":"de Paris société Houram","address":"243 rue de Paris","zipCode":93100,"city":"MONTREUIL","status":"0","rooms":0,"lastVisit":{"$date":"2019-08-20T22:00:00Z"},"anomaly":24.25,"sector":"93","__v":0}
{"_id":{"$oid":"5e33f2744e7da70cb6904614"},"uuid":5527698,"name":"De Paris- ST-DENIS","address":"9 rue Danielle Casanova","zipCode":93200,"city":"SAINT-DENIS","status":"0","rooms":23,"lastVisit":{"$date":"2019-06-12T22:00:00Z"},"anomaly":40.15,"sector":"93","__v":0}
{"_id":{"$oid":"5e33f2744e7da70cb6904615"},"uuid":117,"name":"de Rohan","address":"90 rue Myrha","zipCode":75018,"city":"PARIS","status":"0","rooms":12,"lastVisit":{"$date":"2019-10-09T22:00:00Z"},"anomaly":29.7,"sector":"Paris","__v":0}
{"_id":{"$oid":"5e33f2744e7da70cb6904616"},"uuid":164,"name":"de Savoy - 17","address":"21 rue des Dames","zipCode":75017,"city":"PARIS","status":"0","rooms":0,"lastVisit":{"$date":"2019-04-11T22:00:00Z"},"anomaly":34.46,"sector":"Paris","__v":0}
{"_id":{"$oid":"5e33f2744e7da70cb6904617"},"uuid":23889821,"name":"De Strasbourg ex Citotel de Strasbourg","address":"43 rue de Strasbourg","zipCode":93600,"city":"AULNAY-SOUS-BOIS","status":"0","rooms":8,"lastVisit":{"$date":"2019-08-22T22:00:00Z"},"anomaly":36.37,"sector":"93","__v":0}
{"_id":{"$oid":"5e33f2744e7da70cb6904618"},"uuid":47906,"name":"des Alliés","address":"90 rue du faubourg Saint-Antoine","zipCode":75012,"city":"PARIS","status":"0","rooms":28,"lastVisit":{"$date":"2019-10-01T22:00:00Z"},"anomaly":31.61,"sector":"Paris","__v":0}
{"_id":{"$oid":"5e33f2744e7da70cb6904619"},"uuid":7781899,"name":"des Amandiers","address":"11 rue Bouret","zipCode":75019,"city":"PARIS","status":"0","rooms":12,"lastVisit":{"$date":"2019-10-17T22:00:00Z"},"anomaly":43.64,"sector":"Paris","__v":0}
{"_id":{"$oid":"5e33f2744e7da70cb690461a"},"uuid":108,"name":"des Arts et Métiers","address":"4 rue Borda","zipCode":75003,"city":"PARIS","status":"0","rooms":2,"lastVisit":{"$date":"2019-05-19T22:00:00Z"},"anomaly":32.73,"sector":"Paris","__v":0}
{"_id":{"$oid":"5e33f2744e7da70cb690461b"},"uuid":2081023,"name":"des Bains 17","address":"125 avenue de Clichy","zipCode":75017,"city":"PARIS","status":"0","rooms":18,"lastVisit":{"$date":"2019-10-23T22:00:00Z"},"anomaly":27.88,"sector":"Paris","__v":0}
{"_id":{"$oid":"5e33f2744e7da70cb690461c"},"uuid":160,"name":"des Beaux-Arts","address":"4 rue André Antoine","zipCode":75018,"city":"PARIS","status":"0","rooms":14,"lastVisit":{"$date":"2019-10-13T22:00:00Z"},"anomaly":36.37,"sector":"Paris","__v":0}
{"_id":{"$oid":"5e33f2744e7da70cb690461d"},"uuid":4997664,"name":"des deux Gares","address":"86 bis rue Raoul Dautry","zipCode":95120,"city":"ERMONT","status":"0","rooms":14,"lastVisit":{"$date":"2019-08-06T22:00:00Z"},"anomaly":40.51,"sector":"78/95","__v":0}
{"_id":{"$oid":"5e33f2744e7da70cb690461e"},"uuid":20888697,"name":"des Genêts 2","address":"117 Bd Saint Denis","zipCode":92400,"city":"COURBEVOIE","status":"0","rooms":14,"lastVisit":{"$date":"2019-06-17T22:00:00Z"},"anomaly":37.66,"sector":"92/94","__v":0}
{"_id":{"$oid":"5e33f2744e7da70cb690461f"},"uuid":2354691,"name":"Des Oiseaux","address":"1 rue de l'Yser","zipCode":93800,"city":"EPINAY-SUR-SEINE","status":"0","rooms":0,"lastVisit":{"$date":"2019-07-23T22:00:00Z"},"anomaly":33.94,"sector":"93","__v":0}
{"_id":{"$oid":"5e33f2744e7da70cb6904620"},"uuid":420980,"name":"Des Pyrénées","address":"131 Avenue Aristide Briand","zipCode":94110,"city":"ARCUEIL","status":"0","rooms":2,"lastVisit":{"$date":"2019-12-11T23:00:00Z"},"anomaly":48.49,"sector":"92/94","__v":0}
{"_id":{"$oid":"5e33f2744e7da70cb6904621"},"uuid":6903988,"name":"Des Pyrénées - 12","address":"204 rue du Faubourg Saint Antoine","zipCode":75012,"city":"PARIS","status":"0","rooms":6,"lastVisit":{"$date":"2019-11-13T23:00:00Z"},"anomaly":43.64,"sector":"Paris","__v":0}
{"_id":{"$oid":"5e33f2744e7da70cb6904622"},"uuid":75,"name":"des Pyrénées - 20","address":"399 bis rue des Pyrénées","zipCode":75020,"city":"PARIS","status":"0","rooms":15,"lastVisit":{"$date":"2019-06-05T22:00:00Z"},"anomaly":32.58,"sector":"Paris","__v":0}
{"_id":{"$oid":"5e33f2744e7da70cb6904623"},"uuid":26384587,"name":"DESIGN  BOOKING","address":"5 rue des Carrières Morillon - ZAC des Vœux St Georges","zipCode":94290,"city":"cityNEUVE LE ROI","status":"0","rooms":1,"lastVisit":{"$date":"2019-10-08T22:00:00Z"},"anomaly":33.94,"sector":"92/94","__v":0}
{"_id":{"$oid":"5e33f2744e7da70cb6904624"},"uuid":19935135,"name":"Domance Hotel","address":"1 rue de Savigny","zipCode":91170,"city":"VIRY-CHATILLON","status":"0","rooms":5,"lastVisit":{"$date":"2019-11-25T23:00:00Z"},"anomaly":43.04,"sector":"77/91","__v":0}
{"_id":{"$oid":"5e33f2744e7da70cb6904625"},"uuid":48909,"name":"du 32","address":"32 rue du docteur Potain","zipCode":75019,"city":"PARIS","status":"0","rooms":38,"lastVisit":{"$date":"2019-10-03T22:00:00Z"},"anomaly":41.22,"sector":"Paris","__v":0}
{"_id":{"$oid":"5e33f2744e7da70cb6904626"},"uuid":7380005,"name":"du Canal Saint Martin","address":"20 rue louis blanc","zipCode":75010,"city":"PARIS","status":"0","rooms":16,"lastVisit":{"$date":"2019-11-06T23:00:00Z"},"anomaly":48.49,"sector":"Paris","__v":0}
{"_id":{"$oid":"5e33f2744e7da70cb6904627"},"uuid":7194217,"name":"Du Centre","address":"112 rue de Charenton","zipCode":75012,"city":"PARIS","status":"0","rooms":18,"lastVisit":{"$date":"2019-11-13T23:00:00Z"},"anomaly":36.03,"sector":"Paris","__v":0}
{"_id":{"$oid":"5e33f2744e7da70cb6904628"},"uuid":14417351,"name":"du Centre - 17ème","address":"70 rue de la Jonquière","zipCode":75017,"city":"PARIS","status":"0","rooms":16,"lastVisit":{"$date":"2019-09-26T22:00:00Z"},"anomaly":30.47,"sector":"Paris","__v":0}
{"_id":{"$oid":"5e33f2744e7da70cb6904629"},"uuid":1853457,"name":"du Centre - Aubervilliers","address":"134 rue des Cités","zipCode":93300,"city":"AUBERVILLIERS","status":"0","rooms":22,"lastVisit":{"$date":"2019-07-10T22:00:00Z"},"anomaly":21.82,"sector":"93","__v":0}
{"_id":{"$oid":"5e33f2744e7da70cb690462a"},"uuid":1260702,"name":"du Commerce","address":"9 rue Pierre Semard","zipCode":91260,"city":"JUVISY-SUR-ORGE","status":"0","rooms":20,"lastVisit":{"$date":"2019-11-04T23:00:00Z"},"anomaly":35.54,"sector":"77/91","__v":0}
{"_id":{"$oid":"5e33f2744e7da70cb690462b"},"uuid":5453124,"name":"du Dôme","address":"53 rue du Dôme","zipCode":92100,"city":"BOULOGNE-BILLANCOURT","status":"0","rooms":14,"lastVisit":{"$date":"2019-10-21T22:00:00Z"},"anomaly":35.16,"sector":"92/94","__v":0}
{"_id":{"$oid":"5e33f2744e7da70cb690462c"},"uuid":6088952,"name":"du Faubourg","address":"39 rue du Faubourg","zipCode":77260,"city":"LA FERTE-SOUS-JOUARRE","status":"0","rooms":11,"lastVisit":{"$date":"2019-06-24T22:00:00Z"},"anomaly":38.35,"sector":"77/91","__v":0}
{"_id":{"$oid":"5e33f2744e7da70cb690462d"},"uuid":4895265,"name":"du Globe Drancy","address":"69 rue de la République","zipCode":93700,"city":"DRANCY","status":"0","rooms":13,"lastVisit":{"$date":"2019-07-23T22:00:00Z"},"anomaly":33.5,"sector":"93","__v":0}
{"_id":{"$oid":"5e33f2744e7da70cb690462e"},"uuid":5566414,"name":"Du Grand Panorama","address":"5 rue du Mont Blanc","zipCode":91600,"city":"SAVIGNY-SUR-ORGE","status":"0","rooms":29,"lastVisit":{"$date":"2019-10-21T22:00:00Z"},"anomaly":31.6,"sector":"77/91","__v":0}
{"_id":{"$oid":"5e33f2744e7da70cb690462f"},"uuid":26379451,"name":"Du Lac - RESADOTEL","address":"2 rue du Pont Neuf","zipCode":91160,"city":"SAULX-LES-CHARTREUX","status":"0","rooms":30,"lastVisit":{"$date":"2019-11-12T23:00:00Z"},"anomaly":47.28,"sector":"77/91","__v":0}
{"_id":{"$oid":"5e33f2744e7da70cb6904630"},"uuid":5930278,"name":"Du Monde","address":"15 rue Pasteur","zipCode":75011,"city":"PARIS","status":"0","rooms":35,"lastVisit":{"$date":"2019-10-03T22:00:00Z"},"anomaly":41.22,"sector":"Paris","__v":0}
{"_id":{"$oid":"5e33f2744e7da70cb6904631"},"uuid":95,"name":"du Nord","address":"7 rue du commandant Baroche","zipCode":93350,"city":"LE BOURGET","status":"0","rooms":56,"lastVisit":{"$date":"2019-07-09T22:00:00Z"},"anomaly":41.64,"sector":"93","__v":0}
{"_id":{"$oid":"5e33f2744e7da70cb6904632"},"uuid":16,"name":"du Nord Résidence Marcadet","address":"43 bis rue Marcadet","zipCode":75018,"city":"PARIS","status":"0","rooms":15,"lastVisit":{"$date":"2019-08-29T22:00:00Z"},"anomaly":30.76,"sector":"Paris","__v":0}
{"_id":{"$oid":"5e33f2744e7da70cb6904633"},"uuid":251,"name":"du Parc","address":"122 rue Danielle Casanova","zipCode":93200,"city":"SAINT-DENIS","status":"0","rooms":0,"lastVisit":{"$date":"2019-08-21T22:00:00Z"},"anomaly":19.4,"sector":"93","__v":0}
{"_id":{"$oid":"5e33f2744e7da70cb6904634"},"uuid":11649774,"name":"Du Parc - Clichy","address":"22 Rue du Général Roguet","zipCode":92110,"city":"CLICHY","status":"0","rooms":12,"lastVisit":{"$date":"2019-05-19T22:00:00Z"},"anomaly":48.49,"sector":"92/94","__v":0}
{"_id":{"$oid":"5e33f2744e7da70cb6904635"},"uuid":9697125,"name":"Du Parc - Paris","address":"32 rue Cavé","zipCode":75018,"city":"PARIS","status":"0","rooms":21,"lastVisit":{"$date":"2019-10-09T22:00:00Z"},"anomaly":21.25,"sector":"Paris","__v":0}
{"_id":{"$oid":"5e33f2744e7da70cb6904636"},"uuid":4928487,"name":"du Poitou","address":"12 rue Guy Môquet","zipCode":75017,"city":"PARIS","status":"0","rooms":10,"lastVisit":{"$date":"2019-09-26T22:00:00Z"},"anomaly":38.34,"sector":"Paris","__v":0}
{"_id":{"$oid":"5e33f2744e7da70cb6904637"},"uuid":11649833,"name":"Du Printemps - Paris 10","address":"81 rue du Faubourg du Temple","zipCode":75010,"city":"PARIS","status":"0","rooms":12,"lastVisit":{"$date":"2019-10-17T22:00:00Z"},"anomaly":31.52,"sector":"Paris","__v":0}
{"_id":{"$oid":"5e33f2744e7da70cb6904638"},"uuid":20129616,"name":"Du Printemps - Paris 18ème","address":"72 rue des Poissonniers","zipCode":75018,"city":"PARIS","status":"0","rooms":3,"lastVisit":{"$date":"2019-06-16T22:00:00Z"},"anomaly":33.14,"sector":"Paris","__v":0}
{"_id":{"$oid":"5e33f2744e7da70cb6904639"},"uuid":241,"name":"Du Progrès-93","address":"16 rue de la République","zipCode":93230,"city":"ROMAINcity","status":"0","rooms":17,"lastVisit":{"$date":"2019-07-22T22:00:00Z"},"anomaly":26.59,"sector":"93","__v":0}
{"_id":{"$oid":"5e33f2744e7da70cb690463a"},"uuid":2137579,"name":"du Soleil","address":"2 rue des Sorins","zipCode":93100,"city":"MONTREUIL","status":"0","rooms":25,"lastVisit":{"$date":"2019-07-03T22:00:00Z"},"anomaly":31.52,"sector":"93","__v":0}
{"_id":{"$oid":"5e33f2744e7da70cb690463b"},"uuid":284,"name":"du Square","address":"28 boulevard Marcel Sembat","zipCode":93200,"city":"SAINT-DENIS","status":"0","rooms":21,"lastVisit":{"$date":"2019-07-03T22:00:00Z"},"anomaly":31.2,"sector":"93","__v":0}
{"_id":{"$oid":"5e33f2744e7da70cb690463c"},"uuid":49158,"name":"du Trône","address":"9 rue Houdon","zipCode":75018,"city":"PARIS","status":"0","rooms":20,"lastVisit":{"$date":"2019-10-13T22:00:00Z"},"anomaly":38.15,"sector":"Paris","__v":0}
{"_id":{"$oid":"5e33f2744e7da70cb690463d"},"uuid":981874,"name":"Du Village ex de la Paix - Beaumont","address":"29 Rue Albert 1er","zipCode":95260,"city":"BEAUMONT-SUR-OISE","status":"0","rooms":5,"lastVisit":{"$date":"2019-09-16T22:00:00Z"},"anomaly":43.64,"sector":"78/95","__v":0}
{"_id":{"$oid":"5e33f2744e7da70cb690463e"},"uuid":22994708,"name":"Ecotel","address":"10 Rue Joseph Jacquard","zipCode":78120,"city":"RAMBOUILLET","status":"0","rooms":42,"lastVisit":{"$date":"2019-05-13T22:00:00Z"},"anomaly":39.4,"sector":"78/95","__v":0}
{"_id":{"$oid":"5e33f2744e7da70cb690463f"},"uuid":5009917,"name":"EggHôtel Gonesse","address":"RN 17 La Patte d'oie","zipCode":95500,"city":"GONESSE","status":"0","rooms":0,"lastVisit":{"$date":"2019-09-17T22:00:00Z"},"anomaly":36.37,"sector":"78/95","__v":0}
{"_id":{"$oid":"5e33f2744e7da70cb6904640"},"uuid":24651949,"name":"ENZO  Trappes","address":"rue Eugène Hénaff","zipCode":78190,"city":"TRAPPES","status":"0","rooms":30,"lastVisit":{"$date":"2019-10-07T22:00:00Z"},"anomaly":48.49,"sector":"78/95","__v":0}
{"_id":{"$oid":"5e33f2744e7da70cb6904641"},"uuid":14374110,"name":"Enzo Hôtel","address":"19 Rue le Corbusier","zipCode":95190,"city":"GOUSSAINcity","status":"0","rooms":85,"lastVisit":{"$date":"2019-12-08T23:00:00Z"},"anomaly":33.94,"sector":"78/95","__v":0}
{"_id":{"$oid":"5e33f2744e7da70cb6904642"},"uuid":5882742,"name":"Escale 77","address":"7 avenue du Marechal Leclerc","zipCode":77230,"city":"DAMMARTIN-EN-GOELE","status":"0","rooms":13,"lastVisit":{"$date":"2019-08-20T22:00:00Z"},"anomaly":36.37,"sector":"77/91","__v":0}
{"_id":{"$oid":"5e33f2744e7da70cb6904643"},"uuid":19935136,"name":"Escale Akena - Chilly","address":"1 rue Ampère","zipCode":91380,"city":"CHILLY-MAZARIN","status":"0","rooms":10,"lastVisit":{"$date":"2019-11-25T23:00:00Z"},"anomaly":37.58,"sector":"77/91","__v":0}
{"_id":{"$oid":"5e33f2744e7da70cb6904644"},"uuid":19072072,"name":"Espérance","address":"5-7 rue Saint Furcy","zipCode":77400,"city":"LAGNY-SUR-MARNE","status":"0","rooms":13,"lastVisit":{"$date":"2019-05-05T22:00:00Z"},"anomaly":34.16,"sector":"77/91","__v":0}
{"_id":{"$oid":"5e33f2744e7da70cb6904645"},"uuid":4256549,"name":"Euro Sovereign Saint-Denis","address":"100102 rue Gabriel Péri","zipCode":93200,"city":"SAINT-DENIS","status":"0","rooms":24,"lastVisit":{"$date":"2019-08-20T22:00:00Z"},"anomaly":42.63,"sector":"93","__v":0}
{"_id":{"$oid":"5e33f2744e7da70cb6904646"},"uuid":4832192,"name":"Europarc","address":"Boulevard Courcerin","zipCode":77185,"city":"LOGNES","status":"0","rooms":56,"lastVisit":{"$date":"2019-08-12T22:00:00Z"},"anomaly":47.28,"sector":"77/91","__v":0}
{"_id":{"$oid":"5e33f2744e7da70cb6904647"},"uuid":3607667,"name":"Europe","address":"2 rue du Docteur Marbais","zipCode":93190,"city":"LIVRY-GARGAN","status":"0","rooms":22,"lastVisit":{"$date":"2019-07-25T22:00:00Z"},"anomaly":27.12,"sector":"93","__v":0}
{"_id":{"$oid":"5e33f2744e7da70cb6904648"},"uuid":27382978,"name":"Excelsior - Varlin","address":"25 rue Eugène Varlin","zipCode":75010,"city":"PARIS","status":"0","rooms":40,"lastVisit":{"$date":"2019-06-06T22:00:00Z"},"anomaly":29.36,"sector":"Paris","__v":0}
{"_id":{"$oid":"5e33f2744e7da70cb6904649"},"uuid":4327687,"name":"F1 Aulnay Garonor A1 - H2376","address":"1 rue Robert Brémond","zipCode":93600,"city":"AULNAY-SOUS-BOIS","status":"0","rooms":71,"lastVisit":{"$date":"2019-09-19T22:00:00Z"},"anomaly":14.48,"sector":"93","__v":0}
{"_id":{"$oid":"5e33f2744e7da70cb690464a"},"uuid":421836,"name":"F1 Brie Comte Robert - H2536","address":"Rue Gustave Eiffel/ZAC de la Haye Passart","zipCode":77170,"city":"BRIE-COMTE-ROBERT","status":"0","rooms":27,"lastVisit":{"$date":"2019-09-17T22:00:00Z"},"anomaly":14.55,"sector":"77/91","__v":0}
{"_id":{"$oid":"5e33f2744e7da70cb690464b"},"uuid":392974,"name":"F1 Epinay sur Orge - H2387","address":"1 rue Charaintru/Lotissement de Petit Vaux","zipCode":91360,"city":"EPINAY-SUR-ORGE","status":"0","rooms":23,"lastVisit":{"$date":"2019-06-18T22:00:00Z"},"anomaly":14.55,"sector":"77/91","__v":0}
{"_id":{"$oid":"5e33f2744e7da70cb690464c"},"uuid":6418202,"name":"F1 Epône - H2391","address":"204 avenue de la Mauldre","zipCode":78680,"city":"EPONE","status":"0","rooms":28,"lastVisit":{"$date":"2019-05-26T22:00:00Z"},"anomaly":12.13,"sector":"78/95","__v":0}
{"_id":{"$oid":"5e33f2744e7da70cb690464d"},"uuid":27626092,"name":"F1 Mennecy","address":"30 rue des Moques Tonneaux","zipCode":91540,"city":"ORMOY","status":"0","rooms":28,"lastVisit":{"$date":"2019-05-06T22:00:00Z"},"anomaly":16.97,"sector":"77/91","__v":0}
{"_id":{"$oid":"5e33f2744e7da70cb690464e"},"uuid":20086001,"name":"F1 Plaisir - H2218","address":"36 rue Pierre Curie","zipCode":78370,"city":"PLAISIR","status":"0","rooms":16,"lastVisit":{"$date":"2019-09-09T22:00:00Z"},"anomaly":18.19,"sector":"78/95","__v":0}
{"_id":{"$oid":"5e33f2744e7da70cb690464f"},"uuid":13956672,"name":"F1 Saint-Denis Stade - H3072","address":"Rue de la cokerie - Avenue Francis de Pressencé","zipCode":93210,"city":"SAINT-DENIS","status":"0","rooms":0,"lastVisit":{"$date":"2019-02-21T23:00:00Z"},"anomaly":21.82,"sector":"93","__v":0}
{"_id":{"$oid":"5e33f2744e7da70cb6904650"},"uuid":27626182,"name":"F1 Sarcelles","address":"1 rue du Vignolle Zone d'Activité","zipCode":95200,"city":"SARCELLES","status":"0","rooms":56,"lastVisit":{"$date":"2019-09-16T22:00:00Z"},"anomaly":11.92,"sector":"78/95","__v":0}
{"_id":{"$oid":"5e33f2744e7da70cb6904651"},"uuid":393009,"name":"F1 Savigny citymoisson - H2230","address":"Prairie de Savigny","zipCode":91600,"city":"SAVIGNY SUR ORGE","status":"0","rooms":23,"lastVisit":{"$date":"2019-06-18T22:00:00Z"},"anomaly":14.55,"sector":"77/91","__v":0}
{"_id":{"$oid":"5e33f2744e7da70cb6904652"},"uuid":5890205,"name":"F1 cityparisis - H2503","address":"ZAC de l'Ambresis rue Alfred Nobel","zipCode":77270,"city":"cityPARISIS","status":"0","rooms":70,"lastVisit":{"$date":"2019-08-20T22:00:00Z"},"anomaly":24.25,"sector":"77/91","__v":0}
{"_id":{"$oid":"5e33f2744e7da70cb6904653"},"uuid":4417689,"name":"F1 Vitry - H2500","address":"132 rue Julian Grimau","zipCode":94400,"city":"VITRY-SUR-SEINE","status":"0","rooms":41,"lastVisit":{"$date":"2019-12-16T23:00:00Z"},"anomaly":19.99,"sector":"92/94","__v":0}
{"_id":{"$oid":"5e33f2744e7da70cb6904654"},"uuid":4367703,"name":"FARAM","address":"rue du Lac","zipCode":91250,"city":"TIGERY","status":"0","rooms":40,"lastVisit":{"$date":"2019-11-27T23:00:00Z"},"anomaly":40,"sector":"77/91","__v":0}
{"_id":{"$oid":"5e33f2744e7da70cb6904655"},"uuid":4804048,"name":"Fast Hôtel Brie Comte Robert","address":"11 allée du Commandant Guesnet","zipCode":77170,"city":"BRIE-COMTE-ROBERT","status":"0","rooms":3,"lastVisit":{"$date":"2019-09-17T22:00:00Z"},"anomaly":31.52,"sector":"77/91","__v":0}
{"_id":{"$oid":"5e33f2744e7da70cb6904656"},"uuid":4804052,"name":"Fast Hôtel Claye Souilly","address":"2 rue Ernest Sarron","zipCode":77410,"city":"CLAYE-SOUILLY","status":"0","rooms":8,"lastVisit":{"$date":"2019-07-31T22:00:00Z"},"anomaly":29.1,"sector":"77/91","__v":0}
{"_id":{"$oid":"5e33f2744e7da70cb6904657"},"uuid":4804009,"name":"Fast Hôtel Montereau ancien PC","address":"RN 105 Le Petit Fossard","zipCode":77940,"city":"ESMANS","status":"0","rooms":12,"lastVisit":{"$date":"2019-07-23T22:00:00Z"},"anomaly":36.37,"sector":"77/91","__v":0}
{"_id":{"$oid":"5e33f2744e7da70cb6904658"},"uuid":20584007,"name":"Fast Hôtel Saint Fargeau","address":"rue de Strasbourg  ZAC de l'Europe","zipCode":77310,"city":"SAINT FARGEAU PONTHIERRY","status":"0","rooms":38,"lastVisit":{"$date":"2019-07-08T22:00:00Z"},"anomaly":56.91,"sector":"77/91","__v":0}
{"_id":{"$oid":"5e33f2744e7da70cb6904659"},"uuid":1285486,"name":"Fasthome","address":"1 avenue Georges Pompidou","zipCode":95500,"city":"GONESSE","status":"0","rooms":54,"lastVisit":{"$date":"2019-12-12T23:00:00Z"},"anomaly":36.26,"sector":"78/95","__v":0}
{"_id":{"$oid":"5e33f2744e7da70cb690465a"},"uuid":3663576,"name":"FE","address":"8 avenue des Erables","zipCode":95400,"city":"VILLIERS-LE-BEL","status":"0","rooms":29,"lastVisit":{"$date":"2019-07-21T22:00:00Z"},"anomaly":45.76,"sector":"78/95","__v":0}
{"_id":{"$oid":"5e33f2744e7da70cb690465b"},"uuid":52,"name":"Fleuri","address":"128 rue Villiers de l'Isle Adam","zipCode":75020,"city":"PARIS","status":"0","rooms":19,"lastVisit":{"$date":"2019-08-07T22:00:00Z"},"anomaly":27.17,"sector":"Paris","__v":0}
{"_id":{"$oid":"5e33f2744e7da70cb690465c"},"uuid":20089477,"name":"Florence","address":"23 rue Neuve des Boulets","zipCode":75011,"city":"PARIS","status":"0","rooms":32,"lastVisit":{"$date":"2019-11-05T23:00:00Z"},"anomaly":32.25,"sector":"Paris","__v":0}
{"_id":{"$oid":"5e33f2744e7da70cb690465d"},"uuid":3454388,"name":"Formule 1 de Trappes","address":"Rue Gaston Monmousseau","zipCode":78195,"city":"TRAPPES","status":"0","rooms":25,"lastVisit":{"$date":"2019-11-03T23:00:00Z"},"anomaly":16.97,"sector":"78/95","__v":0}
{"_id":{"$oid":"5e33f2744e7da70cb690465e"},"uuid":23876013,"name":"Gallieni","address":"18 bis boulevard Gallieni","zipCode":92230,"city":"GENNEVILLIERS","status":"0","rooms":118,"lastVisit":{"$date":"2019-11-17T23:00:00Z"},"anomaly":44.77,"sector":"92/94","__v":0}
{"_id":{"$oid":"5e33f2744e7da70cb690465f"},"uuid":1353727,"name":"Gambetta","address":"9 place Léon Gambetta","zipCode":94200,"city":"IVRY-SUR-SEINE","status":"0","rooms":26,"lastVisit":{"$date":"2019-05-12T22:00:00Z"},"anomaly":21.61,"sector":"92/94","__v":0}
{"_id":{"$oid":"5e33f2744e7da70cb6904660"},"uuid":15507073,"name":"Garden Opéra","address":"65 Rue du Château d'Eau","zipCode":75010,"city":"PARIS","status":"0","rooms":8,"lastVisit":{"$date":"2019-10-17T22:00:00Z"},"anomaly":41.22,"sector":"Paris","__v":0}
{"_id":{"$oid":"5e33f2744e7da70cb6904661"},"uuid":1253617,"name":"Géode Bleue","address":"15 rue Magenta","zipCode":93500,"city":"PANTIN","status":"0","rooms":22,"lastVisit":{"$date":"2019-07-04T22:00:00Z"},"anomaly":33.74,"sector":"93","__v":0}
{"_id":{"$oid":"5e33f2744e7da70cb6904662"},"uuid":193,"name":"Godefroy","address":"27 rue Godefroy","zipCode":92800,"city":"PUTEAUX","status":"0","rooms":31,"lastVisit":{"$date":"2019-12-29T23:00:00Z"},"anomaly":47.69,"sector":"92/94","__v":0}
{"_id":{"$oid":"5e33f2744e7da70cb6904663"},"uuid":5938942,"name":"Grand Hôtel du Progrès","address":"195 rue du Faubourg Saint Antoine","zipCode":75011,"city":"PARIS","status":"0","rooms":28,"lastVisit":{"$date":"2019-08-20T22:00:00Z"},"anomaly":56.37,"sector":"Paris","__v":0}
{"_id":{"$oid":"5e33f2744e7da70cb6904664"},"uuid":13957346,"name":"Grand Hôtel Voltaire","address":"150 Boulevard Voltaire","zipCode":75011,"city":"PARIS","status":"0","rooms":3,"lastVisit":{"$date":"2019-09-17T22:00:00Z"},"anomaly":32.73,"sector":"Paris","__v":0}
{"_id":{"$oid":"5e33f2744e7da70cb6904665"},"uuid":161,"name":"GRAND PARIS Ex France 2","address":"33 avenue Louis Aragon","zipCode":94800,"city":"cityJUIF","status":"0","rooms":15,"lastVisit":{"$date":"2019-07-24T22:00:00Z"},"anomaly":36.37,"sector":"92/94","__v":0}
{"_id":{"$oid":"5e33f2744e7da70cb6904666"},"uuid":4224502,"name":"Grand Pignon","address":"8 Rue du Grand Pignon","zipCode":91100,"city":"CORBEIL-ESSONNES","status":"0","rooms":15,"lastVisit":{"$date":"2019-11-11T23:00:00Z"},"anomaly":41.22,"sector":"77/91","__v":0}
{"_id":{"$oid":"5e33f2744e7da70cb6904667"},"uuid":156,"name":"Gravel's","address":"43 avenue du Maréchal de Lattre de Tassigny","zipCode":94220,"city":"CHARENTON-LE-PONT","status":"0","rooms":24,"lastVisit":{"$date":"2019-11-14T23:00:00Z"},"anomaly":34.95,"sector":"92/94","__v":0}
{"_id":{"$oid":"5e33f2744e7da70cb6904668"},"uuid":26384724,"name":"Green hôtel - 91","address":"19 rue de  L'Hurepoix","zipCode":91700,"city":"SAINTE GENEVIEVE DES BOIS","status":"0","rooms":20,"lastVisit":{"$date":"2019-10-08T22:00:00Z"},"anomaly":50.91,"sector":"77/91","__v":0}
{"_id":{"$oid":"5e33f2744e7da70cb6904669"},"uuid":248,"name":"Green Hôtel - 94","address":"18 avenue Rabelais","zipCode":94120,"city":"FONTENAY-SOUS-BOIS","status":"0","rooms":9,"lastVisit":{"$date":"2019-12-02T23:00:00Z"},"anomaly":38.93,"sector":"92/94","__v":0}
{"_id":{"$oid":"5e33f2744e7da70cb690466a"},"uuid":1447904,"name":"Gresset","address":"4 rue Gresset","zipCode":75019,"city":"PARIS","status":"0","rooms":7,"lastVisit":{"$date":"2019-10-17T22:00:00Z"},"anomaly":39.8,"sector":"Paris","__v":0}
{"_id":{"$oid":"5e33f2744e7da70cb690466b"},"uuid":1253389,"name":"Grill Coudray","address":"2 rue Panhard","zipCode":91830,"city":"LE COUDRAY-MONTCEAUX","status":"0","rooms":52,"lastVisit":{"$date":"2019-07-08T22:00:00Z"},"anomaly":42.43,"sector":"77/91","__v":0}
{"_id":{"$oid":"5e33f2744e7da70cb690466c"},"uuid":85,"name":"Grillon Sauffroy","address":"30 rue Sauffroy","zipCode":75017,"city":"PARIS","status":"0","rooms":23,"lastVisit":{"$date":"2019-08-21T22:00:00Z"},"anomaly":34.14,"sector":"Paris","__v":0}
{"_id":{"$oid":"5e33f2744e7da70cb690466d"},"uuid":1057429,"name":"Havre Hôtel","address":"92 rue Léon Désoyer","zipCode":78100,"city":"SAINT-GERMAIN-EN-LAYE","status":"0","rooms":10,"lastVisit":{"$date":"2019-01-31T23:00:00Z"},"anomaly":39.4,"sector":"78/95","__v":0}
{"_id":{"$oid":"5e33f2744e7da70cb690466e"},"uuid":8781311,"name":"Hayttun","address":"1, Avenue du Général Leclerc","zipCode":77360,"city":"VAIRES-SUR-MARNE","status":"0","rooms":13,"lastVisit":{"$date":"2019-08-21T22:00:00Z"},"anomaly":58.19,"sector":"77/91","__v":0}
{"_id":{"$oid":"5e33f2744e7da70cb690466f"},"uuid":297,"name":"Hipotel - Joincity","address":"1 allée Edmée L'HeureuxZAC des Canadiens","zipCode":94340,"city":"JOINcity-LE-PONT","status":"0","rooms":33,"lastVisit":{"$date":"2019-11-21T23:00:00Z"},"anomaly":42.87,"sector":"92/94","__v":0}
{"_id":{"$oid":"5e33f2744e7da70cb6904670"},"uuid":1234503,"name":"Hipotel Noisiel","address":"3 Place Gaston Defferre","zipCode":77186,"city":"NOISIEL","status":"0","rooms":18,"lastVisit":{"$date":"2019-07-28T22:00:00Z"},"anomaly":38.79,"sector":"77/91","__v":0}
{"_id":{"$oid":"5e33f2744e7da70cb6904671"},"uuid":6555369,"name":"Hipotel Sacré Coeur","address":"22 square Clignancourt","zipCode":75018,"city":"PARIS","status":"0","rooms":25,"lastVisit":{"$date":"2019-08-07T22:00:00Z"},"anomaly":31.77,"sector":"Paris","__v":0}
{"_id":{"$oid":"5e33f2744e7da70cb6904672"},"uuid":49517,"name":"Home Labat","address":"30 rue Labat","zipCode":75018,"city":"PARIS","status":"0","rooms":15,"lastVisit":{"$date":"2019-08-29T22:00:00Z"},"anomaly":24.25,"sector":"Paris","__v":0}
{"_id":{"$oid":"5e33f2744e7da70cb6904673"},"uuid":1257247,"name":"Hôtel Class'Eco Evry - Ex balladins","address":"Impasse Alexis Trinquet","zipCode":91000,"city":"EVRY","status":"0","rooms":38,"lastVisit":{"$date":"2019-10-29T23:00:00Z"},"anomaly":35.76,"sector":"77/91","__v":0}
{"_id":{"$oid":"5e33f2744e7da70cb6904674"},"uuid":23541506,"name":"Hôtel du Grand Aboukir","address":"134 rue d'Aboukir","zipCode":75002,"city":"PARIS","status":"0","rooms":19,"lastVisit":{"$date":"2019-10-17T22:00:00Z"},"anomaly":42.35,"sector":"Paris","__v":0}
{"_id":{"$oid":"5e33f2744e7da70cb6904675"},"uuid":24977397,"name":"Hôtel ESSONNE ex Gare Etampes","address":"3 rue du château","zipCode":91150,"city":"ETAMPES","status":"0","rooms":6,"lastVisit":{"$date":"2019-11-24T23:00:00Z"},"anomaly":25.06,"sector":"77/91","__v":0}
{"_id":{"$oid":"5e33f2744e7da70cb6904676"},"uuid":3512689,"name":"Hôtel et Résidence Cergy Préfecture","address":"6 rue des Linandes Pourpres","zipCode":95800,"city":"CERGY","status":"0","rooms":51,"lastVisit":{"$date":"2019-11-26T23:00:00Z"},"anomaly":48.43,"sector":"78/95","__v":0}
{"_id":{"$oid":"5e33f2744e7da70cb6904677"},"uuid":3999238,"name":"Hôtel et Résidence Cergy Saint Christophe","address":"45 Avenue de Genottes","zipCode":95800,"city":"CERGY","status":"0","rooms":48,"lastVisit":{"$date":"2019-11-13T23:00:00Z"},"anomaly":45.06,"sector":"78/95","__v":0}
{"_id":{"$oid":"5e33f2744e7da70cb6904678"},"uuid":23736534,"name":"Hôtel et Résidence Esbly","address":"4 route de Vignely","zipCode":77450,"city":"ISLES-LES-cityNOY","status":"0","rooms":80,"lastVisit":{"$date":"2019-09-30T22:00:00Z"},"anomaly":40.91,"sector":"77/91","__v":0}
{"_id":{"$oid":"5e33f2744e7da70cb6904679"},"uuid":15952434,"name":"Hôtel et Résidence Moissy","address":"612 avenue Ampère","zipCode":77550,"city":"MOISSY-CRAMAYEL","status":"0","rooms":49,"lastVisit":{"$date":"2019-08-27T22:00:00Z"},"anomaly":48.28,"sector":"77/91","__v":0}
{"_id":{"$oid":"5e33f2744e7da70cb690467a"},"uuid":23829183,"name":"Hôtel et Résidence Savigny","address":"159 rue de L'industrie","zipCode":77176,"city":"SAVIGNY-LE-TEMPLE","status":"0","rooms":106,"lastVisit":{"$date":"2019-06-11T22:00:00Z"},"anomaly":39.95,"sector":"77/91","__v":0}
{"_id":{"$oid":"5e33f2744e7da70cb690467b"},"uuid":25170249,"name":"Hôtel Le Strasbourg","address":"36 rue de Strasbourg","zipCode":78200,"city":"MANTES LA JOLIE","status":"0","rooms":4,"lastVisit":{"$date":"2019-10-08T22:00:00Z"},"anomaly":24.25,"sector":"78/95","__v":0}
{"_id":{"$oid":"5e33f2744e7da70cb690467c"},"uuid":22831574,"name":"Hôtel Parmentier","address":"23 rue Saint-Ambroise","zipCode":75011,"city":"PARIS","status":"0","rooms":48,"lastVisit":{"$date":"2019-10-15T22:00:00Z"},"anomaly":41.46,"sector":"Paris","__v":0}
{"_id":{"$oid":"5e33f2744e7da70cb690467d"},"uuid":24988906,"name":"Hôtel Résidence Divarius","address":"46bis-48 rue Nationale","zipCode":95000,"city":"CERGY","status":"0","rooms":14,"lastVisit":{"$date":"2019-12-01T23:00:00Z"},"anomaly":38.79,"sector":"78/95","__v":0}
{"_id":{"$oid":"5e33f2744e7da70cb690467e"},"uuid":7786422,"name":"Hôtel Tilde ex Le Canal","address":"48 avenue de Flandre","zipCode":75019,"city":"PARIS","status":"0","rooms":1,"lastVisit":{"$date":"2019-06-16T22:00:00Z"},"anomaly":44.25,"sector":"Paris","__v":0}
{"_id":{"$oid":"5e33f2744e7da70cb690467f"},"uuid":20336889,"name":"IBIS Budget Bobigny","address":"60 Avenue Henri Barbusse","zipCode":93000,"city":"BOBIGNY","status":"0","rooms":60,"lastVisit":{"$date":"2019-09-03T22:00:00Z"},"anomaly":35.16,"sector":"93","__v":0}
{"_id":{"$oid":"5e33f2744e7da70cb6904680"},"uuid":4736031,"name":"Ibis Budget Gennevilliers","address":"4 rue Georges Corète","zipCode":92230,"city":"GENNEVILLIERS","status":"0","rooms":8,"lastVisit":{"$date":"2019-11-17T23:00:00Z"},"anomaly":33.34,"sector":"92/94","__v":0}
{"_id":{"$oid":"5e33f2744e7da70cb6904681"},"uuid":3456916,"name":"Ibis Budget Grigny","address":"10 Avenue des Tuileries","zipCode":91350,"city":"GRIGNY","status":"0","rooms":34,"lastVisit":{"$date":"2019-07-02T22:00:00Z"},"anomaly":39.82,"sector":"77/91","__v":0}
{"_id":{"$oid":"5e33f2744e7da70cb6904682"},"uuid":24855051,"name":"Ibis Sarcelles Hôtel","address":"12 avenue Auguste Perret","zipCode":95200,"city":"SARCELLES","status":"0","rooms":41,"lastVisit":{"$date":"2019-03-03T23:00:00Z"},"anomaly":44.41,"sector":"78/95","__v":0}
{"_id":{"$oid":"5e33f2744e7da70cb6904683"},"uuid":20921562,"name":"IJBEL Ex Brit","address":"25 Allée Louis Bréguet","zipCode":93420,"city":"cityPINTE","status":"0","rooms":51,"lastVisit":{"$date":"2019-09-02T22:00:00Z"},"anomaly":44.54,"sector":"93","__v":0}
{"_id":{"$oid":"5e33f2744e7da70cb6904684"},"uuid":23777747,"name":"Ile de France Hôtel","address":"70 rue du Général Leclerc","zipCode":95310,"city":"SAINT OUEN L'AUMÔNE","status":"0","rooms":0,"lastVisit":{"$date":"2019-03-12T23:00:00Z"},"anomaly":48.49,"sector":"78/95","__v":0}
{"_id":{"$oid":"5e33f2744e7da70cb6904685"},"uuid":23875242,"name":"Ile de France Pain d'Or ex Charma","address":"23 boulevard MAL Leclerc de Hautecloque","zipCode":93260,"city":"LES LILAS","status":"0","rooms":24,"lastVisit":{"$date":"2019-08-05T22:00:00Z"},"anomaly":25.35,"sector":"93","__v":0}
{"_id":{"$oid":"5e33f2744e7da70cb6904686"},"uuid":5428639,"name":"Ilyass","address":"2 Rue Maurice","zipCode":93800,"city":"EPINAY-SUR-SEINE","status":"0","rooms":10,"lastVisit":{"$date":"2019-07-23T22:00:00Z"},"anomaly":26.17,"sector":"93","__v":0}
{"_id":{"$oid":"5e33f2744e7da70cb6904687"},"uuid":19935171,"name":"Inter-Hôtel Bagatelle","address":"2 rue Jean Monnet","zipCode":95190,"city":"GOUSSAINcity","status":"0","rooms":6,"lastVisit":{"$date":"2019-11-18T23:00:00Z"},"anomaly":43.04,"sector":"78/95","__v":0}
{"_id":{"$oid":"5e33f2744e7da70cb6904688"},"uuid":4473784,"name":"Itinéraires","address":"19 rue Salvator Allende","zipCode":92000,"city":"NANTERRE","status":"0","rooms":0,"lastVisit":{"$date":"2019-03-11T23:00:00Z"},"anomaly":47.06,"sector":"92/94","__v":0}
{"_id":{"$oid":"5e33f2744e7da70cb6904689"},"uuid":21561328,"name":"JADE HOTELS Ibis Budget Chelles","address":"EAE La Tuilerie - 9 rue de Derrière la Montagne","zipCode":77500,"city":"CHELLES","status":"0","rooms":58,"lastVisit":{"$date":"2019-06-04T22:00:00Z"},"anomaly":31.97,"sector":"77/91","__v":0}
{"_id":{"$oid":"5e33f2744e7da70cb690468a"},"uuid":26384869,"name":"Jaihka Boussy","address":"173 rue du Gord","zipCode":91800,"city":"BOUSSY SAINT ANTOINE","status":"0","rooms":14,"lastVisit":{"$date":"2019-10-09T22:00:00Z"},"anomaly":51.52,"sector":"77/91","__v":0}
{"_id":{"$oid":"5e33f2744e7da70cb690468b"},"uuid":1571414,"name":"KB exOasis","address":"27 rue Emile Zola","zipCode":94190,"city":"cityNEUVE-SAINT-GEORGES","status":"0","rooms":4,"lastVisit":{"$date":"2019-11-04T23:00:00Z"},"anomaly":53.34,"sector":"92/94","__v":0}
{"_id":{"$oid":"5e33f2744e7da70cb690468c"},"uuid":3293094,"name":"KENZ","address":"15 Rue Marcel Pagnol","zipCode":91800,"city":"BOUSSY-SAINT-ANTOINE","status":"0","rooms":44,"lastVisit":{"$date":"2019-06-03T22:00:00Z"},"anomaly":46.67,"sector":"77/91","__v":0}
{"_id":{"$oid":"5e33f2744e7da70cb690468d"},"uuid":49420,"name":"Kim Hôtel","address":"46 rue de la Jonquière","zipCode":75017,"city":"PARIS","status":"0","rooms":27,"lastVisit":{"$date":"2019-10-23T22:00:00Z"},"anomaly":29.61,"sector":"Paris","__v":0}
{"_id":{"$oid":"5e33f2744e7da70cb690468e"},"uuid":5583984,"name":"La Belle étape","address":"2 rue de Milly","zipCode":91720,"city":"MAISSE","status":"0","rooms":9,"lastVisit":{"$date":"2019-09-24T22:00:00Z"},"anomaly":43.64,"sector":"77/91","__v":0}
{"_id":{"$oid":"5e33f2744e7da70cb690468f"},"uuid":24955911,"name":"La Belle Etoile Corbeil Essonne","address":"42 rue de paris","zipCode":91100,"city":"CORBEIL ESSONNES","status":"0","rooms":4,"lastVisit":{"$date":"2019-10-13T22:00:00Z"},"anomaly":29.1,"sector":"77/91","__v":0}
{"_id":{"$oid":"5e33f2744e7da70cb6904690"},"uuid":8805065,"name":"La bulle d'or","address":"54 rue du docteur Babin","zipCode":91220,"city":"BRETIGNY-SUR-ORGE","status":"0","rooms":5,"lastVisit":{"$date":"2019-11-17T23:00:00Z"},"anomaly":48.49,"sector":"77/91","__v":0}
{"_id":{"$oid":"5e33f2744e7da70cb6904691"},"uuid":20583435,"name":"La Ferronnière","address":"23 avenue Général de Gaulle","zipCode":91140,"city":"cityBON SUR YVETTE","status":"0","rooms":23,"lastVisit":{"$date":"2019-07-29T22:00:00Z"},"anomaly":52.73,"sector":"77/91","__v":0}
{"_id":{"$oid":"5e33f2744e7da70cb6904692"},"uuid":6384873,"name":"La Fontaine","address":"9 rue de l'Escaut","zipCode":75019,"city":"PARIS","status":"0","rooms":16,"lastVisit":{"$date":"2019-11-21T23:00:00Z"},"anomaly":29.85,"sector":"Paris","__v":0}
{"_id":{"$oid":"5e33f2744e7da70cb6904693"},"uuid":27551876,"name":"La Lambra - Appartement","address":"81 Avenue de Choisy","zipCode":94190,"city":"cityNEUVE SAINT GEORGES","status":"0","rooms":7,"lastVisit":{"$date":"2019-10-07T22:00:00Z"},"anomaly":40.76,"sector":"92/94","__v":0}
{"_id":{"$oid":"5e33f2744e7da70cb6904694"},"uuid":6093123,"name":"la Maison du bien être","address":"25 rue des Fusillés","zipCode":77360,"city":"VAIRES-SUR-MARNE","status":"0","rooms":22,"lastVisit":{"$date":"2019-07-28T22:00:00Z"},"anomaly":41.22,"sector":"77/91","__v":0}
{"_id":{"$oid":"5e33f2744e7da70cb6904695"},"uuid":8813408,"name":"La Mascotte","address":"138 avenue Gabriel Péri","zipCode":93400,"city":"SAINT-OUEN","status":"0","rooms":12,"lastVisit":{"$date":"2019-08-12T22:00:00Z"},"anomaly":16.53,"sector":"93","__v":0}
{"_id":{"$oid":"5e33f2744e7da70cb6904696"},"uuid":14373893,"name":"La Passerelle","address":"60 rue Robespierre","zipCode":78800,"city":"HOUILLES","status":"0","rooms":12,"lastVisit":{"$date":"2019-09-05T22:00:00Z"},"anomaly":46.33,"sector":"78/95","__v":0}
{"_id":{"$oid":"5e33f2744e7da70cb6904697"},"uuid":1294430,"name":"la Perle","address":"03 boulevard Pasteur","zipCode":93120,"city":"LA COURNEUVE","status":"0","rooms":0,"lastVisit":{"$date":"2019-05-27T22:00:00Z"},"anomaly":40.52,"sector":"93","__v":0}
{"_id":{"$oid":"5e33f2744e7da70cb6904698"},"uuid":740087,"name":"La Planète Bleue","address":"126 avenue de la République","zipCode":93300,"city":"AUBERVILLIERS","status":"0","rooms":13,"lastVisit":{"$date":"2019-08-15T22:00:00Z"},"anomaly":50.91,"sector":"93","__v":0}
{"_id":{"$oid":"5e33f2744e7da70cb6904699"},"uuid":19935176,"name":"La Rose des Sables","address":"33 boulevard Armand Leprince","zipCode":78700,"city":"CONFLANS-SAINTE-HONORINE","status":"0","rooms":10,"lastVisit":{"$date":"2019-09-22T22:00:00Z"},"anomaly":50.91,"sector":"78/95","__v":0}
{"_id":{"$oid":"5e33f2744e7da70cb690469a"},"uuid":24480015,"name":"La Source","address":"34 rue Paul Vaillant Couturier","zipCode":94310,"city":"ORLY","status":"0","rooms":0,"lastVisit":{"$date":"2019-10-08T22:00:00Z"},"anomaly":43.64,"sector":"92/94","__v":0}
{"_id":{"$oid":"5e33f2744e7da70cb690469b"},"uuid":25036991,"name":"La Tourelle","address":"7 place du Général Leclerc","zipCode":91450,"city":"SOISY SUR SEINE","status":"0","rooms":13,"lastVisit":{"$date":"2019-11-18T23:00:00Z"},"anomaly":38.19,"sector":"77/91","__v":0}
{"_id":{"$oid":"5e33f2744e7da70cb690469c"},"uuid":7481499,"name":"La Vieille Halle","address":"1 rue Voltaire","zipCode":77460,"city":"SOUPPES SUR LOING","status":"0","rooms":18,"lastVisit":{"$date":"2019-08-06T22:00:00Z"},"anomaly":50.91,"sector":"77/91","__v":0}
{"_id":{"$oid":"5e33f2744e7da70cb690469d"},"uuid":4585075,"name":"LAEZIV Moderne","address":"10 rue des Carrières","zipCode":94120,"city":"FONTENAY-SOUS-BOIS","status":"0","rooms":8,"lastVisit":{"$date":"2019-12-02T23:00:00Z"},"anomaly":30.13,"sector":"92/94","__v":0}
{"_id":{"$oid":"5e33f2744e7da70cb690469e"},"uuid":9742620,"name":"L'Aigle ex  de la Meuse","address":"7 rue de reuilly","zipCode":75012,"city":"PARIS","status":"0","rooms":19,"lastVisit":{"$date":"2019-10-01T22:00:00Z"},"anomaly":39.72,"sector":"Paris","__v":0}
{"_id":{"$oid":"5e33f2744e7da70cb690469f"},"uuid":1535883,"name":"Lakanal","address":"5 rue Lakanal","zipCode":93500,"city":"PANTIN","status":"0","rooms":8,"lastVisit":{"$date":"2019-07-04T22:00:00Z"},"anomaly":29.1,"sector":"93","__v":0}
{"_id":{"$oid":"5e33f2744e7da70cb69046a0"},"uuid":15449414,"name":"L'auberge du Chemin de Fer","address":"40 rue aveline","zipCode":77470,"city":"TRILPORT","status":"0","rooms":5,"lastVisit":{"$date":"2019-08-04T22:00:00Z"},"anomaly":41.22,"sector":"77/91","__v":0}
{"_id":{"$oid":"5e33f2744e7da70cb69046a1"},"uuid":25,"name":"Le 1001 nuits","address":"12 avenue de la Division Leclerc","zipCode":93700,"city":"DRANCY","status":"0","rooms":29,"lastVisit":{"$date":"2019-08-19T22:00:00Z"},"anomaly":36.5,"sector":"93","__v":0}
{"_id":{"$oid":"5e33f2744e7da70cb69046a2"},"uuid":15096915,"name":"Le Babylone Hôtel ex Eurhôtel","address":"10 avenue Jean Laugère","zipCode":95400,"city":"ARNOUcity","status":"0","rooms":32,"lastVisit":{"$date":"2019-03-24T23:00:00Z"},"anomaly":42.43,"sector":"78/95","__v":0}
{"_id":{"$oid":"5e33f2744e7da70cb69046a3"},"uuid":6949403,"name":"Le Banco","address":"84 avenue Henri Barbusse","zipCode":93700,"city":"DRANCY","status":"0","rooms":0,"lastVisit":{"$date":"2019-05-09T22:00:00Z"},"anomaly":19.4,"sector":"93","__v":0}
{"_id":{"$oid":"5e33f2744e7da70cb69046a4"},"uuid":4224503,"name":"le Bellevue","address":"1 Rue Ferdinand Buisson","zipCode":91100,"city":"CORBEIL-ESSONNES","status":"0","rooms":10,"lastVisit":{"$date":"2019-10-20T22:00:00Z"},"anomaly":33.46,"sector":"77/91","__v":0}
{"_id":{"$oid":"5e33f2744e7da70cb69046a5"},"uuid":69139,"name":"Le Bienvenu","address":"8 rue de Meaux","zipCode":75019,"city":"PARIS","status":"0","rooms":17,"lastVisit":{"$date":"2019-09-25T22:00:00Z"},"anomaly":40.99,"sector":"Paris","__v":0}
{"_id":{"$oid":"5e33f2744e7da70cb69046a6"},"uuid":4710253,"name":"le Bon Coin","address":"1 rue Carnot","zipCode":93230,"city":"ROMAINcity","status":"0","rooms":4,"lastVisit":{"$date":"2019-08-20T22:00:00Z"},"anomaly":12.73,"sector":"93","__v":0}
{"_id":{"$oid":"5e33f2744e7da70cb69046a7"},"uuid":2785717,"name":"Le Bruant","address":"2 rue Aristide Bruant","zipCode":75018,"city":"PARIS","status":"0","rooms":23,"lastVisit":{"$date":"2019-05-12T22:00:00Z"},"anomaly":40.31,"sector":"Paris","__v":0}
{"_id":{"$oid":"5e33f2744e7da70cb69046a8"},"uuid":9151571,"name":"Le Calvados","address":"38 rue Pouchet","zipCode":75017,"city":"PARIS","status":"0","rooms":11,"lastVisit":{"$date":"2019-10-08T22:00:00Z"},"anomaly":31.52,"sector":"Paris","__v":0}
{"_id":{"$oid":"5e33f2744e7da70cb69046a9"},"uuid":2420329,"name":"Le Campus","address":"23 avenue Victor Hugo","zipCode":93120,"city":"LA COURNEUVE","status":"0","rooms":4,"lastVisit":{"$date":"2019-08-22T22:00:00Z"},"anomaly":19.4,"sector":"93","__v":0}
{"_id":{"$oid":"5e33f2744e7da70cb69046aa"},"uuid":1226392,"name":"Le Carré","address":"525 Rue André Ampère","zipCode":77550,"city":"MOISSY-CRAMAYEL","status":"0","rooms":70,"lastVisit":{"$date":"2019-05-12T22:00:00Z"},"anomaly":22.61,"sector":"77/91","__v":0}
{"_id":{"$oid":"5e33f2744e7da70cb69046ab"},"uuid":6094875,"name":"Le Chalet des Marais","address":"10 chemin du bas des brettes","zipCode":91100,"city":"VILLABE","status":"0","rooms":13,"lastVisit":{"$date":"2019-12-22T23:00:00Z"},"anomaly":33.94,"sector":"77/91","__v":0}
{"_id":{"$oid":"5e33f2744e7da70cb69046ac"},"uuid":11921905,"name":"Le Chiquito","address":"96 boulevard de l'hôpital","zipCode":75013,"city":"PARIS","status":"0","rooms":4,"lastVisit":{"$date":"2019-08-20T22:00:00Z"},"anomaly":35.76,"sector":"Paris","__v":0}
{"_id":{"$oid":"5e33f2744e7da70cb69046ad"},"uuid":129,"name":"Le Coin Tranquille","address":"10 rue du docteur Foucault","zipCode":92000,"city":"NANTERRE","status":"0","rooms":16,"lastVisit":{"$date":"2019-08-12T22:00:00Z"},"anomaly":42.43,"sector":"92/94","__v":0}
{"_id":{"$oid":"5e33f2744e7da70cb69046ae"},"uuid":25253598,"name":"Le Continental","address":"92 rue Jean Jaurès","zipCode":95870,"city":"BEZONS","status":"0","rooms":22,"lastVisit":{"$date":"2019-12-18T23:00:00Z"},"anomaly":43.64,"sector":"78/95","__v":0}
{"_id":{"$oid":"5e33f2744e7da70cb69046af"},"uuid":4562985,"name":"Le Couto","address":"79 Avenue Jean Jaurès","zipCode":93300,"city":"AUBERVILLIERS","status":"0","rooms":32,"lastVisit":{"$date":"2019-08-20T22:00:00Z"},"anomaly":39.47,"sector":"93","__v":0}
{"_id":{"$oid":"5e33f2744e7da70cb69046b0"},"uuid":1172382,"name":"Le Cyrano","address":"142 avenue de Stalingrad","zipCode":93240,"city":"STAINS","status":"0","rooms":4,"lastVisit":{"$date":"2019-07-23T22:00:00Z"},"anomaly":27.64,"sector":"93","__v":0}
{"_id":{"$oid":"5e33f2744e7da70cb69046b1"},"uuid":5907295,"name":"le Flamboyant","address":"98 rue de Paris","zipCode":77127,"city":"LIEUSAINT","status":"0","rooms":69,"lastVisit":{"$date":"2019-08-18T22:00:00Z"},"anomaly":45.49,"sector":"77/91","__v":0}
{"_id":{"$oid":"5e33f2744e7da70cb69046b2"},"uuid":19935177,"name":"Le Gambetta - Poissy","address":"27 boulevard Gambetta","zipCode":78300,"city":"POISSY","status":"0","rooms":17,"lastVisit":{"$date":"2019-05-02T22:00:00Z"},"anomaly":47.49,"sector":"78/95","__v":0}
{"_id":{"$oid":"5e33f2744e7da70cb69046b3"},"uuid":25218497,"name":"Le Gaulois","address":"17 rue Juvisy","zipCode":91200,"city":"ATHIS-MONS","status":"0","rooms":4,"lastVisit":{"$date":"2019-11-03T23:00:00Z"},"anomaly":31.52,"sector":"77/91","__v":0}
{"_id":{"$oid":"5e33f2744e7da70cb69046b4"},"uuid":3442279,"name":"Le Golf de Savigny","address":"9 Avenue du Garigliano ZAC des Gâtines","zipCode":91600,"city":"SAVIGNY-SUR-ORGE","status":"0","rooms":49,"lastVisit":{"$date":"2019-11-26T23:00:00Z"},"anomaly":45.46,"sector":"77/91","__v":0}
{"_id":{"$oid":"5e33f2744e7da70cb69046b5"},"uuid":19884838,"name":"Le Gouraya","address":"84 avenue Victor Hugo","zipCode":93360,"city":"NEUILLY-PLAISANCE","status":"0","rooms":11,"lastVisit":{"$date":"2019-11-19T23:00:00Z"},"anomaly":32.62,"sector":"93","__v":0}
{"_id":{"$oid":"5e33f2744e7da70cb69046b6"},"uuid":216066,"name":"Le Grilladin","address":"66 avenue du Président Wilson","zipCode":93100,"city":"MONTREUIL","status":"0","rooms":21,"lastVisit":{"$date":"2019-07-03T22:00:00Z"},"anomaly":57.13,"sector":"93","__v":0}
{"_id":{"$oid":"5e33f2744e7da70cb69046b7"},"uuid":115,"name":"Le Grillon","address":"121 Bd Bessières","zipCode":75017,"city":"PARIS","status":"0","rooms":27,"lastVisit":{"$date":"2019-08-21T22:00:00Z"},"anomaly":29.59,"sector":"Paris","__v":0}
{"_id":{"$oid":"5e33f2744e7da70cb69046b8"},"uuid":4217525,"name":"le Grillon Doudeaucity","address":"85 Rue Doudeaucity","zipCode":75018,"city":"PARIS","status":"0","rooms":24,"lastVisit":{"$date":"2019-11-12T23:00:00Z"},"anomaly":40.97,"sector":"Paris","__v":0}
{"_id":{"$oid":"5e33f2744e7da70cb69046b9"},"uuid":92,"name":"Le Grillon Lamier","address":"3 impasse Lamier","zipCode":75011,"city":"PARIS","status":"0","rooms":11,"lastVisit":{"$date":"2019-11-05T23:00:00Z"},"anomaly":38.79,"sector":"Paris","__v":0}
{"_id":{"$oid":"5e33f2744e7da70cb69046ba"},"uuid":48398,"name":"le Grillon Sedaine","address":"60 rue Sedaine","zipCode":75011,"city":"PARIS","status":"0","rooms":18,"lastVisit":{"$date":"2019-10-15T22:00:00Z"},"anomaly":39.1,"sector":"Paris","__v":0}
{"_id":{"$oid":"5e33f2744e7da70cb69046bb"},"uuid":6098993,"name":"Le Kleber","address":"44 Rue Raspail","zipCode":94200,"city":"IVRY-SUR-SEINE","status":"0","rooms":10,"lastVisit":{"$date":"2019-11-03T23:00:00Z"},"anomaly":38.79,"sector":"92/94","__v":0}
{"_id":{"$oid":"5e33f2744e7da70cb69046bc"},"uuid":1262936,"name":"Le Louisiane","address":"63 boulevard Henri Dunant","zipCode":91100,"city":"CORBEIL-ESSONNES","status":"0","rooms":59,"lastVisit":{"$date":"2019-05-08T22:00:00Z"},"anomaly":43.66,"sector":"77/91","__v":0}
{"_id":{"$oid":"5e33f2744e7da70cb69046bd"},"uuid":1260407,"name":"Le Magistral","address":"17 Rue Magenta","zipCode":93500,"city":"PANTIN","status":"0","rooms":18,"lastVisit":{"$date":"2019-07-04T22:00:00Z"},"anomaly":35.83,"sector":"93","__v":0}
{"_id":{"$oid":"5e33f2744e7da70cb69046be"},"uuid":50983,"name":"Le Marceau - Drancy","address":"91 avenue Marceau","zipCode":93700,"city":"DRANCY","status":"0","rooms":14,"lastVisit":{"$date":"2019-08-15T22:00:00Z"},"anomaly":29.94,"sector":"93","__v":0}
{"_id":{"$oid":"5e33f2744e7da70cb69046bf"},"uuid":3057757,"name":"Le Marrakech Awal","address":"260 Rue de Meaux","zipCode":93410,"city":"VAUJOURS","status":"0","rooms":8,"lastVisit":{"$date":"2019-09-26T22:00:00Z"},"anomaly":38.79,"sector":"93","__v":0}
{"_id":{"$oid":"5e33f2744e7da70cb69046c0"},"uuid":5546429,"name":"Le Médian","address":"2 rue Ferdinand de Lesseps","zipCode":95190,"city":"GOUSSAINcity","status":"0","rooms":55,"lastVisit":{"$date":"2019-03-26T23:00:00Z"},"anomaly":43.45,"sector":"78/95","__v":0}
{"_id":{"$oid":"5e33f2744e7da70cb69046c1"},"uuid":7789760,"name":"Le Melyani","address":"40 avenue de Verdun","zipCode":94200,"city":"IVRY-SUR-SEINE","status":"0","rooms":9,"lastVisit":{"$date":"2019-07-07T22:00:00Z"},"anomaly":45.53,"sector":"92/94","__v":0}
{"_id":{"$oid":"5e33f2744e7da70cb69046c2"},"uuid":4561374,"name":"le Moderne - Saint Ouen","address":"97 Rue du Docteur Bauer","zipCode":93400,"city":"SAINT-OUEN","status":"0","rooms":35,"lastVisit":{"$date":"2019-07-31T22:00:00Z"},"anomaly":41.96,"sector":"93","__v":0}
{"_id":{"$oid":"5e33f2744e7da70cb69046c3"},"uuid":181035,"name":"Le Mont Saint Michel","address":"25 rue Paul Bert","zipCode":94130,"city":"NOGENT-SUR-MARNE","status":"0","rooms":4,"lastVisit":{"$date":"2019-10-20T22:00:00Z"},"anomaly":30,"sector":"92/94","__v":0}
{"_id":{"$oid":"5e33f2744e7da70cb69046c4"},"uuid":24817638,"name":"Le Mouton Blanc","address":"112 Rue du Général de Gaulle","zipCode":78300,"city":"POISSY","status":"0","rooms":9,"lastVisit":{"$date":"2019-10-13T22:00:00Z"},"anomaly":16.53,"sector":"78/95","__v":0}
{"_id":{"$oid":"5e33f2744e7da70cb69046c5"},"uuid":4351223,"name":"Le Paris","address":"36 rue Maurice Berteaux","zipCode":78700,"city":"CONFLANS-SAINTE-HONORINE","status":"0","rooms":9,"lastVisit":{"$date":"2019-10-06T22:00:00Z"},"anomaly":26.81,"sector":"78/95","__v":0}
{"_id":{"$oid":"5e33f2744e7da70cb69046c6"},"uuid":867941,"name":"Le Paris Saint-Ouen","address":"154 Avenue de saint Ouen","zipCode":75018,"city":"PARIS","status":"0","rooms":13,"lastVisit":{"$date":"2019-05-12T22:00:00Z"},"anomaly":28.77,"sector":"Paris","__v":0}
{"_id":{"$oid":"5e33f2744e7da70cb69046c7"},"uuid":25214173,"name":"Le Paris Vernouillet","address":"6 place Albert Schweitzer","zipCode":78540,"city":"VERNOUILLET","status":"0","rooms":10,"lastVisit":{"$date":"2019-10-20T22:00:00Z"},"anomaly":31.3,"sector":"78/95","__v":0}
{"_id":{"$oid":"5e33f2744e7da70cb69046c8"},"uuid":19263394,"name":"Le Paris Vingt","address":"6 Rue Dupont de l'Eure","zipCode":75020,"city":"PARIS","status":"0","rooms":22,"lastVisit":{"$date":"2019-08-07T22:00:00Z"},"anomaly":43.64,"sector":"Paris","__v":0}
{"_id":{"$oid":"5e33f2744e7da70cb69046c9"},"uuid":8550719,"name":"Le PariWest","address":"6 Rue Ampère","zipCode":78310,"city":"COIGNIERES","status":"0","rooms":23,"lastVisit":{"$date":"2019-10-21T22:00:00Z"},"anomaly":46.76,"sector":"78/95","__v":0}
{"_id":{"$oid":"5e33f2744e7da70cb69046ca"},"uuid":5566418,"name":"Le Pavillon Bleu - Ozoir","address":"108 avenue Général Leclerc","zipCode":77330,"city":"OZOIR-LA-FERRIERE","status":"0","rooms":38,"lastVisit":{"$date":"2019-09-01T22:00:00Z"},"anomaly":51.43,"sector":"77/91","__v":0}
{"_id":{"$oid":"5e33f2744e7da70cb69046cb"},"uuid":5542688,"name":"Le Pavillon Bleu - Trappes","address":"1 route de Dreux","zipCode":78190,"city":"TRAPPES","status":"0","rooms":74,"lastVisit":{"$date":"2019-08-18T22:00:00Z"},"anomaly":42.77,"sector":"78/95","__v":0}
{"_id":{"$oid":"5e33f2744e7da70cb69046cc"},"uuid":26402569,"name":"Le Petit Crosne - RESADOTEL","address":"55 bis avenue de la république","zipCode":91560,"city":"CROSNES","status":"0","rooms":5,"lastVisit":{"$date":"2019-10-15T22:00:00Z"},"anomaly":16.97,"sector":"77/91","__v":0}
{"_id":{"$oid":"5e33f2744e7da70cb69046cd"},"uuid":954053,"name":"Le Petit Noisy","address":"47 avenue Galliéni","zipCode":93130,"city":"NOISY-LE-SEC","status":"0","rooms":11,"lastVisit":{"$date":"2019-06-19T22:00:00Z"},"anomaly":31.72,"sector":"93","__v":0}
{"_id":{"$oid":"5e33f2744e7da70cb69046ce"},"uuid":4116549,"name":"LE PETIT PARIS","address":"178 Avenue Aristide Briand","zipCode":93320,"city":"LES PAVILLONS-SOUS-BOIS","status":"0","rooms":10,"lastVisit":{"$date":"2019-07-30T22:00:00Z"},"anomaly":29.34,"sector":"93","__v":0}
{"_id":{"$oid":"5e33f2744e7da70cb69046cf"},"uuid":19885581,"name":"Le Pichet D'Etain","address":"158 Grande Rue","zipCode":93250,"city":"cityMOMBLE","status":"0","rooms":17,"lastVisit":{"$date":"2019-06-12T22:00:00Z"},"anomaly":35.3,"sector":"93","__v":0}
{"_id":{"$oid":"5e33f2744e7da70cb69046d0"},"uuid":19935230,"name":"Le Pile ou Face Café","address":"116 rue de la voie verte","zipCode":91200,"city":"ATHIS-MONS","status":"0","rooms":5,"lastVisit":{"$date":"2019-11-20T23:00:00Z"},"anomaly":41.22,"sector":"77/91","__v":0}
{"_id":{"$oid":"5e33f2744e7da70cb69046d1"},"uuid":2338121,"name":"le Pilier","address":"5 rue du pilier","zipCode":93300,"city":"AUBERVILLIERS","status":"0","rooms":27,"lastVisit":{"$date":"2019-08-28T22:00:00Z"},"anomaly":27.93,"sector":"93","__v":0}
{"_id":{"$oid":"5e33f2744e7da70cb69046d2"},"uuid":8092364,"name":"Le Pont Chinois","address":"107 rue de Paris","zipCode":95500,"city":"LE THILLAY","status":"0","rooms":11,"lastVisit":{"$date":"2019-04-07T22:00:00Z"},"anomaly":19.4,"sector":"78/95","__v":0}
{"_id":{"$oid":"5e33f2744e7da70cb69046d3"},"uuid":123,"name":"le Prado","address":"12 rue du faubourg Saint-Denis","zipCode":75010,"city":"PARIS","status":"0","rooms":8,"lastVisit":{"$date":"2019-10-17T22:00:00Z"},"anomaly":37.94,"sector":"Paris","__v":0}
{"_id":{"$oid":"5e33f2744e7da70cb69046d4"},"uuid":1084602,"name":"Le Prestige","address":"15 rue Lecuyer","zipCode":93400,"city":"SAINT-OUEN","status":"0","rooms":23,"lastVisit":{"$date":"2019-07-04T22:00:00Z"},"anomaly":31.75,"sector":"93","__v":0}
{"_id":{"$oid":"5e33f2744e7da70cb69046d5"},"uuid":81514,"name":"Le Relax","address":"15 avenue Roger Sémat","zipCode":93200,"city":"SAINT-DENIS","status":"0","rooms":16,"lastVisit":{"$date":"2019-08-21T22:00:00Z"},"anomaly":42.43,"sector":"93","__v":0}
{"_id":{"$oid":"5e33f2744e7da70cb69046d6"},"uuid":2330359,"name":"Le Rendez vous des Camionneurs","address":"17 rue de la Haie Coq","zipCode":93300,"city":"AUBERVILLIERS","status":"0","rooms":15,"lastVisit":{"$date":"2019-08-28T22:00:00Z"},"anomaly":24.25,"sector":"93","__v":0}
{"_id":{"$oid":"5e33f2744e7da70cb69046d7"},"uuid":5887743,"name":"Le Rendez-vous des Pêcheurs","address":"4 Quai Alexandre Bouton","zipCode":91170,"city":"VIRY-CHATILLON","status":"0","rooms":15,"lastVisit":{"$date":"2019-11-03T23:00:00Z"},"anomaly":33.94,"sector":"77/91","__v":0}
{"_id":{"$oid":"5e33f2744e7da70cb69046d8"},"uuid":800748,"name":"Le Renouveau","address":"22 avenue Louis Aragon","zipCode":93000,"city":"BOBIGNY","status":"0","rooms":19,"lastVisit":{"$date":"2019-07-22T22:00:00Z"},"anomaly":31.72,"sector":"93","__v":0}
{"_id":{"$oid":"5e33f2744e7da70cb69046d9"},"uuid":19846365,"name":"Le Renouveau - La Courneuve","address":"58 rue Emile Zola","zipCode":93120,"city":"LA COURNEUVE","status":"0","rooms":18,"lastVisit":{"$date":"2019-07-09T22:00:00Z"},"anomaly":40.31,"sector":"93","__v":0}
{"_id":{"$oid":"5e33f2744e7da70cb69046da"},"uuid":23527373,"name":"Le Renouveau (ex Blason)","address":"30 Avenue de Paris","zipCode":94300,"city":"VINCENNES","status":"0","rooms":4,"lastVisit":{"$date":"2019-09-08T22:00:00Z"},"anomaly":51.82,"sector":"92/94","__v":0}
{"_id":{"$oid":"5e33f2744e7da70cb69046db"},"uuid":7392307,"name":"Le Repère","address":"5 avenue Marceau","zipCode":93700,"city":"DRANCY","status":"0","rooms":8,"lastVisit":{"$date":"2019-07-23T22:00:00Z"},"anomaly":16.97,"sector":"93","__v":0}
{"_id":{"$oid":"5e33f2744e7da70cb69046dc"},"uuid":11520329,"name":"Le Rétro","address":"52 rue de Paris","zipCode":92110,"city":"CLICHY","status":"0","rooms":7,"lastVisit":{"$date":"2019-11-06T23:00:00Z"},"anomaly":24.25,"sector":"92/94","__v":0}
{"_id":{"$oid":"5e33f2744e7da70cb69046dd"},"uuid":728948,"name":"LE RIAD","address":"77 boulevard Galliéni","zipCode":92130,"city":"ISSY-LES-MOULINEAUX","status":"0","rooms":6,"lastVisit":{"$date":"2019-10-21T22:00:00Z"},"anomaly":31.87,"sector":"92/94","__v":0}
{"_id":{"$oid":"5e33f2744e7da70cb69046de"},"uuid":20368560,"name":"Le Rousseau","address":"37 rue Eugène Mass","zipCode":93190,"city":"LIVRY-GARGAN","status":"0","rooms":17,"lastVisit":{"$date":"2019-07-25T22:00:00Z"},"anomaly":21.82,"sector":"93","__v":0}
{"_id":{"$oid":"5e33f2744e7da70cb69046df"},"uuid":4020501,"name":"Le Rustique","address":"56 rue du Maréchal Foch","zipCode":78250,"city":"MEULAN-EN-YVELINES","status":"0","rooms":10,"lastVisit":{"$date":"2019-08-19T22:00:00Z"},"anomaly":34.55,"sector":"78/95","__v":0}
{"_id":{"$oid":"5e33f2744e7da70cb69046e0"},"uuid":22527084,"name":"Le Saint Georges","address":"11 rue Jules Auffret","zipCode":93500,"city":"PANTIN","status":"0","rooms":8,"lastVisit":{"$date":"2019-08-08T22:00:00Z"},"anomaly":47.88,"sector":"93","__v":0}
{"_id":{"$oid":"5e33f2744e7da70cb69046e1"},"uuid":24777633,"name":"Le Saint Louis - Meulan en Yvelines","address":"13 Avenue du Maréchal Joffre","zipCode":78250,"city":"MEULAN EN YVELINES","status":"0","rooms":10,"lastVisit":{"$date":"2019-10-08T22:00:00Z"},"anomaly":32.73,"sector":"78/95","__v":0}
{"_id":{"$oid":"5e33f2744e7da70cb69046e2"},"uuid":5858055,"name":"Le Séverine","address":"9 rue Séverine","zipCode":93400,"city":"SAINT-OUEN","status":"0","rooms":13,"lastVisit":{"$date":"2019-08-07T22:00:00Z"},"anomaly":33.94,"sector":"93","__v":0}
{"_id":{"$oid":"5e33f2744e7da70cb69046e3"},"uuid":27551838,"name":"Le Sporting - Appartement","address":"51 Rue Pierre et Marie Curie","zipCode":91170,"city":"VIRY-CHATILLON","status":"0","rooms":5,"lastVisit":{"$date":"2019-11-19T23:00:00Z"},"anomaly":30.87,"sector":"77/91","__v":0}
{"_id":{"$oid":"5e33f2744e7da70cb69046e4"},"uuid":244,"name":"Le Surcouf - Le Pré Saint Gervais","address":"40 rue d'Estienne d'Orves","zipCode":93310,"city":"LE PRE-SAINT-GERVAIS","status":"0","rooms":11,"lastVisit":{"$date":"2019-09-02T22:00:00Z"},"anomaly":24.11,"sector":"93","__v":0}
{"_id":{"$oid":"5e33f2744e7da70cb69046e5"},"uuid":212,"name":"Le Surcouf 18","address":"18 rue Houdon","zipCode":75018,"city":"PARIS","status":"0","rooms":1,"lastVisit":{"$date":"2019-10-13T22:00:00Z"},"anomaly":38.79,"sector":"Paris","__v":0}
{"_id":{"$oid":"5e33f2744e7da70cb69046e6"},"uuid":4808908,"name":"le Terminus Avon","address":"93 BIS Avenue Franklin Roosevelt","zipCode":77210,"city":"AVON","status":"0","rooms":18,"lastVisit":{"$date":"2019-07-23T22:00:00Z"},"anomaly":36.37,"sector":"77/91","__v":0}
{"_id":{"$oid":"5e33f2744e7da70cb69046e7"},"uuid":5550287,"name":"Le Triomphe","address":"53 avenue Jean Jaurès","zipCode":93300,"city":"AUBERVILLIERS","status":"0","rooms":11,"lastVisit":{"$date":"2019-07-22T22:00:00Z"},"anomaly":29.54,"sector":"93","__v":0}
{"_id":{"$oid":"5e33f2744e7da70cb69046e8"},"uuid":4793035,"name":"Le Vert Galand","address":"7 Avenue de la Gare","zipCode":93420,"city":"cityPINTE","status":"0","rooms":4,"lastVisit":{"$date":"2019-09-19T22:00:00Z"},"anomaly":40,"sector":"93","__v":0}
{"_id":{"$oid":"5e33f2744e7da70cb69046e9"},"uuid":9102433,"name":"Le Wilson","address":"1 Avenue Du Président Wilson","zipCode":78520,"city":"LIMAY","status":"0","rooms":12,"lastVisit":{"$date":"2019-04-11T22:00:00Z"},"anomaly":41.22,"sector":"78/95","__v":0}
{"_id":{"$oid":"5e33f2744e7da70cb69046ea"},"uuid":930549,"name":"Lemon Longperrier","address":"ZA du Pré de la Noue","zipCode":77230,"city":"LONGPERRIER","status":"0","rooms":0,"lastVisit":{"$date":"2019-03-25T23:00:00Z"},"anomaly":29.35,"sector":"77/91","__v":0}
{"_id":{"$oid":"5e33f2744e7da70cb69046eb"},"uuid":3153240,"name":"Lemon Mery sur Oise","address":"ZA Les bosquets 2 et 4","zipCode":95540,"city":"MERY-SUR-OISE","status":"0","rooms":55,"lastVisit":{"$date":"2019-09-02T22:00:00Z"},"anomaly":29.2,"sector":"78/95","__v":0}
{"_id":{"$oid":"5e33f2744e7da70cb69046ec"},"uuid":1853843,"name":"Lemon Vigneux","address":"12 rue de la Fosse Montalbot","zipCode":91270,"city":"VIGNEUX-SUR-SEINE","status":"0","rooms":54,"lastVisit":{"$date":"2019-12-29T23:00:00Z"},"anomaly":29.1,"sector":"77/91","__v":0}
{"_id":{"$oid":"5e33f2744e7da70cb69046ed"},"uuid":2972733,"name":"L'Ermitage - Poissy","address":"93 boulevard Robespierre","zipCode":78300,"city":"POISSY","status":"0","rooms":20,"lastVisit":{"$date":"2019-09-10T22:00:00Z"},"anomaly":53.22,"sector":"78/95","__v":0}
{"_id":{"$oid":"5e33f2744e7da70cb69046ee"},"uuid":26379164,"name":"L'Ermitage - PTS","address":"137 boulevard Fontainebleau","zipCode":91100,"city":"CORBEIL-ESSONNES","status":"0","rooms":6,"lastVisit":{"$date":"2019-02-26T23:00:00Z"},"anomaly":27.66,"sector":"77/91","__v":0}
{"_id":{"$oid":"5e33f2744e7da70cb69046ef"},"uuid":13992521,"name":"Les Académies du Val de Bièvre","address":"4 Mail des Tilleuls","zipCode":94250,"city":"GENTILLY","status":"0","rooms":7,"lastVisit":{"$date":"2019-07-07T22:00:00Z"},"anomaly":43.64,"sector":"92/94","__v":0}
{"_id":{"$oid":"5e33f2744e7da70cb69046f0"},"uuid":106,"name":"les Andalouses","address":"22 rue Dagobert","zipCode":92110,"city":"CLICHY","status":"0","rooms":5,"lastVisit":{"$date":"2019-11-06T23:00:00Z"},"anomaly":51.4,"sector":"92/94","__v":0}
{"_id":{"$oid":"5e33f2744e7da70cb69046f1"},"uuid":24988383,"name":"Les Bords De L'Orge - hôtel","address":"7 rue de savigny","zipCode":91390,"city":"MORSANG-SUR-ORGE","status":"0","rooms":12,"lastVisit":{"$date":"2019-11-04T23:00:00Z"},"anomaly":45.46,"sector":"77/91","__v":0}
{"_id":{"$oid":"5e33f2744e7da70cb69046f2"},"uuid":11153116,"name":"Les Estudines Clichy Victor Hugo","address":"171 Bd Victor Hugo","zipCode":92110,"city":"CLICHY","status":"0","rooms":10,"lastVisit":{"$date":"2019-11-06T23:00:00Z"},"anomaly":38.79,"sector":"92/94","__v":0}
{"_id":{"$oid":"5e33f2744e7da70cb69046f3"},"uuid":24586199,"name":"LES GONDOLES","address":"36 rue Jean Bouin","zipCode":94600,"city":"CHOISY LE ROI","status":"0","rooms":1,"lastVisit":{"$date":"2019-10-17T22:00:00Z"},"anomaly":37.58,"sector":"92/94","__v":0}
{"_id":{"$oid":"5e33f2744e7da70cb69046f4"},"uuid":8303143,"name":"Les Oliviers","address":"17 rue du Bois","zipCode":92000,"city":"NANTERRE","status":"0","rooms":10,"lastVisit":{"$date":"2019-08-12T22:00:00Z"},"anomaly":43.64,"sector":"92/94","__v":0}
{"_id":{"$oid":"5e33f2744e7da70cb69046f5"},"uuid":800619,"name":"Les Pernelles","address":"35 rue des Pernelles","zipCode":93170,"city":"BAGNOLET","status":"0","rooms":6,"lastVisit":{"$date":"2019-09-18T22:00:00Z"},"anomaly":46.07,"sector":"93","__v":0}
{"_id":{"$oid":"5e33f2744e7da70cb69046f6"},"uuid":1644672,"name":"les Relais Bleus","address":"7 route de l'Europe D902","zipCode":95500,"city":"GONESSE","status":"0","rooms":57,"lastVisit":{"$date":"2019-05-20T22:00:00Z"},"anomaly":43.04,"sector":"78/95","__v":0}
{"_id":{"$oid":"5e33f2744e7da70cb69046f7"},"uuid":800523,"name":"les Voyageurs","address":"2 boulevard de la République","zipCode":93130,"city":"NOISY-LE-SEC","status":"0","rooms":28,"lastVisit":{"$date":"2019-06-19T22:00:00Z"},"anomaly":36.32,"sector":"93","__v":0}
{"_id":{"$oid":"5e33f2744e7da70cb69046f8"},"uuid":10236439,"name":"L'Escapade","address":"14 rue du Maréchal Foch","zipCode":78520,"city":"LIMAY","status":"0","rooms":11,"lastVisit":{"$date":"2019-10-28T23:00:00Z"},"anomaly":41.22,"sector":"78/95","__v":0}
{"_id":{"$oid":"5e33f2744e7da70cb69046f9"},"uuid":7392374,"name":"Levert","address":"37 rue Levert","zipCode":75020,"city":"PARIS","status":"0","rooms":50,"lastVisit":{"$date":"2019-12-15T23:00:00Z"},"anomaly":12.07,"sector":"Paris","__v":0}
{"_id":{"$oid":"5e33f2744e7da70cb69046fa"},"uuid":1032808,"name":"l'Express","address":"62 boulevard de la Gare","zipCode":95350,"city":"SAINT-BRICE-SOUS-FORET","status":"0","rooms":14,"lastVisit":{"$date":"2019-03-12T23:00:00Z"},"anomaly":46.07,"sector":"78/95","__v":0}
{"_id":{"$oid":"5e33f2744e7da70cb69046fb"},"uuid":24988313,"name":"Lion d'Or Ex les Rives de l'orge","address":"24 avenue des Erables","zipCode":91390,"city":"MORSANG-SUR-ORGE","status":"0","rooms":14,"lastVisit":{"$date":"2019-10-16T22:00:00Z"},"anomaly":26.67,"sector":"77/91","__v":0}
{"_id":{"$oid":"5e33f2744e7da70cb69046fc"},"uuid":2428909,"name":"LOC MEUBLE MASSY","address":"1, avenue du Maréchal Juin.","zipCode":91300,"city":"MASSY","status":"0","rooms":51,"lastVisit":{"$date":"2019-08-26T22:00:00Z"},"anomaly":38.15,"sector":"77/91","__v":0}
{"_id":{"$oid":"5e33f2744e7da70cb69046fd"},"uuid":1704948,"name":"LOGIGNY","address":"80 rue Gabriel Péri","zipCode":91430,"city":"IGNY","status":"0","rooms":43,"lastVisit":{"$date":"2019-09-02T22:00:00Z"},"anomaly":43.47,"sector":"77/91","__v":0}
{"_id":{"$oid":"5e33f2744e7da70cb69046fe"},"uuid":823450,"name":"Magenta - Saint Cloud","address":"1 place Magenta","zipCode":92210,"city":"SAINT-CLOUD","status":"0","rooms":7,"lastVisit":{"$date":"2019-08-13T22:00:00Z"},"anomaly":27.88,"sector":"92/94","__v":0}
{"_id":{"$oid":"5e33f2744e7da70cb69046ff"},"uuid":5928342,"name":"Maison Blanche","address":"107 Bis Avenue d'Italie","zipCode":75013,"city":"PARIS","status":"0","rooms":12,"lastVisit":{"$date":"2019-11-27T23:00:00Z"},"anomaly":43.64,"sector":"Paris","__v":0}
{"_id":{"$oid":"5e33f2744e7da70cb6904700"},"uuid":243,"name":"Maraîchers","address":"59 rue des Maraîchers","zipCode":75020,"city":"PARIS","status":"0","rooms":15,"lastVisit":{"$date":"2019-08-06T22:00:00Z"},"anomaly":36.22,"sector":"Paris","__v":0}
{"_id":{"$oid":"5e33f2744e7da70cb6904701"},"uuid":27397286,"name":"Marceau - Montreuil - Accer IMMO","address":"31 rue Garibaldi","zipCode":93100,"city":"MONTREUIL","status":"0","rooms":11,"lastVisit":{"$date":"2019-07-30T22:00:00Z"},"anomaly":47.28,"sector":"93","__v":0}
{"_id":{"$oid":"5e33f2744e7da70cb6904702"},"uuid":13254995,"name":"Marclau","address":"78 rue du Faubourg Poissonnière","zipCode":75010,"city":"PARIS","status":"0","rooms":0,"lastVisit":{"$date":"2019-04-24T22:00:00Z"},"anomaly":41.15,"sector":"Paris","__v":0}
{"_id":{"$oid":"5e33f2744e7da70cb6904703"},"uuid":91,"name":"Merylis","address":"13 boulevard du Général Leclerc","zipCode":93260,"city":"LES LILAS","status":"0","rooms":20,"lastVisit":{"$date":"2019-08-05T22:00:00Z"},"anomaly":31.52,"sector":"93","__v":0}
{"_id":{"$oid":"5e33f2744e7da70cb6904704"},"uuid":9240593,"name":"Métropole Lafayette","address":"204 rue de La Fayette","zipCode":75010,"city":"PARIS","status":"0","rooms":24,"lastVisit":{"$date":"2019-09-02T22:00:00Z"},"anomaly":43.64,"sector":"Paris","__v":0}
{"_id":{"$oid":"5e33f2744e7da70cb6904705"},"uuid":3029096,"name":"Métropolitain","address":"158 rue Oberkampf","zipCode":75011,"city":"PARIS","status":"0","rooms":15,"lastVisit":{"$date":"2019-12-26T23:00:00Z"},"anomaly":31.04,"sector":"Paris","__v":0}
{"_id":{"$oid":"5e33f2744e7da70cb6904706"},"uuid":910062,"name":"Mister Bed City Torcy","address":"Centre Commercial Bay 4 Rue Charlie Chaplin","zipCode":77200,"city":"TORCY","status":"0","rooms":74,"lastVisit":{"$date":"2019-05-13T22:00:00Z"},"anomaly":44.85,"sector":"77/91","__v":0}
{"_id":{"$oid":"5e33f2744e7da70cb6904707"},"uuid":767386,"name":"Modern Hôtel","address":"98 avenue du 12 février 1934","zipCode":92240,"city":"MALAKOFF","status":"0","rooms":8,"lastVisit":{"$date":"2019-10-27T23:00:00Z"},"anomaly":30.51,"sector":"92/94","__v":0}
{"_id":{"$oid":"5e33f2744e7da70cb6904708"},"uuid":7760496,"name":"Moderne - 20","address":"13 rue d'Avron","zipCode":75020,"city":"PARIS","status":"0","rooms":10,"lastVisit":{"$date":"2019-08-06T22:00:00Z"},"anomaly":29.7,"sector":"Paris","__v":0}
{"_id":{"$oid":"5e33f2744e7da70cb6904709"},"uuid":4954710,"name":"Moderne - Nanterre","address":"4 rue Béranger","zipCode":92000,"city":"NANTERRE","status":"0","rooms":16,"lastVisit":{"$date":"2019-08-12T22:00:00Z"},"anomaly":26.67,"sector":"92/94","__v":0}
{"_id":{"$oid":"5e33f2744e7da70cb690470a"},"uuid":14664544,"name":"Moderne - Paris 20ème","address":"57 rue de la Réunion","zipCode":75020,"city":"PARIS","status":"0","rooms":16,"lastVisit":{"$date":"2019-08-06T22:00:00Z"},"anomaly":44.85,"sector":"Paris","__v":0}
{"_id":{"$oid":"5e33f2744e7da70cb690470b"},"uuid":252,"name":"Moderne Aubervilliers","address":"111 rue Léopold Réchossière","zipCode":93300,"city":"AUBERVILLIERS","status":"0","rooms":22,"lastVisit":{"$date":"2019-07-22T22:00:00Z"},"anomaly":39.76,"sector":"93","__v":0}
{"_id":{"$oid":"5e33f2744e7da70cb690470c"},"uuid":207,"name":"Moderne Caron","address":"88 rue Landy","zipCode":93200,"city":"SAINT-DENIS","status":"0","rooms":0,"lastVisit":{"$date":"2019-07-03T22:00:00Z"},"anomaly":42.67,"sector":"93","__v":0}
{"_id":{"$oid":"5e33f2744e7da70cb690470d"},"uuid":253,"name":"Moderne Clichy","address":"28 rue de Paris","zipCode":92110,"city":"CLICHY","status":"0","rooms":18,"lastVisit":{"$date":"2019-11-14T23:00:00Z"},"anomaly":46.07,"sector":"92/94","__v":0}
{"_id":{"$oid":"5e33f2744e7da70cb690470e"},"uuid":6612425,"name":"Moderne Clichy - 62","address":"62 rue de Paris","zipCode":92110,"city":"CLICHY","status":"0","rooms":15,"lastVisit":{"$date":"2019-06-17T22:00:00Z"},"anomaly":50.91,"sector":"92/94","__v":0}
{"_id":{"$oid":"5e33f2744e7da70cb690470f"},"uuid":4858329,"name":"Moderne Les Lilas","address":"111 avenue Pasteur","zipCode":93260,"city":"LES LILAS","status":"0","rooms":27,"lastVisit":{"$date":"2019-07-25T22:00:00Z"},"anomaly":21.82,"sector":"93","__v":0}
{"_id":{"$oid":"5e33f2744e7da70cb6904710"},"uuid":11139821,"name":"Mondhotel Garden","address":"1 rue du Château Gaillard","zipCode":77500,"city":"CHELLES","status":"0","rooms":82,"lastVisit":{"$date":"2019-06-10T22:00:00Z"},"anomaly":35.54,"sector":"77/91","__v":0}
{"_id":{"$oid":"5e33f2744e7da70cb6904711"},"uuid":803397,"name":"Mondhôtel Tigery","address":"2 Boulevard des Pays Bas","zipCode":91250,"city":"TIGERY","status":"0","rooms":58,"lastVisit":{"$date":"2019-11-27T23:00:00Z"},"anomaly":38.79,"sector":"77/91","__v":0}
{"_id":{"$oid":"5e33f2744e7da70cb6904712"},"uuid":3697019,"name":"Montana","address":"81 rue des Pyrénées","zipCode":75020,"city":"PARIS","status":"0","rooms":3,"lastVisit":{"$date":"2019-07-10T22:00:00Z"},"anomaly":38.79,"sector":"Paris","__v":0}
{"_id":{"$oid":"5e33f2744e7da70cb6904713"},"uuid":161263,"name":"Montesson","address":"23 Place Berthelot","zipCode":78360,"city":"MONTESSON","status":"0","rooms":19,"lastVisit":{"$date":"2019-06-11T22:00:00Z"},"anomaly":50.47,"sector":"78/95","__v":0}
{"_id":{"$oid":"5e33f2744e7da70cb6904714"},"uuid":260,"name":"Montjoie","address":"126 avenue du Maréchal Foch","zipCode":78700,"city":"CONFLANS-SAINTE-HONORINE","status":"0","rooms":29,"lastVisit":{"$date":"2019-10-06T22:00:00Z"},"anomaly":49.02,"sector":"78/95","__v":0}
{"_id":{"$oid":"5e33f2744e7da70cb6904715"},"uuid":460385,"name":"Montlouis","address":"5 rue de Belfort","zipCode":75011,"city":"PARIS","status":"0","rooms":2,"lastVisit":{"$date":"2019-10-15T22:00:00Z"},"anomaly":50.91,"sector":"Paris","__v":0}
{"_id":{"$oid":"5e33f2744e7da70cb6904716"},"uuid":200,"name":"Montmartrois","address":"6 bis rue du Chevalier de la Barre","zipCode":75018,"city":"PARIS","status":"0","rooms":72,"lastVisit":{"$date":"2019-10-22T22:00:00Z"},"anomaly":45.66,"sector":"Paris","__v":0}
{"_id":{"$oid":"5e33f2744e7da70cb6904717"},"uuid":8790785,"name":"Montreau","address":"42 rue Maurice Bouchor","zipCode":93100,"city":"MONTREUIL","status":"0","rooms":18,"lastVisit":{"$date":"2019-07-03T22:00:00Z"},"anomaly":33.81,"sector":"93","__v":0}
{"_id":{"$oid":"5e33f2744e7da70cb6904718"},"uuid":12749144,"name":"Morand","address":"11 rue Morand","zipCode":75011,"city":"PARIS","status":"0","rooms":22,"lastVisit":{"$date":"2019-10-24T22:00:00Z"},"anomaly":27.88,"sector":"Paris","__v":0}
{"_id":{"$oid":"5e33f2744e7da70cb6904719"},"uuid":4804062,"name":"Motélia Moissy Cramayel","address":"1 Rue Claude Bernard","zipCode":77550,"city":"MOISSY-CRAMAYEL","status":"0","rooms":4,"lastVisit":{"$date":"2019-08-05T22:00:00Z"},"anomaly":37.58,"sector":"77/91","__v":0}
{"_id":{"$oid":"5e33f2744e7da70cb690471a"},"uuid":23,"name":"Mot'hôtel","address":"17 rue Victor Baltard","zipCode":77410,"city":"CLAYE-SOUILLY","status":"0","rooms":49,"lastVisit":{"$date":"2019-05-20T22:00:00Z"},"anomaly":44.75,"sector":"77/91","__v":0}
{"_id":{"$oid":"5e33f2744e7da70cb690471b"},"uuid":5430438,"name":"Muller","address":"11 rue Feutrier","zipCode":75018,"city":"PARIS","status":"0","rooms":0,"lastVisit":{"$date":"2019-05-01T22:00:00Z"},"anomaly":24.25,"sector":"Paris","__v":0}
{"_id":{"$oid":"5e33f2744e7da70cb690471c"},"uuid":6372765,"name":"Musset","address":"10 Rue Alfred Musset","zipCode":92240,"city":"MALAKOFF","status":"0","rooms":0,"lastVisit":{"$date":"2019-10-27T23:00:00Z"},"anomaly":32.43,"sector":"92/94","__v":0}
{"_id":{"$oid":"5e33f2744e7da70cb690471d"},"uuid":7395654,"name":"Myrat Beaux","address":"41 rue Myrha","zipCode":75018,"city":"PARIS","status":"0","rooms":17,"lastVisit":{"$date":"2019-10-09T22:00:00Z"},"anomaly":33.94,"sector":"Paris","__v":0}
{"_id":{"$oid":"5e33f2744e7da70cb690471e"},"uuid":372196,"name":"Nag-Won","address":"63 rue Véron","zipCode":94140,"city":"ALFORTcity","status":"0","rooms":8,"lastVisit":{"$date":"2019-07-24T22:00:00Z"},"anomaly":44.25,"sector":"92/94","__v":0}
{"_id":{"$oid":"5e33f2744e7da70cb690471f"},"uuid":25253412,"name":"Néo Hôtel","address":"1 avenue Ambroise Croizat","zipCode":95140,"city":"GARGES-LES-GONESSE","status":"0","rooms":43,"lastVisit":{"$date":"2019-12-09T23:00:00Z"},"anomaly":27.48,"sector":"78/95","__v":0}
{"_id":{"$oid":"5e33f2744e7da70cb6904720"},"uuid":6392783,"name":"Netter","address":"89 avenue du Docteur Arnold Netter","zipCode":75012,"city":"PARIS","status":"0","rooms":21,"lastVisit":{"$date":"2019-11-14T23:00:00Z"},"anomaly":48.37,"sector":"Paris","__v":0}
{"_id":{"$oid":"5e33f2744e7da70cb6904721"},"uuid":167,"name":"New Paris","address":"231 rue de Crimée","zipCode":75019,"city":"PARIS","status":"0","rooms":17,"lastVisit":{"$date":"2019-11-21T23:00:00Z"},"anomaly":26.67,"sector":"Paris","__v":0}
{"_id":{"$oid":"5e33f2744e7da70cb6904722"},"uuid":15506958,"name":"Nini","address":"31 rue de l'écluse","zipCode":75017,"city":"PARIS","status":"0","rooms":6,"lastVisit":{"$date":"2019-10-08T22:00:00Z"},"anomaly":40.81,"sector":"Paris","__v":0}
{"_id":{"$oid":"5e33f2744e7da70cb6904723"},"uuid":23675865,"name":"NIRMALA'S","address":"58BIS rue Carnot","zipCode":92100,"city":"BOULOGNE-BILLANCOURT","status":"0","rooms":6,"lastVisit":{"$date":"2019-08-13T22:00:00Z"},"anomaly":28.49,"sector":"92/94","__v":0}
{"_id":{"$oid":"5e33f2744e7da70cb6904724"},"uuid":176,"name":"Noisy Résidence","address":"Esplanade de la commune de Paris","zipCode":93160,"city":"NOISY-LE-GRAND","status":"0","rooms":164,"lastVisit":{"$date":"2019-10-16T22:00:00Z"},"anomaly":41.19,"sector":"93","__v":0}
{"_id":{"$oid":"5e33f2744e7da70cb6904725"},"uuid":1262186,"name":"Nollet","address":"33 rue Nollet","zipCode":75017,"city":"PARIS","status":"0","rooms":11,"lastVisit":{"$date":"2019-10-08T22:00:00Z"},"anomaly":43.64,"sector":"Paris","__v":0}
{"_id":{"$oid":"5e33f2744e7da70cb6904726"},"uuid":959483,"name":"Nor","address":"26 rue Auguste Blanqui","zipCode":94600,"city":"CHOISY-LE-ROI","status":"0","rooms":15,"lastVisit":{"$date":"2019-05-21T22:00:00Z"},"anomaly":47.28,"sector":"92/94","__v":0}
{"_id":{"$oid":"5e33f2744e7da70cb6904727"},"uuid":62815,"name":"Oberkampf","address":"152 rue Oberkampf","zipCode":75011,"city":"PARIS","status":"0","rooms":25,"lastVisit":{"$date":"2019-12-26T23:00:00Z"},"anomaly":33.2,"sector":"Paris","__v":0}
{"_id":{"$oid":"5e33f2744e7da70cb6904728"},"uuid":14912195,"name":"OBODODO","address":"28 boulevard de Ménilmontant","zipCode":75020,"city":"PARIS","status":"0","rooms":9,"lastVisit":{"$date":"2019-06-16T22:00:00Z"},"anomaly":31.67,"sector":"Paris","__v":0}
{"_id":{"$oid":"5e33f2744e7da70cb6904729"},"uuid":1264648,"name":"Oksar","address":"47 rue de Paris","zipCode":92110,"city":"CLICHY","status":"0","rooms":4,"lastVisit":{"$date":"2019-06-17T22:00:00Z"},"anomaly":41.22,"sector":"92/94","__v":0}
{"_id":{"$oid":"5e33f2744e7da70cb690472a"},"uuid":12225371,"name":"Olympe - 3","address":"26-28 avenue de la Métallurgie","zipCode":93210,"city":"SAINT-DENIS","status":"0","rooms":93,"lastVisit":{"$date":"2019-09-11T22:00:00Z"},"anomaly":47.88,"sector":"93","__v":0}
{"_id":{"$oid":"5e33f2744e7da70cb690472b"},"uuid":84305,"name":"Olympic","address":"105 rue du docteur Bauer","zipCode":93400,"city":"SAINT-OUEN","status":"0","rooms":17,"lastVisit":{"$date":"2019-08-21T22:00:00Z"},"anomaly":33.34,"sector":"93","__v":0}
{"_id":{"$oid":"5e33f2744e7da70cb690472c"},"uuid":4352843,"name":"Orphéon","address":"10 rue de Draveil","zipCode":91260,"city":"JUVISY-SUR-ORGE","status":"0","rooms":11,"lastVisit":{"$date":"2019-11-20T23:00:00Z"},"anomaly":25.46,"sector":"77/91","__v":0}
{"_id":{"$oid":"5e33f2744e7da70cb690472d"},"uuid":1264487,"name":"Pajol","address":"26 rue Pajol","zipCode":75018,"city":"PARIS","status":"0","rooms":11,"lastVisit":{"$date":"2019-03-06T23:00:00Z"},"anomaly":33.94,"sector":"Paris","__v":0}
{"_id":{"$oid":"5e33f2744e7da70cb690472e"},"uuid":608975,"name":"Parc Even","address":"14 rue Laforest","zipCode":92240,"city":"MALAKOFF","status":"0","rooms":6,"lastVisit":{"$date":"2019-09-23T22:00:00Z"},"anomaly":44.25,"sector":"92/94","__v":0}
{"_id":{"$oid":"5e33f2744e7da70cb690472f"},"uuid":640004,"name":"Paris 12","address":"93 rue de Charenton","zipCode":75012,"city":"PARIS","status":"0","rooms":1,"lastVisit":{"$date":"2019-11-13T23:00:00Z"},"anomaly":46.07,"sector":"Paris","__v":0}
{"_id":{"$oid":"5e33f2744e7da70cb6904730"},"uuid":3252998,"name":"Paris Letort","address":"49 rue Letort","zipCode":75018,"city":"PARIS","status":"0","rooms":22,"lastVisit":{"$date":"2019-09-18T22:00:00Z"},"anomaly":36.25,"sector":"Paris","__v":0}
{"_id":{"$oid":"5e33f2744e7da70cb6904731"},"uuid":66,"name":"Paris Magenta","address":"48 boulevard Magenta","zipCode":75010,"city":"PARIS","status":"0","rooms":39,"lastVisit":{"$date":"2019-09-04T22:00:00Z"},"anomaly":54.5,"sector":"Paris","__v":0}
{"_id":{"$oid":"5e33f2744e7da70cb6904732"},"uuid":90,"name":"Paris Montmartre","address":"87 rue Myrha","zipCode":75018,"city":"PARIS","status":"0","rooms":4,"lastVisit":{"$date":"2019-12-08T23:00:00Z"},"anomaly":27.88,"sector":"Paris","__v":0}
{"_id":{"$oid":"5e33f2744e7da70cb6904733"},"uuid":2030211,"name":"Paris Orléans","address":"132 avenue Aristide Briand","zipCode":92120,"city":"MONTROUGE","status":"0","rooms":24,"lastVisit":{"$date":"2019-07-28T22:00:00Z"},"anomaly":20.17,"sector":"92/94","__v":0}
{"_id":{"$oid":"5e33f2744e7da70cb6904734"},"uuid":151,"name":"Paris Porte de Versailles","address":"22 villa Marguerite","zipCode":92130,"city":"ISSY-LES-MOULINEAUX","status":"0","rooms":27,"lastVisit":{"$date":"2019-10-21T22:00:00Z"},"anomaly":45.77,"sector":"92/94","__v":0}
{"_id":{"$oid":"5e33f2744e7da70cb6904735"},"uuid":103,"name":"Paris Printania 20","address":"150 rue d'Avron","zipCode":75020,"city":"PARIS","status":"0","rooms":1,"lastVisit":{"$date":"2019-08-06T22:00:00Z"},"anomaly":43.64,"sector":"Paris","__v":0}
{"_id":{"$oid":"5e33f2744e7da70cb6904736"},"uuid":7392316,"name":"Paris Résidence - 18","address":"20 rue du Pôle Nord","zipCode":75018,"city":"PARIS","status":"0","rooms":9,"lastVisit":{"$date":"2019-12-08T23:00:00Z"},"anomaly":45.46,"sector":"Paris","__v":0}
{"_id":{"$oid":"5e33f2744e7da70cb6904737"},"uuid":27243042,"name":"Parisian Hôtels Ex Séoul","address":"70 rue du Dr Bauer","zipCode":93400,"city":"SAINT-OUEN","status":"0","rooms":19,"lastVisit":{"$date":"2019-07-04T22:00:00Z"},"anomaly":35.63,"sector":"93","__v":0}
{"_id":{"$oid":"5e33f2744e7da70cb6904738"},"uuid":20660124,"name":"ParisNord","address":"ZAC Garonor rue Anatole Sigonneau","zipCode":93150,"city":"LE BLANC-MESNIL","status":"0","rooms":72,"lastVisit":{"$date":"2019-08-29T22:00:00Z"},"anomaly":47.2,"sector":"93","__v":0}
{"_id":{"$oid":"5e33f2744e7da70cb6904739"},"uuid":1614943,"name":"Parthénon","address":"3 route de Longjumeau","zipCode":91380,"city":"CHILLY-MAZARIN","status":"0","rooms":85,"lastVisit":{"$date":"2019-11-25T23:00:00Z"},"anomaly":39.82,"sector":"77/91","__v":0}
{"_id":{"$oid":"5e33f2744e7da70cb690473a"},"uuid":23673526,"name":"PAX HOTEL","address":"5 rue des poissonniers","zipCode":75018,"city":"PARIS","status":"0","rooms":3,"lastVisit":{"$date":"2019-12-08T23:00:00Z"},"anomaly":19.4,"sector":"Paris","__v":0}
{"_id":{"$oid":"5e33f2744e7da70cb690473b"},"uuid":2404088,"name":"Pierre Loti","address":"110 avenue de la République","zipCode":91420,"city":"MORANGIS","status":"0","rooms":28,"lastVisit":{"$date":"2019-06-23T22:00:00Z"},"anomaly":31.34,"sector":"77/91","__v":0}
{"_id":{"$oid":"5e33f2744e7da70cb690473c"},"uuid":1265157,"name":"Pixi","address":"82 avenue de la République","zipCode":93170,"city":"BAGNOLET","status":"0","rooms":10,"lastVisit":{"$date":"2019-07-22T22:00:00Z"},"anomaly":37.98,"sector":"93","__v":0}
{"_id":{"$oid":"5e33f2744e7da70cb690473d"},"uuid":1206832,"name":"Pol Hôtel","address":"105 rue Bertaux","zipCode":77610,"city":"FONTENAY-TRESIGNY","status":"0","rooms":38,"lastVisit":{"$date":"2019-12-01T23:00:00Z"},"anomaly":27.04,"sector":"77/91","__v":0}
{"_id":{"$oid":"5e33f2744e7da70cb690473e"},"uuid":20399099,"name":"Pratic Hôtel","address":"65 rue Planchat","zipCode":75020,"city":"PARIS","status":"0","rooms":5,"lastVisit":{"$date":"2019-06-16T22:00:00Z"},"anomaly":25.94,"sector":"Paris","__v":0}
{"_id":{"$oid":"5e33f2744e7da70cb690473f"},"uuid":26384925,"name":"Première Classe Viry Chatillon RESAO","address":"80 avenue du Général De Gaulle","zipCode":91170,"city":"VIRY-CHATILLON","status":"0","rooms":22,"lastVisit":{"$date":"2019-11-25T23:00:00Z"},"anomaly":42.43,"sector":"77/91","__v":0}
{"_id":{"$oid":"5e33f2744e7da70cb6904740"},"uuid":22,"name":"PRIM'S Ex - Le Bonheur","address":"5 passage de la Mairie","zipCode":93310,"city":"LE PRE-SAINT-GERVAIS","status":"0","rooms":31,"lastVisit":{"$date":"2019-07-24T22:00:00Z"},"anomaly":31.14,"sector":"93","__v":0}
{"_id":{"$oid":"5e33f2744e7da70cb6904741"},"uuid":23563260,"name":"Prim's La Courneuve","address":"80 rue de le Convention","zipCode":93120,"city":"LA COURNEUVE","status":"0","rooms":83,"lastVisit":{"$date":"2019-08-27T22:00:00Z"},"anomaly":60,"sector":"93","__v":0}
{"_id":{"$oid":"5e33f2744e7da70cb6904742"},"uuid":120,"name":"Printania 12","address":"91 avenue du Docteur Arnold Netter","zipCode":75012,"city":"PARIS","status":"0","rooms":25,"lastVisit":{"$date":"2019-11-14T23:00:00Z"},"anomaly":42.19,"sector":"Paris","__v":0}
{"_id":{"$oid":"5e33f2744e7da70cb6904743"},"uuid":669128,"name":"Quick Palace Akena","address":"14 Route de Conflans","zipCode":95480,"city":"PIERRELAYE","status":"0","rooms":8,"lastVisit":{"$date":"2019-10-28T23:00:00Z"},"anomaly":31.52,"sector":"78/95","__v":0}
{"_id":{"$oid":"5e33f2744e7da70cb6904744"},"uuid":50560,"name":"Régence","address":"2 Villa Guelma","zipCode":75018,"city":"PARIS","status":"0","rooms":27,"lastVisit":{"$date":"2019-10-13T22:00:00Z"},"anomaly":29.98,"sector":"Paris","__v":0}
{"_id":{"$oid":"5e33f2744e7da70cb6904745"},"uuid":3075068,"name":"Régina","address":"15 place des Etats Unis","zipCode":92120,"city":"MONTROUGE","status":"0","rooms":15,"lastVisit":{"$date":"2019-04-29T22:00:00Z"},"anomaly":40.81,"sector":"92/94","__v":0}
{"_id":{"$oid":"5e33f2744e7da70cb6904746"},"uuid":26200411,"name":"Régina - Argenteuil","address":"53 rue Henri Barbusse","zipCode":95100,"city":"ARGENTEUIL","status":"0","rooms":6,"lastVisit":{"$date":"2019-05-06T22:00:00Z"},"anomaly":30.11,"sector":"78/95","__v":0}
{"_id":{"$oid":"5e33f2744e7da70cb6904747"},"uuid":219,"name":"Relais de Pincevent","address":"13 Avenue de l'Hippodrome","zipCode":94510,"city":"LA QUEUE-EN-BRIE","status":"0","rooms":16,"lastVisit":{"$date":"2019-06-25T22:00:00Z"},"anomaly":41.22,"sector":"92/94","__v":0}
{"_id":{"$oid":"5e33f2744e7da70cb6904748"},"uuid":1261006,"name":"Relais des douches","address":"65 rue de Buzenval","zipCode":75020,"city":"PARIS","status":"0","rooms":16,"lastVisit":{"$date":"2019-08-07T22:00:00Z"},"anomaly":16.97,"sector":"Paris","__v":0}
{"_id":{"$oid":"5e33f2744e7da70cb6904749"},"uuid":22528257,"name":"Renaissance","address":"7 rue Claude Tillier","zipCode":75012,"city":"PARIS","status":"0","rooms":10,"lastVisit":{"$date":"2019-08-08T22:00:00Z"},"anomaly":24.25,"sector":"Paris","__v":0}
{"_id":{"$oid":"5e33f2744e7da70cb690474a"},"uuid":230,"name":"Renan","address":"27 rue Ernest Renan","zipCode":93200,"city":"SAINT-DENIS","status":"0","rooms":9,"lastVisit":{"$date":"2019-07-03T22:00:00Z"},"anomaly":36.52,"sector":"93","__v":0}
{"_id":{"$oid":"5e33f2744e7da70cb690474b"},"uuid":4025471,"name":"RESIDCO Le Moulin de Vaux","address":"34 Chemin de Vaux","zipCode":91580,"city":"AUVERS-SAINT-GEORGES","status":"0","rooms":11,"lastVisit":{"$date":"2019-07-30T22:00:00Z"},"anomaly":35.83,"sector":"77/91","__v":0}
{"_id":{"$oid":"5e33f2744e7da70cb690474c"},"uuid":3684549,"name":"Résidence Argenteuil","address":"52 avenue de Stalingrad","zipCode":95100,"city":"ARGENTEUIL","status":"0","rooms":19,"lastVisit":{"$date":"2019-06-16T22:00:00Z"},"anomaly":39.88,"sector":"78/95","__v":0}
{"_id":{"$oid":"5e33f2744e7da70cb690474d"},"uuid":4002347,"name":"Résidence BEAUMARCHAIS","address":"06 rue des grilles","zipCode":93500,"city":"PANTIN","status":"0","rooms":100,"lastVisit":{"$date":"2019-09-09T22:00:00Z"},"anomaly":41.22,"sector":"93","__v":0}
{"_id":{"$oid":"5e33f2744e7da70cb690474e"},"uuid":12526351,"name":"Résidence Champigny","address":"201 rue Marcel Paul","zipCode":94500,"city":"CHAMPIGNY-SUR-MARNE","status":"0","rooms":55,"lastVisit":{"$date":"2019-06-25T22:00:00Z"},"anomaly":43.04,"sector":"92/94","__v":0}
{"_id":{"$oid":"5e33f2744e7da70cb690474f"},"uuid":5981053,"name":"Résidence Colombes - chez Gaston","address":"48 rue Maurice Berteaux","zipCode":92700,"city":"COLOMBES","status":"0","rooms":14,"lastVisit":{"$date":"2019-06-16T22:00:00Z"},"anomaly":41.22,"sector":"92/94","__v":0}
{"_id":{"$oid":"5e33f2744e7da70cb6904750"},"uuid":7274439,"name":"Résidence de la gare - les Mureaux","address":"Place du 11 novembre 1918","zipCode":78130,"city":"LES MUREAUX","status":"0","rooms":42,"lastVisit":{"$date":"2019-07-01T22:00:00Z"},"anomaly":49.1,"sector":"78/95","__v":0}
{"_id":{"$oid":"5e33f2744e7da70cb6904751"},"uuid":980748,"name":"Résidence de Montreuil","address":"12 rue du Sergent Godefroy","zipCode":93100,"city":"MONTREUIL","status":"0","rooms":21,"lastVisit":{"$date":"2019-09-25T22:00:00Z"},"anomaly":46.07,"sector":"93","__v":0}
{"_id":{"$oid":"5e33f2744e7da70cb6904752"},"uuid":8303060,"name":"Résidence de Pantin","address":"19 Rue Toffier Decaux","zipCode":93500,"city":"PANTIN","status":"0","rooms":14,"lastVisit":{"$date":"2019-07-29T22:00:00Z"},"anomaly":41.22,"sector":"93","__v":0}
{"_id":{"$oid":"5e33f2744e7da70cb6904753"},"uuid":8330577,"name":"Résidence des 2 Squares","address":"9 rue lacaille","zipCode":75017,"city":"PARIS","status":"0","rooms":36,"lastVisit":{"$date":"2019-11-07T23:00:00Z"},"anomaly":41.82,"sector":"Paris","__v":0}
{"_id":{"$oid":"5e33f2744e7da70cb6904754"},"uuid":52699,"name":"Résidence Eden","address":"2 rue François Arago","zipCode":93500,"city":"PANTIN","status":"0","rooms":5,"lastVisit":{"$date":"2019-08-20T22:00:00Z"},"anomaly":26.67,"sector":"93","__v":0}
{"_id":{"$oid":"5e33f2744e7da70cb6904755"},"uuid":16267959,"name":"Résidence Facilia","address":"18 rue Eugène Varlin","zipCode":93150,"city":"LE BLANC-MESNIL","status":"0","rooms":11,"lastVisit":{"$date":"2019-07-08T22:00:00Z"},"anomaly":52.73,"sector":"93","__v":0}
{"_id":{"$oid":"5e33f2744e7da70cb6904756"},"uuid":216,"name":"Résidence Flandre Crimée","address":"208 rue de Crimée","zipCode":75019,"city":"PARIS","status":"0","rooms":2,"lastVisit":{"$date":"2019-11-21T23:00:00Z"},"anomaly":26.67,"sector":"Paris","__v":0}
{"_id":{"$oid":"5e33f2744e7da70cb6904757"},"uuid":11062680,"name":"Résidence FLINS","address":"106 rue du Maréchal Foch","zipCode":78410,"city":"FLINS-SUR-SEINE","status":"0","rooms":15,"lastVisit":{"$date":"2019-07-22T22:00:00Z"},"anomaly":46.67,"sector":"78/95","__v":0}
{"_id":{"$oid":"5e33f2744e7da70cb6904758"},"uuid":4311879,"name":"Résidence Garges Cerdan","address":"9 rue Marcel Cerdan","zipCode":95140,"city":"GARGES-LES-GONESSE","status":"0","rooms":76,"lastVisit":{"$date":"2019-12-10T23:00:00Z"},"anomaly":38.79,"sector":"78/95","__v":0}
{"_id":{"$oid":"5e33f2744e7da70cb6904759"},"uuid":3044806,"name":"Résidence Garges Stalingrad","address":"57 Avenue Stalingrad","zipCode":95140,"city":"GARGES-LES-GONESSE","status":"0","rooms":67,"lastVisit":{"$date":"2019-12-10T23:00:00Z"},"anomaly":42.73,"sector":"78/95","__v":0}
{"_id":{"$oid":"5e33f2744e7da70cb690475a"},"uuid":20368332,"name":"Résidence Hoche","address":"49 rue Charles Nodier","zipCode":93310,"city":"LE PRE-SAINT-GERVAIS","status":"0","rooms":2,"lastVisit":{"$date":"2019-09-25T22:00:00Z"},"anomaly":41.22,"sector":"93","__v":0}
{"_id":{"$oid":"5e33f2744e7da70cb690475b"},"uuid":161211,"name":"Résidence Jean Jaurès","address":"117 avenue Jean Jaurès","zipCode":75019,"city":"PARIS","status":"0","rooms":25,"lastVisit":{"$date":"2019-10-17T22:00:00Z"},"anomaly":47.08,"sector":"Paris","__v":0}
{"_id":{"$oid":"5e33f2744e7da70cb690475c"},"uuid":5928723,"name":"Résidence Juvisy","address":"4 avenue d'Estienne d'Orves","zipCode":91260,"city":"JUVISY-SUR-ORGE","status":"0","rooms":13,"lastVisit":{"$date":"2019-08-28T22:00:00Z"},"anomaly":46.07,"sector":"77/91","__v":0}
{"_id":{"$oid":"5e33f2744e7da70cb690475d"},"uuid":26385181,"name":"Résidence la forêt","address":"70 avenue de la forêt","zipCode":91170,"city":"VIRY-CHATILLON","status":"0","rooms":3,"lastVisit":{"$date":"2019-11-19T23:00:00Z"},"anomaly":43.64,"sector":"77/91","__v":0}
{"_id":{"$oid":"5e33f2744e7da70cb690475e"},"uuid":3604140,"name":"Résidence Le Chat Perché","address":"34 Boulevard de l'oise","zipCode":95800,"city":"CERGY","status":"0","rooms":67,"lastVisit":{"$date":"2019-12-01T23:00:00Z"},"anomaly":40.81,"sector":"78/95","__v":0}
{"_id":{"$oid":"5e33f2744e7da70cb690475f"},"uuid":26485985,"name":"Résidence Le Marceau","address":"2 Avenue Marceau","zipCode":95190,"city":"GOUSSAINcity","status":"0","rooms":16,"lastVisit":{"$date":"2019-12-08T23:00:00Z"},"anomaly":35.16,"sector":"78/95","__v":0}
{"_id":{"$oid":"5e33f2744e7da70cb6904760"},"uuid":13992602,"name":"Résidence Le Palatino","address":"20-36 Allée Eric Chabeur - Hall A","zipCode":75013,"city":"PARIS","status":"0","rooms":108,"lastVisit":{"$date":"2019-11-27T23:00:00Z"},"anomaly":46.07,"sector":"Paris","__v":0}
{"_id":{"$oid":"5e33f2744e7da70cb6904761"},"uuid":8359032,"name":"Résidence les 3 Pantin","address":"146 avenue Jean Jaurès","zipCode":93500,"city":"PANTIN","status":"0","rooms":27,"lastVisit":{"$date":"2019-08-15T22:00:00Z"},"anomaly":55.16,"sector":"93","__v":0}
{"_id":{"$oid":"5e33f2744e7da70cb6904762"},"uuid":7880901,"name":"Résidence Les Estudines André Désilles","address":"21 rue Marguerite Yourcenar","zipCode":93430,"city":"cityTANEUSE","status":"0","rooms":11,"lastVisit":{"$date":"2019-07-23T22:00:00Z"},"anomaly":38.79,"sector":"93","__v":0}
{"_id":{"$oid":"5e33f2744e7da70cb6904763"},"uuid":7880928,"name":"Résidence les Estudines Cergy","address":"31 rue de l'Aven","zipCode":95000,"city":"CERGY","status":"0","rooms":7,"lastVisit":{"$date":"2019-06-11T22:00:00Z"},"anomaly":43.64,"sector":"78/95","__v":0}
{"_id":{"$oid":"5e33f2744e7da70cb6904764"},"uuid":1254903,"name":"Résidence Louveciennes","address":"9 bis quai Conti","zipCode":78430,"city":"LOUVECIENNES","status":"0","rooms":69,"lastVisit":{"$date":"2019-11-12T23:00:00Z"},"anomaly":43.64,"sector":"78/95","__v":0}
{"_id":{"$oid":"5e33f2744e7da70cb6904765"},"uuid":9270245,"name":"Résidence Mareuil","address":"115 rue Jean Serva","zipCode":77100,"city":"MAREUIL-LES-MEAUX","status":"0","rooms":33,"lastVisit":{"$date":"2019-09-03T22:00:00Z"},"anomaly":39.9,"sector":"77/91","__v":0}
{"_id":{"$oid":"5e33f2744e7da70cb6904766"},"uuid":161231,"name":"Résidence Moret","address":"14 rue Moret","zipCode":75011,"city":"PARIS","status":"0","rooms":32,"lastVisit":{"$date":"2019-09-17T22:00:00Z"},"anomaly":42.58,"sector":"Paris","__v":0}
{"_id":{"$oid":"5e33f2744e7da70cb6904767"},"uuid":1260377,"name":"Résidence Saint-Bernard","address":"12 rue Myrha","zipCode":75018,"city":"PARIS","status":"0","rooms":19,"lastVisit":{"$date":"2019-10-09T22:00:00Z"},"anomaly":30.63,"sector":"Paris","__v":0}
{"_id":{"$oid":"5e33f2744e7da70cb6904768"},"uuid":9414797,"name":"Résidence Studéa Clamart","address":"360 avenue du général de Gaulle","zipCode":92140,"city":"CLAMART","status":"0","rooms":10,"lastVisit":{"$date":"2019-11-13T23:00:00Z"},"anomaly":38.79,"sector":"92/94","__v":0}
{"_id":{"$oid":"5e33f2744e7da70cb6904769"},"uuid":5305027,"name":"Résidence Studéa Clignancourt","address":"50-58 avenue de la Porte des Poissonniers","zipCode":75018,"city":"PARIS","status":"0","rooms":18,"lastVisit":{"$date":"2019-01-08T23:00:00Z"},"anomaly":36.14,"sector":"Paris","__v":0}
{"_id":{"$oid":"5e33f2744e7da70cb690476a"},"uuid":4332555,"name":"Résidence Studéa Val d'Europe","address":"7 cours de la Garonne","zipCode":77700,"city":"SERRIS","status":"0","rooms":29,"lastVisit":{"$date":"2019-07-03T22:00:00Z"},"anomaly":38.79,"sector":"77/91","__v":0}
{"_id":{"$oid":"5e33f2744e7da70cb690476b"},"uuid":2921538,"name":"Résidence Tremblay","address":"99 Avenue du Général de Gaulle","zipCode":94500,"city":"CHAMPIGNY-SUR-MARNE","status":"0","rooms":31,"lastVisit":{"$date":"2019-06-12T22:00:00Z"},"anomaly":39.08,"sector":"92/94","__v":0}
{"_id":{"$oid":"5e33f2744e7da70cb690476c"},"uuid":80532,"name":"Résidhôtel Andilly","address":"5 Route de la Berchère","zipCode":95580,"city":"ANDILLY","status":"0","rooms":74,"lastVisit":{"$date":"2019-05-06T22:00:00Z"},"anomaly":31.52,"sector":"78/95","__v":0}
{"_id":{"$oid":"5e33f2744e7da70cb690476d"},"uuid":24289505,"name":"RESIDIS Bussy - Bellagio","address":"39 boulevard de Lagny","zipCode":77600,"city":"BUSSY ST GEORGES","status":"0","rooms":62,"lastVisit":{"$date":"2019-08-13T22:00:00Z"},"anomaly":41.22,"sector":"77/91","__v":0}
{"_id":{"$oid":"5e33f2744e7da70cb690476e"},"uuid":21499566,"name":"RESIDIS Le Hall","address":"3 avenue du Maréchal Devaux","zipCode":91550,"city":"PARAY-VIEILLE-POSTE","status":"0","rooms":44,"lastVisit":{"$date":"2019-06-23T22:00:00Z"},"anomaly":43.64,"sector":"77/91","__v":0}
{"_id":{"$oid":"5e33f2744e7da70cb690476f"},"uuid":22847186,"name":"RESIDSOCIAL Arago","address":"117 rue de Paris","zipCode":93100,"city":"MONTREUIL","status":"0","rooms":16,"lastVisit":{"$date":"2019-06-17T22:00:00Z"},"anomaly":28.85,"sector":"93","__v":0}
{"_id":{"$oid":"5e33f2744e7da70cb6904770"},"uuid":5930078,"name":"RESIDSOCIAL Bellecity","address":"7 impasse Questre","zipCode":75011,"city":"PARIS","status":"0","rooms":20,"lastVisit":{"$date":"2019-12-25T23:00:00Z"},"anomaly":38.52,"sector":"Paris","__v":0}
{"_id":{"$oid":"5e33f2744e7da70cb6904771"},"uuid":48266,"name":"RESIDSOCIAL Chaligny","address":"5 rue de Chaligny","zipCode":75012,"city":"PARIS","status":"0","rooms":22,"lastVisit":{"$date":"2019-12-17T23:00:00Z"},"anomaly":50.31,"sector":"Paris","__v":0}
{"_id":{"$oid":"5e33f2744e7da70cb6904772"},"uuid":26664256,"name":"ResidSocial Championnet Ex Midi","address":"43 rue Championnet","zipCode":75018,"city":"PARIS","status":"0","rooms":36,"lastVisit":{"$date":"2019-08-29T22:00:00Z"},"anomaly":25.56,"sector":"Paris","__v":0}
{"_id":{"$oid":"5e33f2744e7da70cb6904773"},"uuid":21164695,"name":"RESIDSOCIAL Foch Le Palmier","address":"120 avenue Foch angle rue des 2 Boulevards","zipCode":94100,"city":"SAINT-MAUR-DES-FOSSÉS","status":"0","rooms":26,"lastVisit":{"$date":"2019-11-14T23:00:00Z"},"anomaly":35.09,"sector":"92/94","__v":0}
{"_id":{"$oid":"5e33f2744e7da70cb6904774"},"uuid":259,"name":"RESIDSOCIAL Jean Jaurès","address":"164 rue Jean Jaurès","zipCode":94700,"city":"MAISONS-ALFORT","status":"0","rooms":17,"lastVisit":{"$date":"2019-11-21T23:00:00Z"},"anomaly":22.83,"sector":"92/94","__v":0}
{"_id":{"$oid":"5e33f2744e7da70cb6904775"},"uuid":4651930,"name":"ResiStade","address":"4 rue Jesse Owens","zipCode":93210,"city":"SAINT-DENIS","status":"0","rooms":116,"lastVisit":{"$date":"2019-09-04T22:00:00Z"},"anomaly":50.31,"sector":"93","__v":0}
{"_id":{"$oid":"5e33f2744e7da70cb6904776"},"uuid":7847674,"name":"Rev Hôtel","address":"2 bis rue de la République","zipCode":93260,"city":"LES LILAS","status":"0","rooms":31,"lastVisit":{"$date":"2019-08-07T22:00:00Z"},"anomaly":57.58,"sector":"93","__v":0}
{"_id":{"$oid":"5e33f2744e7da70cb6904777"},"uuid":15797187,"name":"RevHotel cityneuve st Georges","address":"288 rue de Paris","zipCode":94190,"city":"cityNEUVE-SAINT-GEORGES","status":"0","rooms":9,"lastVisit":{"$date":"2019-10-16T22:00:00Z"},"anomaly":31.52,"sector":"92/94","__v":0}
{"_id":{"$oid":"5e33f2744e7da70cb6904778"},"uuid":7246925,"name":"RHETIA","address":"3 rue du Général Blaise","zipCode":75011,"city":"PARIS","status":"0","rooms":23,"lastVisit":{"$date":"2019-10-15T22:00:00Z"},"anomaly":42.93,"sector":"Paris","__v":0}
{"_id":{"$oid":"5e33f2744e7da70cb6904779"},"uuid":152,"name":"Rhin et Danube 18ème","address":"40 bd de Clichy","zipCode":75018,"city":"PARIS","status":"0","rooms":25,"lastVisit":{"$date":"2019-10-13T22:00:00Z"},"anomaly":39.87,"sector":"Paris","__v":0}
{"_id":{"$oid":"5e33f2744e7da70cb690477a"},"uuid":153,"name":"Rhin et Danube 19ème","address":"3 place Rhin et Danube","zipCode":75019,"city":"PARIS","status":"0","rooms":16,"lastVisit":{"$date":"2019-10-17T22:00:00Z"},"anomaly":38.64,"sector":"Paris","__v":0}
{"_id":{"$oid":"5e33f2744e7da70cb690477b"},"uuid":24507866,"name":"RHVS - Charles PEGUY - LRDV - Penchard","address":"4 chemin de la Mare Lorin","zipCode":77124,"city":"PENCHARD","status":"0","rooms":65,"lastVisit":{"$date":"2019-04-02T22:00:00Z"},"anomaly":31.52,"sector":"77/91","__v":0}
{"_id":{"$oid":"5e33f2744e7da70cb690477c"},"uuid":7887791,"name":"Ribera","address":"66 rue Jean de la fontaine","zipCode":75016,"city":"PARIS","status":"0","rooms":12,"lastVisit":{"$date":"2019-06-19T22:00:00Z"},"anomaly":41.22,"sector":"Paris","__v":0}
{"_id":{"$oid":"5e33f2744e7da70cb690477d"},"uuid":73,"name":"Riquet","address":"92 rue Riquet","zipCode":75018,"city":"PARIS","status":"0","rooms":7,"lastVisit":{"$date":"2019-05-12T22:00:00Z"},"anomaly":26.94,"sector":"Paris","__v":0}
{"_id":{"$oid":"5e33f2744e7da70cb690477e"},"uuid":15659494,"name":"Riviera","address":"6 rue Turgot","zipCode":75009,"city":"PARIS","status":"0","rooms":8,"lastVisit":{"$date":"2019-05-19T22:00:00Z"},"anomaly":37.72,"sector":"Paris","__v":0}
{"_id":{"$oid":"5e33f2744e7da70cb690477f"},"uuid":26379322,"name":"Rond Point Service - PTS","address":"3 avenue de valois","zipCode":91390,"city":"MORSANG-SUR-ORGE","status":"0","rooms":12,"lastVisit":{"$date":"2019-11-04T23:00:00Z"},"anomaly":46.07,"sector":"77/91","__v":0}
{"_id":{"$oid":"5e33f2744e7da70cb6904780"},"uuid":149,"name":"Royal de France","address":"57 rue des petites écuries","zipCode":75010,"city":"PARIS","status":"0","rooms":35,"lastVisit":{"$date":"2019-10-23T22:00:00Z"},"anomaly":42.82,"sector":"Paris","__v":0}
{"_id":{"$oid":"5e33f2744e7da70cb6904781"},"uuid":1247638,"name":"Royal Hôtel","address":"198 rue Saint Maur","zipCode":75010,"city":"PARIS","status":"0","rooms":51,"lastVisit":{"$date":"2019-10-24T22:00:00Z"},"anomaly":28.4,"sector":"Paris","__v":0}
{"_id":{"$oid":"5e33f2744e7da70cb6904782"},"uuid":2173005,"name":"Royal Montreuil","address":"59 rue de Paris","zipCode":93100,"city":"MONTREUIL","status":"0","rooms":8,"lastVisit":{"$date":"2019-07-03T22:00:00Z"},"anomaly":30.31,"sector":"93","__v":0}
{"_id":{"$oid":"5e33f2744e7da70cb6904783"},"uuid":1180885,"name":"Royal Nogent","address":"175 grande rue Charles de Gaulle","zipCode":94130,"city":"NOGENT-SUR-MARNE","status":"0","rooms":14,"lastVisit":{"$date":"2019-10-20T22:00:00Z"},"anomaly":38.79,"sector":"92/94","__v":0}
{"_id":{"$oid":"5e33f2744e7da70cb6904784"},"uuid":5941551,"name":"Royal Pantin","address":"29 Avenue du général Leclerc","zipCode":93500,"city":"PANTIN","status":"0","rooms":8,"lastVisit":{"$date":"2019-08-20T22:00:00Z"},"anomaly":41.22,"sector":"93","__v":0}
{"_id":{"$oid":"5e33f2744e7da70cb6904785"},"uuid":256,"name":"Sahel Le Relais","address":"159 avenue de Clichy","zipCode":75017,"city":"PARIS","status":"0","rooms":6,"lastVisit":{"$date":"2019-10-08T22:00:00Z"},"anomaly":31.32,"sector":"Paris","__v":0}
{"_id":{"$oid":"5e33f2744e7da70cb6904786"},"uuid":104,"name":"Saint Ambroise","address":"5 rue de l'Asile Popincourt","zipCode":75011,"city":"PARIS","status":"0","rooms":15,"lastVisit":{"$date":"2019-10-15T22:00:00Z"},"anomaly":29.47,"sector":"Paris","__v":0}
{"_id":{"$oid":"5e33f2744e7da70cb6904787"},"uuid":20369466,"name":"Saint Joseph","address":"56 Avenue de la Croix Blanche","zipCode":93600,"city":"AULNAY-SOUS-BOIS","status":"0","rooms":11,"lastVisit":{"$date":"2019-07-08T22:00:00Z"},"anomaly":29.9,"sector":"93","__v":0}
{"_id":{"$oid":"5e33f2744e7da70cb6904788"},"uuid":6934917,"name":"Santana","address":"109 rue Legendre","zipCode":75017,"city":"PARIS","status":"0","rooms":18,"lastVisit":{"$date":"2019-04-18T22:00:00Z"},"anomaly":45.46,"sector":"Paris","__v":0}
{"_id":{"$oid":"5e33f2744e7da70cb6904789"},"uuid":1206831,"name":"Saraga","address":"7 avenue Strathkelvin","zipCode":91100,"city":"CORBEIL-ESSONNES","status":"0","rooms":75,"lastVisit":{"$date":"2019-11-26T23:00:00Z"},"anomaly":24.25,"sector":"77/91","__v":0}
{"_id":{"$oid":"5e33f2744e7da70cb690478a"},"uuid":27551923,"name":"Sasotel - hôtel","address":"23 rue widmer","zipCode":91100,"city":"CORBEIL ESSONNES","status":"0","rooms":2,"lastVisit":{"$date":"2019-11-18T23:00:00Z"},"anomaly":30.31,"sector":"77/91","__v":0}
{"_id":{"$oid":"5e33f2744e7da70cb690478b"},"uuid":9966721,"name":"Séjours et Affaires Serris","address":"20 cours du Danube","zipCode":77700,"city":"SERRIS","status":"0","rooms":6,"lastVisit":{"$date":"2019-07-03T22:00:00Z"},"anomaly":41.22,"sector":"77/91","__v":0}
{"_id":{"$oid":"5e33f2744e7da70cb690478c"},"uuid":1532368,"name":"Select - Le Bourget","address":"39 Rue Anizan Cavillon","zipCode":93350,"city":"LE BOURGET","status":"0","rooms":11,"lastVisit":{"$date":"2019-07-11T22:00:00Z"},"anomaly":30.79,"sector":"93","__v":0}
{"_id":{"$oid":"5e33f2744e7da70cb690478d"},"uuid":135,"name":"Select - Maison Alfort","address":"12 Bis rue Pierre Sémard","zipCode":94700,"city":"MAISONS-ALFORT","status":"0","rooms":26,"lastVisit":{"$date":"2019-11-24T23:00:00Z"},"anomaly":48.21,"sector":"92/94","__v":0}
{"_id":{"$oid":"5e33f2744e7da70cb690478e"},"uuid":23322079,"name":"SGS HOTELS - Egg Hôtel Sevran","address":"1 rue Alexis Leonov","zipCode":93270,"city":"SEVRAN","status":"0","rooms":40,"lastVisit":{"$date":"2019-08-22T22:00:00Z"},"anomaly":45.99,"sector":"93","__v":0}
{"_id":{"$oid":"5e33f2744e7da70cb690478f"},"uuid":20247612,"name":"SKY Hôtel","address":"1 Rue d'Emery","zipCode":77184,"city":"EMERAINcity","status":"0","rooms":49,"lastVisit":{"$date":"2019-06-17T22:00:00Z"},"anomaly":48.17,"sector":"77/91","__v":0}
{"_id":{"$oid":"5e33f2744e7da70cb6904790"},"uuid":21659062,"name":"SlimHôtel","address":"42 rue Pierre Semard","zipCode":94400,"city":"VITRY-SUR-SEINE","status":"0","rooms":0,"lastVisit":{"$date":"2019-10-10T22:00:00Z"},"anomaly":43.2,"sector":"92/94","__v":0}
{"_id":{"$oid":"5e33f2744e7da70cb6904791"},"uuid":7923060,"name":"Sofiane","address":"66 boulevard de Charonne","zipCode":75020,"city":"PARIS","status":"0","rooms":5,"lastVisit":{"$date":"2019-08-07T22:00:00Z"},"anomaly":41.22,"sector":"Paris","__v":0}
{"_id":{"$oid":"5e33f2744e7da70cb6904792"},"uuid":23373334,"name":"Sogestho 7 Poteau","address":"7 Rue du Poteau","zipCode":75018,"city":"PARIS","status":"0","rooms":22,"lastVisit":{"$date":"2019-12-08T23:00:00Z"},"anomaly":43.64,"sector":"Paris","__v":0}
{"_id":{"$oid":"5e33f2744e7da70cb6904793"},"uuid":1853928,"name":"Sologne","address":"65 Route d'Orleans","zipCode":91310,"city":"MONTLHERY","status":"0","rooms":2,"lastVisit":{"$date":"2019-11-24T23:00:00Z"},"anomaly":16.97,"sector":"77/91","__v":0}
{"_id":{"$oid":"5e33f2744e7da70cb6904794"},"uuid":11058360,"name":"SOTEL d'Ivry","address":"3 rue Maurice Couderchet","zipCode":94200,"city":"IVRY-SUR-SEINE","status":"0","rooms":15,"lastVisit":{"$date":"2019-11-03T23:00:00Z"},"anomaly":49.62,"sector":"92/94","__v":0}
{"_id":{"$oid":"5e33f2744e7da70cb6904795"},"uuid":173,"name":"Splendid","address":"1 rue Lacroix","zipCode":75017,"city":"PARIS","status":"0","rooms":19,"lastVisit":{"$date":"2019-10-23T22:00:00Z"},"anomaly":28.46,"sector":"Paris","__v":0}
{"_id":{"$oid":"5e33f2744e7da70cb6904796"},"uuid":7786549,"name":"Sport","address":"68 rue Beaunier","zipCode":75014,"city":"PARIS","status":"0","rooms":10,"lastVisit":{"$date":"2019-11-28T23:00:00Z"},"anomaly":42.19,"sector":"Paris","__v":0}
{"_id":{"$oid":"5e33f2744e7da70cb6904797"},"uuid":27143721,"name":"Star Arcueil - RESADOTEL","address":"110 rue Camille Desmoulins","zipCode":94110,"city":"ARCUEIL","status":"0","rooms":33,"lastVisit":{"$date":"2019-05-15T22:00:00Z"},"anomaly":36.51,"sector":"92/94","__v":0}
{"_id":{"$oid":"5e33f2744e7da70cb6904798"},"uuid":1261124,"name":"Stars Evry","address":"avenue de lOrme à Martin","zipCode":91000,"city":"EVRY","status":"0","rooms":21,"lastVisit":{"$date":"2019-10-29T23:00:00Z"},"anomaly":39.4,"sector":"77/91","__v":0}
{"_id":{"$oid":"5e33f2744e7da70cb6904799"},"uuid":24,"name":"Stars Les Lilas","address":"17 bis rue Jules David","zipCode":93260,"city":"LES LILAS","status":"0","rooms":22,"lastVisit":{"$date":"2019-08-05T22:00:00Z"},"anomaly":34.55,"sector":"93","__v":0}
{"_id":{"$oid":"5e33f2744e7da70cb690479a"},"uuid":10479331,"name":"Strategy Hotels Canal hôtel","address":"2 rue Heurtault","zipCode":93300,"city":"AUBERVILLIERS","status":"0","rooms":10,"lastVisit":{"$date":"2019-06-12T22:00:00Z"},"anomaly":23.76,"sector":"93","__v":0}
{"_id":{"$oid":"5e33f2744e7da70cb690479b"},"uuid":5060386,"name":"Studéa Buttes Chaumont","address":"50 Rue Petit","zipCode":75019,"city":"PARIS","status":"0","rooms":0,"lastVisit":{"$date":"2019-01-08T23:00:00Z"},"anomaly":36.37,"sector":"Paris","__v":0}
{"_id":{"$oid":"5e33f2744e7da70cb690479c"},"uuid":4128055,"name":"STUDEA CERGY GENOTTES","address":"42 AVENUE DES GENOTTES","zipCode":95800,"city":"CERGY","status":"0","rooms":24,"lastVisit":{"$date":"2019-06-11T22:00:00Z"},"anomaly":40.61,"sector":"78/95","__v":0}
{"_id":{"$oid":"5e33f2744e7da70cb690479d"},"uuid":9415502,"name":"Studéa Saint Ouen","address":"3-4 rue Aimé Césaire","zipCode":93400,"city":"SAINT-OUEN","status":"0","rooms":0,"lastVisit":{"$date":"2019-07-04T22:00:00Z"},"anomaly":47.88,"sector":"93","__v":0}
{"_id":{"$oid":"5e33f2744e7da70cb690479e"},"uuid":8734005,"name":"Studélites La Source","address":"9 avenue François Mitterrand","zipCode":94000,"city":"CRETEIL","status":"0","rooms":3,"lastVisit":{"$date":"2019-06-25T22:00:00Z"},"anomaly":41.22,"sector":"92/94","__v":0}
{"_id":{"$oid":"5e33f2744e7da70cb690479f"},"uuid":5935970,"name":"Studélites Le Rembrandt","address":"153 avenue de Flandres","zipCode":75019,"city":"PARIS","status":"0","rooms":2,"lastVisit":{"$date":"2019-06-16T22:00:00Z"},"anomaly":36.37,"sector":"Paris","__v":0}
{"_id":{"$oid":"5e33f2744e7da70cb69047a0"},"uuid":7229807,"name":"Studélites Maréchal et Consul","address":"119-121 Boulevard Brune","zipCode":75014,"city":"PARIS","status":"0","rooms":7,"lastVisit":{"$date":"2019-06-06T22:00:00Z"},"anomaly":40.68,"sector":"Paris","__v":0}
{"_id":{"$oid":"5e33f2744e7da70cb69047a1"},"uuid":52913,"name":"Studio des Batignolles","address":"36 rue des Batignolles","zipCode":75017,"city":"PARIS","status":"0","rooms":28,"lastVisit":{"$date":"2019-11-07T23:00:00Z"},"anomaly":40.61,"sector":"Paris","__v":0}
{"_id":{"$oid":"5e33f2744e7da70cb69047a2"},"uuid":1078575,"name":"Style","address":"8 Rue Ganneron","zipCode":75018,"city":"PARIS","status":"0","rooms":26,"lastVisit":{"$date":"2019-12-08T23:00:00Z"},"anomaly":44.11,"sector":"Paris","__v":0}
{"_id":{"$oid":"5e33f2744e7da70cb69047a3"},"uuid":6206151,"name":"Tam Hôtel","address":"20 rue Voltaire","zipCode":93400,"city":"SAINT-OUEN","status":"0","rooms":28,"lastVisit":{"$date":"2019-08-08T22:00:00Z"},"anomaly":19.98,"sector":"93","__v":0}
{"_id":{"$oid":"5e33f2744e7da70cb69047a4"},"uuid":11301318,"name":"Technoparc Hôtel","address":"8 rue Gustave Eiffel","zipCode":78300,"city":"POISSY","status":"0","rooms":59,"lastVisit":{"$date":"2019-05-02T22:00:00Z"},"anomaly":45.93,"sector":"78/95","__v":0}
{"_id":{"$oid":"5e33f2744e7da70cb69047a5"},"uuid":7867613,"name":"Télémaque","address":"64 rue Daguerre","zipCode":75014,"city":"PARIS","status":"0","rooms":9,"lastVisit":{"$date":"2019-11-28T23:00:00Z"},"anomaly":39.33,"sector":"Paris","__v":0}
{"_id":{"$oid":"5e33f2744e7da70cb69047a6"},"uuid":1300095,"name":"Timgad de l'Alma","address":"37 rue de l'alma","zipCode":92400,"city":"COURBEVOIE","status":"0","rooms":0,"lastVisit":{"$date":"2019-09-30T22:00:00Z"},"anomaly":41.22,"sector":"92/94","__v":0}
{"_id":{"$oid":"5e33f2744e7da70cb69047a7"},"uuid":80345,"name":"Tontoncity","address":"73 avenue Georges Gosnat","zipCode":94200,"city":"IVRY-SUR-SEINE","status":"0","rooms":23,"lastVisit":{"$date":"2019-11-03T23:00:00Z"},"anomaly":48.07,"sector":"92/94","__v":0}
{"_id":{"$oid":"5e33f2744e7da70cb69047a8"},"uuid":5935010,"name":"Touraine","address":"6 rue Louis Bonnet","zipCode":75011,"city":"PARIS","status":"0","rooms":28,"lastVisit":{"$date":"2019-12-26T23:00:00Z"},"anomaly":42.65,"sector":"Paris","__v":0}
{"_id":{"$oid":"5e33f2744e7da70cb69047a9"},"uuid":148,"name":"Turbigo","address":"19 rue du Vertbois","zipCode":75003,"city":"PARIS","status":"0","rooms":13,"lastVisit":{"$date":"2019-11-06T23:00:00Z"},"anomaly":24.25,"sector":"Paris","__v":0}
{"_id":{"$oid":"5e33f2744e7da70cb69047aa"},"uuid":23525950,"name":"Valcan Ex Trianon","address":"15 Boulevard Victor Hugo","zipCode":93400,"city":"SAINT-OUEN","status":"0","rooms":17,"lastVisit":{"$date":"2019-08-12T22:00:00Z"},"anomaly":19.96,"sector":"93","__v":0}
{"_id":{"$oid":"5e33f2744e7da70cb69047ab"},"uuid":7981043,"name":"Vélodrome","address":"215 avenue de Versailles","zipCode":75016,"city":"PARIS","status":"0","rooms":6,"lastVisit":{"$date":"2019-06-19T22:00:00Z"},"anomaly":36.37,"sector":"Paris","__v":0}
{"_id":{"$oid":"5e33f2744e7da70cb69047ac"},"uuid":4831458,"name":"Versigny","address":"31 rue Letort","zipCode":75018,"city":"PARIS","status":"0","rooms":28,"lastVisit":{"$date":"2019-08-27T22:00:00Z"},"anomaly":35.85,"sector":"Paris","__v":0}
{"_id":{"$oid":"5e33f2744e7da70cb69047ad"},"uuid":24388772,"name":"Victoire Paris","address":"1 Boulevard Ornano","zipCode":75018,"city":"PARIS","status":"0","rooms":14,"lastVisit":{"$date":"2019-10-22T22:00:00Z"},"anomaly":38.79,"sector":"Paris","__v":0}
{"_id":{"$oid":"5e33f2744e7da70cb69047ae"},"uuid":4866879,"name":"Victor Hugo - Choisy le Roi","address":"40 avenue Victor Hugo","zipCode":94600,"city":"CHOISY-LE-ROI","status":"0","rooms":8,"lastVisit":{"$date":"2019-11-21T23:00:00Z"},"anomaly":34.55,"sector":"92/94","__v":0}
{"_id":{"$oid":"5e33f2744e7da70cb69047af"},"uuid":554069,"name":"Victor Hugo - Clamart","address":"166 avenue Victor Hugo","zipCode":92140,"city":"CLAMART","status":"0","rooms":32,"lastVisit":{"$date":"2019-11-13T23:00:00Z"},"anomaly":49.74,"sector":"92/94","__v":0}
{"_id":{"$oid":"5e33f2744e7da70cb69047b0"},"uuid":9967463,"name":"Victor Hugo - Saint Ouen","address":"112 Boulevard Victor Hugo","zipCode":93400,"city":"SAINT-OUEN","status":"0","rooms":16,"lastVisit":{"$date":"2019-08-08T22:00:00Z"},"anomaly":19.4,"sector":"93","__v":0}
{"_id":{"$oid":"5e33f2744e7da70cb69047b1"},"uuid":51055,"name":"Villa 27","address":"164 avenue Jean Jaurès","zipCode":93500,"city":"PANTIN","status":"0","rooms":12,"lastVisit":{"$date":"2019-08-07T22:00:00Z"},"anomaly":36.07,"sector":"93","__v":0}
{"_id":{"$oid":"5e33f2744e7da70cb69047b2"},"uuid":13255226,"name":"Villa du Maine","address":"20 rue Ledion","zipCode":75014,"city":"PARIS","status":"0","rooms":25,"lastVisit":{"$date":"2019-11-28T23:00:00Z"},"anomaly":41.22,"sector":"Paris","__v":0}
{"_id":{"$oid":"5e33f2744e7da70cb69047b3"},"uuid":4213640,"name":"VILLA Hôtel","address":"14 rue François Coppée","zipCode":92240,"city":"MALAKOFF","status":"0","rooms":2,"lastVisit":{"$date":"2019-09-23T22:00:00Z"},"anomaly":48.49,"sector":"92/94","__v":0}
{"_id":{"$oid":"5e33f2744e7da70cb69047b4"},"uuid":7044882,"name":"Villa Hôtel Beaulieu","address":"7-9 Rue du Capitaine Madon","zipCode":75018,"city":"PARIS","status":"0","rooms":24,"lastVisit":{"$date":"2019-11-12T23:00:00Z"},"anomaly":49.1,"sector":"Paris","__v":0}
{"_id":{"$oid":"5e33f2744e7da70cb69047b5"},"uuid":4584998,"name":"Villa Renaissance","address":"3-5 avenue René Isidore","zipCode":92260,"city":"FONTENAY-AUX-ROSES","status":"0","rooms":45,"lastVisit":{"$date":"2019-11-13T23:00:00Z"},"anomaly":50.31,"sector":"92/94","__v":0}
{"_id":{"$oid":"5e33f2744e7da70cb69047b6"},"uuid":3901982,"name":"Village de Montévrain","address":"12 Avenue de la Societé des Nations","zipCode":77144,"city":"MONTEVRAIN","status":"0","rooms":29,"lastVisit":{"$date":"2019-06-17T22:00:00Z"},"anomaly":40,"sector":"77/91","__v":0}
{"_id":{"$oid":"5e33f2744e7da70cb69047b7"},"uuid":98,"name":"Vix","address":"19 rue de Charonne","zipCode":75011,"city":"PARIS","status":"0","rooms":6,"lastVisit":{"$date":"2019-05-23T22:00:00Z"},"anomaly":19.4,"sector":"Paris","__v":0}
{"_id":{"$oid":"5e33f2744e7da70cb69047b8"},"uuid":125,"name":"Wattignies","address":"6 rue de Wattignies","zipCode":75012,"city":"PARIS","status":"0","rooms":15,"lastVisit":{"$date":"2019-11-13T23:00:00Z"},"anomaly":23.64,"sector":"Paris","__v":0}
{"_id":{"$oid":"5e33f2744e7da70cb69047b9"},"uuid":24561448,"name":"Welcomotel Chelles","address":"2 rue de l'Ormeteau","zipCode":77500,"city":"CHELLES","status":"0","rooms":41,"lastVisit":{"$date":"2019-08-21T22:00:00Z"},"anomaly":33.84,"sector":"77/91","__v":0}
{"_id":{"$oid":"5e33f2744e7da70cb69047ba"},"uuid":24628074,"name":"Welcomotel Chilly","address":"4 rue Denis Papin","zipCode":91380,"city":"CHILLY-MAZARIN","status":"0","rooms":81,"lastVisit":{"$date":"2019-08-25T22:00:00Z"},"anomaly":46.07,"sector":"77/91","__v":0}
{"_id":{"$oid":"5e33f2744e7da70cb69047bb"},"uuid":24666836,"name":"Welcomotel Coignières","address":"7 Rue Joseph Marie Jacquard","zipCode":78310,"city":"COIGNIERES","status":"0","rooms":3,"lastVisit":{"$date":"2019-11-04T23:00:00Z"},"anomaly":40,"sector":"78/95","__v":0}
{"_id":{"$oid":"5e33f2744e7da70cb69047bc"},"uuid":4343658,"name":"Welcomotel Les Mureaux","address":"11 rue Levassor","zipCode":78130,"city":"LES MUREAUX","status":"0","rooms":40,"lastVisit":{"$date":"2019-10-22T22:00:00Z"},"anomaly":33.94,"sector":"78/95","__v":0}
{"_id":{"$oid":"5e33f2744e7da70cb69047bd"},"uuid":25501101,"name":"Welcomotel Mareuil","address":"88-106 rue Jean Serva","zipCode":77100,"city":"MAREUIL-LES-MEAUX","status":"0","rooms":72,"lastVisit":{"$date":"2019-06-24T22:00:00Z"},"anomaly":43.64,"sector":"77/91","__v":0}
{"_id":{"$oid":"5e33f2744e7da70cb69047be"},"uuid":1867110,"name":"Zia","address":"48 avenue Michelet","zipCode":93400,"city":"SAINT-OUEN","status":"0","rooms":23,"lastVisit":{"$date":"2019-06-19T22:00:00Z"},"anomaly":34.35,"sector":"93","__v":0}
